{
"type": "FeatureCollection",
"name": "chernyakhiv_villages",
"crs": { "type": "name", "properties": { "name": "urn:ogc:def:crs:OGC:1.3:CRS84" } },
"xy_coordinate_resolution": 0.0001,
"features": [
{ "type": "Feature", "properties": { "district": "вінницький", "village": "Адамівка", "settlements": 2, "burials": 0, "catalogue_no": "1, 2", "source": "Магомедов Б. В. Пам'ятки черняхівської культури Вінницької обл., 2022" }, "geometry": { "type": "Point", "coordinates": [ 29.3171, 49.4348 ] } },
{ "type": "Feature", "properties": { "district": "вінницький", "village": "Андрушівка", "settlements": 2, "burials": 0, "catalogue_no": "3, 4", "source": "Магомедов Б. В. Пам'ятки черняхівської культури Вінницької обл., 2022" }, "geometry": { "type": "Point", "coordinates": [ 29.2113, 49.3614 ] } },
{ "type": "Feature", "properties": { "district": "вінницький", "village": "Бабин", "settlements": 3, "burials": 0, "catalogue_no": "5, 6, 7", "source": "Магомедов Б. В. Пам'ятки черняхівської культури Вінницької обл., 2022" }, "geometry": { "type": "Point", "coordinates": [ 29.326, 49.1359 ] } },
{ "type": "Feature", "properties": { "district": "вінницький", "village": "Бартошівка", "settlements": 2, "burials": 0, "catalogue_no": "8, 9", "source": "Магомедов Б. В. Пам'ятки черняхівської культури Вінницької обл., 2022" }, "geometry": { "type": "Point", "coordinates": [ 29.3282, 49.2952 ] } },
{ "type": "Feature", "properties": { "district": "вінницький", "village": "Березівка", "settlements": 1, "burials": 0, "catalogue_no": "10", "source": "Магомедов Б. В. Пам'ятки черняхівської культури Вінницької обл., 2022" }, "geometry": { "type": "Point", "coordinates": [ 29.6744, 49.2043 ] } },
{ "type": "Feature", "properties": { "district": "вінницький", "village": "Білашки", "settlements": 1, "burials": 0, "catalogue_no": "11", "source": "Магомедов Б. В. Пам'ятки черняхівської культури Вінницької обл., 2022" }, "geometry": { "type": "Point", "coordinates": [ 29.1694, 49.5098 ] } },
{ "type": "Feature", "properties": { "district": "вінницький", "village": "Богданівка", "settlements": 2, "burials": 0, "catalogue_no": "12, 13", "source": "Магомедов Б. В. Пам'ятки черняхівської культури Вінницької обл., 2022" }, "geometry": { "type": "Point", "coordinates": [ 29.1982, 49.3025 ] } },
{ "type": "Feature", "properties": { "district": "вінницький", "village": "Бондурівка", "settlements": 1, "burials": 0, "catalogue_no": "14", "source": "Магомедов Б. В. Пам'ятки черняхівської культури Вінницької обл., 2022" }, "geometry": { "type": "Point", "coordinates": [ 29.0488, 49.0373 ] } },
{ "type": "Feature", "properties": { "district": "вінницький", "village": "Борисівка", "settlements": 1, "burials": 0, "catalogue_no": "15", "source": "Магомедов Б. В. Пам'ятки черняхівської культури Вінницької обл., 2022" }, "geometry": { "type": "Point", "coordinates": [ 29.1883, 49.0727 ] } },
{ "type": "Feature", "properties": { "district": "вінницький", "village": "Борсків", "settlements": 1, "burials": 0, "catalogue_no": "16", "source": "Магомедов Б. В. Пам'ятки черняхівської культури Вінницької обл., 2022" }, "geometry": { "type": "Point", "coordinates": [ 28.3842, 49.0233 ] } },
{ "type": "Feature", "properties": { "district": "вінницький", "village": "Бохоники", "settlements": 1, "burials": 0, "catalogue_no": "17", "source": "Магомедов Б. В. Пам'ятки черняхівської культури Вінницької обл., 2022" }, "geometry": { "type": "Point", "coordinates": [ 28.3688, 49.1659 ] } },
{ "type": "Feature", "properties": { "district": "вінницький", "village": "Брицьке", "settlements": 1, "burials": 0, "catalogue_no": "18", "source": "Магомедов Б. В. Пам'ятки черняхівської культури Вінницької обл., 2022" }, "geometry": { "type": "Point", "coordinates": [ 28.9074, 49.3533 ] } },
{ "type": "Feature", "properties": { "district": "вінницький", "village": "Бухни", "settlements": 2, "burials": 0, "catalogue_no": "19, 20", "source": "Магомедов Б. В. Пам'ятки черняхівської культури Вінницької обл., 2022" }, "geometry": { "type": "Point", "coordinates": [ 29.3218, 49.6095 ] } },
{ "type": "Feature", "properties": { "district": "вінницький", "village": "Васильківці", "settlements": 1, "burials": 0, "catalogue_no": "21", "source": "Магомедов Б. В. Пам'ятки черняхівської культури Вінницької обл., 2022" }, "geometry": { "type": "Point", "coordinates": [ 29.2154, 49.4127 ] } },
{ "type": "Feature", "properties": { "district": "вінницький", "village": "Вахнівка", "settlements": 1, "burials": 0, "catalogue_no": "22", "source": "Магомедов Б. В. Пам'ятки черняхівської культури Вінницької обл., 2022" }, "geometry": { "type": "Point", "coordinates": [ 28.8392, 49.3235 ] } },
{ "type": "Feature", "properties": { "district": "вінницький", "village": "Вербівка", "settlements": 1, "burials": 0, "catalogue_no": "23", "source": "Магомедов Б. В. Пам'ятки черняхівської культури Вінницької обл., 2022" }, "geometry": { "type": "Point", "coordinates": [ 28.1542, 49.4113 ] } },
{ "type": "Feature", "properties": { "district": "вінницький", "village": "Вернянка", "settlements": 1, "burials": 0, "catalogue_no": "24", "source": "Магомедов Б. В. Пам'ятки черняхівської культури Вінницької обл., 2022" }, "geometry": { "type": "Point", "coordinates": [ 29.0711, 49.1394 ] } },
{ "type": "Feature", "properties": { "district": "вінницький", "village": "Вінницькі Хутори", "settlements": 2, "burials": 0, "catalogue_no": "25, 26", "source": "Магомедов Б. В. Пам'ятки черняхівської культури Вінницької обл., 2022" }, "geometry": { "type": "Point", "coordinates": [ 28.5507, 49.2047 ] } },
{ "type": "Feature", "properties": { "district": "вінницький", "village": "Вінниця", "settlements": 1, "burials": 0, "catalogue_no": "27", "source": "Магомедов Б. В. Пам'ятки черняхівської культури Вінницької обл., 2022" }, "geometry": { "type": "Point", "coordinates": [ 28.468, 49.232 ] } },
{ "type": "Feature", "properties": { "district": "вінницький", "village": "Воловодівка", "settlements": 2, "burials": 0, "catalogue_no": "28, 29", "source": "Магомедов Б. В. Пам'ятки черняхівської культури Вінницької обл., 2022" }, "geometry": { "type": "Point", "coordinates": [ 28.9218, 49.1308 ] } },
{ "type": "Feature", "properties": { "district": "вінницький", "village": "Гопчиця", "settlements": 1, "burials": 0, "catalogue_no": "30", "source": "Магомедов Б. В. Пам'ятки черняхівської культури Вінницької обл., 2022" }, "geometry": { "type": "Point", "coordinates": [ 29.2723, 49.5346 ] } },
{ "type": "Feature", "properties": { "district": "вінницький", "village": "Городище", "settlements": 2, "burials": 0, "catalogue_no": "31, 32", "source": "Магомедов Б. В. Пам'ятки черняхівської культури Вінницької обл., 2022" }, "geometry": { "type": "Point", "coordinates": [ 28.1002, 49.369 ] } },
{ "type": "Feature", "properties": { "district": "вінницький", "village": "Гунька", "settlements": 1, "burials": 0, "catalogue_no": "33", "source": "Магомедов Б. В. Пам'ятки черняхівської культури Вінницької обл., 2022" }, "geometry": { "type": "Point", "coordinates": [ 28.8171, 49.0004 ] } },
{ "type": "Feature", "properties": { "district": "вінницький", "village": "Дашківці", "settlements": 2, "burials": 0, "catalogue_no": "34, 35", "source": "Магомедов Б. В. Пам'ятки черняхівської культури Вінницької обл., 2022" }, "geometry": { "type": "Point", "coordinates": [ 28.2688, 49.2985 ] } },
{ "type": "Feature", "properties": { "district": "вінницький", "village": "Демидівка", "settlements": 3, "burials": 0, "catalogue_no": "36, 37, 38", "source": "Магомедов Б. В. Пам'ятки черняхівської культури Вінницької обл., 2022" }, "geometry": { "type": "Point", "coordinates": [ 28.2534, 49.1147 ] } },
{ "type": "Feature", "properties": { "district": "вінницький", "village": "Дзвониха", "settlements": 2, "burials": 0, "catalogue_no": "39, 40", "source": "Магомедов Б. В. Пам'ятки черняхівської культури Вінницької обл., 2022" }, "geometry": { "type": "Point", "coordinates": [ 28.5672, 48.9898 ] } },
{ "type": "Feature", "properties": { "district": "вінницький", "village": "Дяківці", "settlements": 1, "burials": 1, "catalogue_no": "41, 42", "source": "Магомедов Б. В. Пам'ятки черняхівської культури Вінницької обл., 2022" }, "geometry": { "type": "Point", "coordinates": [ 27.8734, 49.3921 ] } },
{ "type": "Feature", "properties": { "district": "вінницький", "village": "Животівка", "settlements": 1, "burials": 0, "catalogue_no": "43", "source": "Магомедов Б. В. Пам'ятки черняхівської культури Вінницької обл., 2022" }, "geometry": { "type": "Point", "coordinates": [ 29.5369, 49.2306 ] } },
{ "type": "Feature", "properties": { "district": "вінницький", "village": "Жорнище", "settlements": 1, "burials": 0, "catalogue_no": "44", "source": "Магомедов Б. В. Пам'ятки черняхівської культури Вінницької обл., 2022" }, "geometry": { "type": "Point", "coordinates": [ 29.0829, 49.0704 ] } },
{ "type": "Feature", "properties": { "district": "вінницький", "village": "Зарванка", "settlements": 2, "burials": 0, "catalogue_no": "45, 46", "source": "Магомедов Б. В. Пам'ятки черняхівської культури Вінницької обл., 2022" }, "geometry": { "type": "Point", "coordinates": [ 28.4685, 48.9914 ] } },
{ "type": "Feature", "properties": { "district": "вінницький", "village": "Зарудинці", "settlements": 1, "burials": 0, "catalogue_no": "47", "source": "Магомедов Б. В. Пам'ятки черняхівської культури Вінницької обл., 2022" }, "geometry": { "type": "Point", "coordinates": [ 28.9314, 48.9256 ] } },
{ "type": "Feature", "properties": { "district": "вінницький", "village": "Зозів", "settlements": 1, "burials": 0, "catalogue_no": "48", "source": "Магомедов Б. В. Пам'ятки черняхівської культури Вінницької обл., 2022" }, "geometry": { "type": "Point", "coordinates": [ 29.0111, 49.3132 ] } },
{ "type": "Feature", "properties": { "district": "вінницький", "village": "Іванківці", "settlements": 1, "burials": 0, "catalogue_no": "49", "source": "Магомедов Б. В. Пам'ятки черняхівської культури Вінницької обл., 2022" }, "geometry": { "type": "Point", "coordinates": [ 28.3863, 48.9609 ] } },
{ "type": "Feature", "properties": { "district": "вінницький", "village": "Іваньки", "settlements": 1, "burials": 0, "catalogue_no": "50", "source": "Магомедов Б. В. Пам'ятки черняхівської культури Вінницької обл., 2022" }, "geometry": { "type": "Point", "coordinates": [ 29.0688, 49.1034 ] } },
{ "type": "Feature", "properties": { "district": "вінницький", "village": "Іваньки", "settlements": 1, "burials": 0, "catalogue_no": "51", "source": "Магомедов Б. В. Пам'ятки черняхівської культури Вінницької обл., 2022" }, "geometry": { "type": "Point", "coordinates": [ 29.2085, 49.5479 ] } },
{ "type": "Feature", "properties": { "district": "вінницький", "village": "Івонівці", "settlements": 1, "burials": 0, "catalogue_no": "52", "source": "Магомедов Б. В. Пам'ятки черняхівської культури Вінницької обл., 2022" }, "geometry": { "type": "Point", "coordinates": [ 28.5853, 48.9063 ] } },
{ "type": "Feature", "properties": { "district": "вінницький", "village": "Іллінці", "settlements": 2, "burials": 0, "catalogue_no": "53, 54", "source": "Магомедов Б. В. Пам'ятки черняхівської культури Вінницької обл., 2022" }, "geometry": { "type": "Point", "coordinates": [ 29.2024, 49.1136 ] } },
{ "type": "Feature", "properties": { "district": "вінницький", "village": "Кальнишівка", "settlements": 1, "burials": 0, "catalogue_no": "55", "source": "Магомедов Б. В. Пам'ятки черняхівської культури Вінницької обл., 2022" }, "geometry": { "type": "Point", "coordinates": [ 28.6408, 49.0843 ] } },
{ "type": "Feature", "properties": { "district": "вінницький", "village": "Канава", "settlements": 2, "burials": 0, "catalogue_no": "56, 57", "source": "Магомедов Б. В. Пам'ятки черняхівської культури Вінницької обл., 2022" }, "geometry": { "type": "Point", "coordinates": [ 28.6551, 48.9736 ] } },
{ "type": "Feature", "properties": { "district": "вінницький", "village": "Кліщів", "settlements": 1, "burials": 0, "catalogue_no": "58", "source": "Магомедов Б. В. Пам'ятки черняхівської культури Вінницької обл., 2022" }, "geometry": { "type": "Point", "coordinates": [ 28.5645, 49.0091 ] } },
{ "type": "Feature", "properties": { "district": "вінницький", "village": "Ковалівка", "settlements": 1, "burials": 0, "catalogue_no": "59", "source": "Магомедов Б. В. Пам'ятки черняхівської культури Вінницької обл., 2022" }, "geometry": { "type": "Point", "coordinates": [ 28.8886, 49.0218 ] } },
{ "type": "Feature", "properties": { "district": "вінницький", "village": "Криківці", "settlements": 1, "burials": 0, "catalogue_no": "60", "source": "Магомедов Б. В. Пам'ятки черняхівської культури Вінницької обл., 2022" }, "geometry": { "type": "Point", "coordinates": [ 28.9984, 48.9794 ] } },
{ "type": "Feature", "properties": { "district": "вінницький", "village": "Круподеринці", "settlements": 3, "burials": 0, "catalogue_no": "61, 62, 63", "source": "Магомедов Б. В. Пам'ятки черняхівської культури Вінницької обл., 2022" }, "geometry": { "type": "Point", "coordinates": [ 29.3447, 49.5064 ] } },
{ "type": "Feature", "properties": { "district": "вінницький", "village": "Курники", "settlements": 1, "burials": 1, "catalogue_no": "64, 65", "source": "Магомедов Б. В. Пам'ятки черняхівської культури Вінницької обл., 2022" }, "geometry": { "type": "Point", "coordinates": [ 28.4151, 48.9915 ] } },
{ "type": "Feature", "properties": { "district": "вінницький", "village": "Ліщинці", "settlements": 1, "burials": 0, "catalogue_no": "66", "source": "Магомедов Б. В. Пам'ятки черняхівської культури Вінницької обл., 2022" }, "geometry": { "type": "Point", "coordinates": [ 29.1721, 49.5669 ] } },
{ "type": "Feature", "properties": { "district": "вінницький", "village": "Лугова", "settlements": 2, "burials": 0, "catalogue_no": "67, 68", "source": "Магомедов Б. В. Пам'ятки черняхівської культури Вінницької обл., 2022" }, "geometry": { "type": "Point", "coordinates": [ 29.0979, 49.1003 ] } },
{ "type": "Feature", "properties": { "district": "вінницький", "village": "Мала Бушинка", "settlements": 1, "burials": 0, "catalogue_no": "69", "source": "Магомедов Б. В. Пам'ятки черняхівської культури Вінницької обл., 2022" }, "geometry": { "type": "Point", "coordinates": [ 28.7559, 48.8855 ] } },
{ "type": "Feature", "properties": { "district": "вінницький", "village": "Мар’янівка", "settlements": 1, "burials": 0, "catalogue_no": "70", "source": "Магомедов Б. В. Пам'ятки черняхівської культури Вінницької обл., 2022" }, "geometry": { "type": "Point", "coordinates": [ 29.0468, 49.0246 ] } },
{ "type": "Feature", "properties": { "district": "вінницький", "village": "Медвеже Вушко", "settlements": 1, "burials": 0, "catalogue_no": "71", "source": "Магомедов Б. В. Пам'ятки черняхівської культури Вінницької обл., 2022" }, "geometry": { "type": "Point", "coordinates": [ 28.3113, 49.1828 ] } },
{ "type": "Feature", "properties": { "district": "вінницький", "village": "Медівка", "settlements": 1, "burials": 0, "catalogue_no": "72", "source": "Магомедов Б. В. Пам'ятки черняхівської культури Вінницької обл., 2022" }, "geometry": { "type": "Point", "coordinates": [ 29.3411, 49.262 ] } },
{ "type": "Feature", "properties": { "district": "вінницький", "village": "Морозівка", "settlements": 2, "burials": 0, "catalogue_no": "73, 74", "source": "Магомедов Б. В. Пам'ятки черняхівської культури Вінницької обл., 2022" }, "geometry": { "type": "Point", "coordinates": [ 29.374, 49.6077 ] } },
{ "type": "Feature", "properties": { "district": "вінницький", "village": "Мухівці", "settlements": 1, "burials": 0, "catalogue_no": "75", "source": "Магомедов Б. В. Пам'ятки черняхівської культури Вінницької обл., 2022" }, "geometry": { "type": "Point", "coordinates": [ 28.7943, 48.9504 ] } },
{ "type": "Feature", "properties": { "district": "вінницький", "village": "Нападівка", "settlements": 1, "burials": 0, "catalogue_no": "76", "source": "Магомедов Б. В. Пам'ятки черняхівської культури Вінницької обл., 2022" }, "geometry": { "type": "Point", "coordinates": [ 29.1389, 49.277 ] } },
{ "type": "Feature", "properties": { "district": "вінницький", "village": "Неменка", "settlements": 2, "burials": 0, "catalogue_no": "77, 78", "source": "Магомедов Б. В. Пам'ятки черняхівської культури Вінницької обл., 2022" }, "geometry": { "type": "Point", "coordinates": [ 29.2592, 49.1137 ] } },
{ "type": "Feature", "properties": { "district": "вінницький", "village": "Немирів", "settlements": 1, "burials": 0, "catalogue_no": "79", "source": "Магомедов Б. В. Пам'ятки черняхівської культури Вінницької обл., 2022" }, "geometry": { "type": "Point", "coordinates": [ 28.843, 48.9654 ] } },
{ "type": "Feature", "properties": { "district": "вінницький", "village": "Никифорівці", "settlements": 2, "burials": 0, "catalogue_no": "80, 81", "source": "Магомедов Б. В. Пам'ятки черняхівської культури Вінницької обл., 2022" }, "geometry": { "type": "Point", "coordinates": [ 28.6905, 49.0122 ] } },
{ "type": "Feature", "properties": { "district": "вінницький", "village": "Новоживотів", "settlements": 1, "burials": 0, "catalogue_no": "82", "source": "Магомедов Б. В. Пам'ятки черняхівської культури Вінницької обл., 2022" }, "geometry": { "type": "Point", "coordinates": [ 29.5386, 49.267 ] } },
{ "type": "Feature", "properties": { "district": "вінницький", "village": "Новофастів", "settlements": 1, "burials": 0, "catalogue_no": "83", "source": "Магомедов Б. В. Пам'ятки черняхівської культури Вінницької обл., 2022" }, "geometry": { "type": "Point", "coordinates": [ 29.4539, 49.5759 ] } },
{ "type": "Feature", "properties": { "district": "вінницький", "village": "Оратів", "settlements": 2, "burials": 0, "catalogue_no": "84, 85", "source": "Магомедов Б. В. Пам'ятки черняхівської культури Вінницької обл., 2022" }, "geometry": { "type": "Point", "coordinates": [ 29.5306, 49.1947 ] } },
{ "type": "Feature", "properties": { "district": "вінницький", "village": "Оратівка", "settlements": 1, "burials": 0, "catalogue_no": "86", "source": "Магомедов Б. В. Пам'ятки черняхівської культури Вінницької обл., 2022" }, "geometry": { "type": "Point", "coordinates": [ 29.5871, 49.1751 ] } },
{ "type": "Feature", "properties": { "district": "вінницький", "village": "Осична", "settlements": 1, "burials": 0, "catalogue_no": "87", "source": "Магомедов Б. В. Пам'ятки черняхівської культури Вінницької обл., 2022" }, "geometry": { "type": "Point", "coordinates": [ 29.6269, 49.223 ] } },
{ "type": "Feature", "properties": { "district": "вінницький", "village": "Остапківці", "settlements": 2, "burials": 0, "catalogue_no": "88, 89", "source": "Магомедов Б. В. Пам'ятки черняхівської культури Вінницької обл., 2022" }, "geometry": { "type": "Point", "coordinates": [ 28.8244, 48.8826 ] } },
{ "type": "Feature", "properties": { "district": "вінницький", "village": "Очитків", "settlements": 2, "burials": 0, "catalogue_no": "90, 91", "source": "Магомедов Б. В. Пам'ятки черняхівської культури Вінницької обл., 2022" }, "geometry": { "type": "Point", "coordinates": [ 29.2279, 49.3033 ] } },
{ "type": "Feature", "properties": { "district": "вінницький", "village": "Паріївка", "settlements": 2, "burials": 0, "catalogue_no": "92, 93", "source": "Магомедов Б. В. Пам'ятки черняхівської культури Вінницької обл., 2022" }, "geometry": { "type": "Point", "coordinates": [ 29.2857, 49.085 ] } },
{ "type": "Feature", "properties": { "district": "вінницький", "village": "Паріївка", "settlements": 1, "burials": 0, "catalogue_no": "94", "source": "Магомедов Б. В. Пам'ятки черняхівської культури Вінницької обл., 2022" }, "geometry": { "type": "Point", "coordinates": [ 29.1769, 49.341 ] } },
{ "type": "Feature", "properties": { "district": "вінницький", "village": "Педоси", "settlements": 4, "burials": 0, "catalogue_no": "95, 96, 97, 98", "source": "Магомедов Б. В. Пам'ятки черняхівської культури Вінницької обл., 2022" }, "geometry": { "type": "Point", "coordinates": [ 29.2302, 49.4409 ] } },
{ "type": "Feature", "properties": { "district": "вінницький", "village": "Переорки", "settlements": 1, "burials": 0, "catalogue_no": "99", "source": "Магомедов Б. В. Пам'ятки черняхівської культури Вінницької обл., 2022" }, "geometry": { "type": "Point", "coordinates": [ 28.4048, 49.3162 ] } },
{ "type": "Feature", "properties": { "district": "вінницький", "village": "Перепеличе", "settlements": 1, "burials": 0, "catalogue_no": "100", "source": "Магомедов Б. В. Пам'ятки черняхівської культури Вінницької обл., 2022" }, "geometry": { "type": "Point", "coordinates": [ 28.8777, 48.8508 ] } },
{ "type": "Feature", "properties": { "district": "вінницький", "village": "Петрівка", "settlements": 2, "burials": 0, "catalogue_no": "101, 102", "source": "Магомедов Б. В. Пам'ятки черняхівської культури Вінницької обл., 2022" }, "geometry": { "type": "Point", "coordinates": [ 28.8427, 49.4217 ] } },
{ "type": "Feature", "properties": { "district": "вінницький", "village": "Пісочин", "settlements": 2, "burials": 0, "catalogue_no": "103, 104", "source": "Магомедов Б. В. Пам'ятки черняхівської культури Вінницької обл., 2022" }, "geometry": { "type": "Point", "coordinates": [ 29.0162, 49.1061 ] } },
{ "type": "Feature", "properties": { "district": "вінницький", "village": "Плисків", "settlements": 2, "burials": 0, "catalogue_no": "105, 106", "source": "Магомедов Б. В. Пам'ятки черняхівської культури Вінницької обл., 2022" }, "geometry": { "type": "Point", "coordinates": [ 29.2824, 49.371 ] } },
{ "type": "Feature", "properties": { "district": "вінницький", "village": "Побережне", "settlements": 3, "burials": 1, "catalogue_no": "107, 108, 109, 110", "source": "Магомедов Б. В. Пам'ятки черняхівської культури Вінницької обл., 2022" }, "geometry": { "type": "Point", "coordinates": [ 28.7764, 49.1081 ] } },
{ "type": "Feature", "properties": { "district": "вінницький", "village": "Попівка", "settlements": 1, "burials": 1, "catalogue_no": "111, 112", "source": "Магомедов Б. В. Пам'ятки черняхівської культури Вінницької обл., 2022" }, "geometry": { "type": "Point", "coordinates": [ 29.0437, 49.1467 ] } },
{ "type": "Feature", "properties": { "district": "вінницький", "village": "Прибузьке", "settlements": 1, "burials": 0, "catalogue_no": "113", "source": "Магомедов Б. В. Пам'ятки черняхівської культури Вінницької обл., 2022" }, "geometry": { "type": "Point", "coordinates": [ 28.4275, 49.1737 ] } },
{ "type": "Feature", "properties": { "district": "вінницький", "village": "Росоша", "settlements": 3, "burials": 0, "catalogue_no": "114, 115, 116", "source": "Магомедов Б. В. Пам'ятки черняхівської культури Вінницької обл., 2022" }, "geometry": { "type": "Point", "coordinates": [ 29.1876, 49.2479 ] } },
{ "type": "Feature", "properties": { "district": "вінницький", "village": "Рубань", "settlements": 3, "burials": 0, "catalogue_no": "117, 118, 119", "source": "Магомедов Б. В. Пам'ятки черняхівської культури Вінницької обл., 2022" }, "geometry": { "type": "Point", "coordinates": [ 28.972, 49.0086 ] } },
{ "type": "Feature", "properties": { "district": "вінницький", "village": "Саражинці", "settlements": 3, "burials": 0, "catalogue_no": "120, 121, 122", "source": "Магомедов Б. В. Пам'ятки черняхівської культури Вінницької обл., 2022" }, "geometry": { "type": "Point", "coordinates": [ 29.3924, 49.504 ] } },
{ "type": "Feature", "properties": { "district": "вінницький", "village": "Свитинці", "settlements": 3, "burials": 0, "catalogue_no": "123, 124, 125", "source": "Магомедов Б. В. Пам'ятки черняхівської культури Вінницької обл., 2022" }, "geometry": { "type": "Point", "coordinates": [ 29.0272, 49.5713 ] } },
{ "type": "Feature", "properties": { "district": "вінницький", "village": "Селище", "settlements": 1, "burials": 0, "catalogue_no": "126", "source": "Магомедов Б. В. Пам'ятки черняхівської культури Вінницької обл., 2022" }, "geometry": { "type": "Point", "coordinates": [ 28.358, 49.1297 ] } },
{ "type": "Feature", "properties": { "district": "вінницький", "village": "Синарна", "settlements": 3, "burials": 0, "catalogue_no": "127, 128, 129", "source": "Магомедов Б. В. Пам'ятки черняхівської культури Вінницької обл., 2022" }, "geometry": { "type": "Point", "coordinates": [ 29.3088, 49.1582 ] } },
{ "type": "Feature", "properties": { "district": "вінницький", "village": "Скитка", "settlements": 0, "burials": 1, "catalogue_no": "130", "source": "Магомедов Б. В. Пам'ятки черняхівської культури Вінницької обл., 2022" }, "geometry": { "type": "Point", "coordinates": [ 29.1508, 49.2157 ] } },
{ "type": "Feature", "properties": { "district": "вінницький", "village": "Слобідка", "settlements": 1, "burials": 0, "catalogue_no": "131", "source": "Магомедов Б. В. Пам'ятки черняхівської культури Вінницької обл., 2022" }, "geometry": { "type": "Point", "coordinates": [ 29.1175, 49.1399 ] } },
{ "type": "Feature", "properties": { "district": "вінницький", "village": "Сокілець", "settlements": 1, "burials": 0, "catalogue_no": "132", "source": "Магомедов Б. В. Пам'ятки черняхівської культури Вінницької обл., 2022" }, "geometry": { "type": "Point", "coordinates": [ 28.7235, 48.8689 ] } },
{ "type": "Feature", "properties": { "district": "вінницький", "village": "Сорока", "settlements": 1, "burials": 0, "catalogue_no": "133", "source": "Магомедов Б. В. Пам'ятки черняхівської культури Вінницької обл., 2022" }, "geometry": { "type": "Point", "coordinates": [ 29.3585, 49.063 ] } },
{ "type": "Feature", "properties": { "district": "вінницький", "village": "Степанівка", "settlements": 4, "burials": 0, "catalogue_no": "134, 135, 136, 137", "source": "Магомедов Б. В. Пам'ятки черняхівської культури Вінницької обл., 2022" }, "geometry": { "type": "Point", "coordinates": [ 28.7636, 49.1257 ] } },
{ "type": "Feature", "properties": { "district": "вінницький", "village": "Стрижавка", "settlements": 3, "burials": 0, "catalogue_no": "138, 139, 140", "source": "Магомедов Б. В. Пам'ятки черняхівської культури Вінницької обл., 2022" }, "geometry": { "type": "Point", "coordinates": [ 28.4731, 49.3098 ] } },
{ "type": "Feature", "properties": { "district": "вінницький", "village": "Стрільчинці", "settlements": 1, "burials": 0, "catalogue_no": "141", "source": "Магомедов Б. В. Пам'ятки черняхівської культури Вінницької обл., 2022" }, "geometry": { "type": "Point", "coordinates": [ 28.6867, 48.9527 ] } },
{ "type": "Feature", "properties": { "district": "вінницький", "village": "Струтинка", "settlements": 1, "burials": 0, "catalogue_no": "142", "source": "Магомедов Б. В. Пам'ятки черняхівської культури Вінницької обл., 2022" }, "geometry": { "type": "Point", "coordinates": [ 28.9778, 49.1878 ] } },
{ "type": "Feature", "properties": { "district": "вінницький", "village": "Тростянець", "settlements": 2, "burials": 0, "catalogue_no": "143, 144", "source": "Магомедов Б. В. Пам'ятки черняхівської культури Вінницької обл., 2022" }, "geometry": { "type": "Point", "coordinates": [ 28.6131, 49.0945 ] } },
{ "type": "Feature", "properties": { "district": "вінницький", "village": "Троща", "settlements": 2, "burials": 0, "catalogue_no": "145, 146", "source": "Магомедов Б. В. Пам'ятки черняхівської культури Вінницької обл., 2022" }, "geometry": { "type": "Point", "coordinates": [ 29.0916, 49.1567 ] } },
{ "type": "Feature", "properties": { "district": "вінницький", "village": "Тягун", "settlements": 2, "burials": 0, "catalogue_no": "147, 148", "source": "Магомедов Б. В. Пам'ятки черняхівської культури Вінницької обл., 2022" }, "geometry": { "type": "Point", "coordinates": [ 29.2559, 49.1546 ] } },
{ "type": "Feature", "properties": { "district": "вінницький", "village": "Федорівка", "settlements": 3, "burials": 0, "catalogue_no": "149, 150, 151", "source": "Магомедов Б. В. Пам'ятки черняхівської культури Вінницької обл., 2022" }, "geometry": { "type": "Point", "coordinates": [ 28.6131, 49.0629 ] } },
{ "type": "Feature", "properties": { "district": "вінницький", "village": "Чагів", "settlements": 2, "burials": 0, "catalogue_no": "152, 153", "source": "Магомедов Б. В. Пам'ятки черняхівської культури Вінницької обл., 2022" }, "geometry": { "type": "Point", "coordinates": [ 29.3266, 49.2181 ] } },
{ "type": "Feature", "properties": { "district": "вінницький", "village": "Чуків", "settlements": 1, "burials": 0, "catalogue_no": "154", "source": "Магомедов Б. В. Пам'ятки черняхівської культури Вінницької обл., 2022" }, "geometry": { "type": "Point", "coordinates": [ 28.8811, 48.8909 ] } },
{ "type": "Feature", "properties": { "district": "вінницький", "village": "Шершні", "settlements": 1, "burials": 0, "catalogue_no": "155", "source": "Магомедов Б. В. Пам'ятки черняхівської культури Вінницької обл., 2022" }, "geometry": { "type": "Point", "coordinates": [ 28.4284, 49.024 ] } },
{ "type": "Feature", "properties": { "district": "вінницький", "village": "Ширмівка", "settlements": 1, "burials": 0, "catalogue_no": "156", "source": "Магомедов Б. В. Пам'ятки черняхівської культури Вінницької обл., 2022" }, "geometry": { "type": "Point", "coordinates": [ 29.0987, 49.5672 ] } },
{ "type": "Feature", "properties": { "district": "вінницький", "village": "Щітки", "settlements": 1, "burials": 0, "catalogue_no": "157", "source": "Магомедов Б. В. Пам'ятки черняхівської культури Вінницької обл., 2022" }, "geometry": { "type": "Point", "coordinates": [ 28.5868, 49.1989 ] } },
{ "type": "Feature", "properties": { "district": "вінницький", "village": "Якубівка", "settlements": 3, "burials": 0, "catalogue_no": "158, 159, 160", "source": "Магомедов Б. В. Пам'ятки черняхівської культури Вінницької обл., 2022" }, "geometry": { "type": "Point", "coordinates": [ 29.1321, 49.0938 ] } },
{ "type": "Feature", "properties": { "district": "гайсинський", "village": "Анютине", "settlements": 1, "burials": 0, "catalogue_no": "161", "source": "Магомедов Б. В. Пам'ятки черняхівської культури Вінницької обл., 2022" }, "geometry": { "type": "Point", "coordinates": [ 29.3706, 48.1711 ] } },
{ "type": "Feature", "properties": { "district": "гайсинський", "village": "Баланівка", "settlements": 1, "burials": 0, "catalogue_no": "162", "source": "Магомедов Б. В. Пам'ятки черняхівської культури Вінницької обл., 2022" }, "geometry": { "type": "Point", "coordinates": [ 29.3912, 48.402 ] } },
{ "type": "Feature", "properties": { "district": "гайсинський", "village": "Басаличівка", "settlements": 1, "burials": 0, "catalogue_no": "163", "source": "Магомедов Б. В. Пам'ятки черняхівської культури Вінницької обл., 2022" }, "geometry": { "type": "Point", "coordinates": [ 29.2607, 48.7292 ] } },
{ "type": "Feature", "properties": { "district": "гайсинський", "village": "Бершадь", "settlements": 1, "burials": 0, "catalogue_no": "164", "source": "Магомедов Б. В. Пам'ятки черняхівської культури Вінницької обл., 2022" }, "geometry": { "type": "Point", "coordinates": [ 29.5189, 48.3659 ] } },
{ "type": "Feature", "properties": { "district": "гайсинський", "village": "Бондурі", "settlements": 1, "burials": 0, "catalogue_no": "165", "source": "Магомедов Б. В. Пам'ятки черняхівської культури Вінницької обл., 2022" }, "geometry": { "type": "Point", "coordinates": [ 29.4295, 48.8998 ] } },
{ "type": "Feature", "properties": { "district": "гайсинський", "village": "Бубнівка", "settlements": 3, "burials": 0, "catalogue_no": "166, 167, 168", "source": "Магомедов Б. В. Пам'ятки черняхівської культури Вінницької обл., 2022" }, "geometry": { "type": "Point", "coordinates": [ 29.3094, 48.7203 ] } },
{ "type": "Feature", "properties": { "district": "гайсинський", "village": "Бур’яни", "settlements": 1, "burials": 0, "catalogue_no": "169", "source": "Магомедов Б. В. Пам'ятки черняхівської культури Вінницької обл., 2022" }, "geometry": { "type": "Point", "coordinates": [ 29.485, 48.6727 ] } },
{ "type": "Feature", "properties": { "district": "гайсинський", "village": "Велика Мочулка", "settlements": 2, "burials": 0, "catalogue_no": "170, 171", "source": "Магомедов Б. В. Пам'ятки черняхівської культури Вінницької обл., 2022" }, "geometry": { "type": "Point", "coordinates": [ 29.5902, 48.6344 ] } },
{ "type": "Feature", "properties": { "district": "гайсинський", "village": "Гайсин", "settlements": 1, "burials": 0, "catalogue_no": "172", "source": "Магомедов Б. В. Пам'ятки черняхівської культури Вінницької обл., 2022" }, "geometry": { "type": "Point", "coordinates": [ 29.3894, 48.8121 ] } },
{ "type": "Feature", "properties": { "district": "гайсинський", "village": "Гнатівка", "settlements": 1, "burials": 0, "catalogue_no": "173", "source": "Магомедов Б. В. Пам'ятки черняхівської культури Вінницької обл., 2022" }, "geometry": { "type": "Point", "coordinates": [ 29.4476, 48.7663 ] } },
{ "type": "Feature", "properties": { "district": "гайсинський", "village": "Городок", "settlements": 1, "burials": 0, "catalogue_no": "174", "source": "Магомедов Б. В. Пам'ятки черняхівської культури Вінницької обл., 2022" }, "geometry": { "type": "Point", "coordinates": [ 29.5275, 48.9571 ] } },
{ "type": "Feature", "properties": { "district": "гайсинський", "village": "Гранів", "settlements": 1, "burials": 0, "catalogue_no": "175", "source": "Магомедов Б. В. Пам'ятки черняхівської культури Вінницької обл., 2022" }, "geometry": { "type": "Point", "coordinates": [ 29.5662, 48.8734 ] } },
{ "type": "Feature", "properties": { "district": "гайсинський", "village": "Губник", "settlements": 1, "burials": 0, "catalogue_no": "176", "source": "Магомедов Б. В. Пам'ятки черняхівської культури Вінницької обл., 2022" }, "geometry": { "type": "Point", "coordinates": [ 29.3299, 48.6182 ] } },
{ "type": "Feature", "properties": { "district": "гайсинський", "village": "Гунча", "settlements": 1, "burials": 0, "catalogue_no": "177", "source": "Магомедов Б. В. Пам'ятки черняхівської культури Вінницької обл., 2022" }, "geometry": { "type": "Point", "coordinates": [ 29.4503, 48.877 ] } },
{ "type": "Feature", "properties": { "district": "гайсинський", "village": "Дашів", "settlements": 0, "burials": 1, "catalogue_no": "178", "source": "Магомедов Б. В. Пам'ятки черняхівської культури Вінницької обл., 2022" }, "geometry": { "type": "Point", "coordinates": [ 29.4403, 49.0028 ] } },
{ "type": "Feature", "properties": { "district": "гайсинський", "village": "Жерденівка", "settlements": 1, "burials": 0, "catalogue_no": "179", "source": "Магомедов Б. В. Пам'ятки черняхівської культури Вінницької обл., 2022" }, "geometry": { "type": "Point", "coordinates": [ 29.3852, 48.7174 ] } },
{ "type": "Feature", "properties": { "district": "гайсинський", "village": "Заозерне", "settlements": 1, "burials": 0, "catalogue_no": "180", "source": "Магомедов Б. В. Пам'ятки черняхівської культури Вінницької обл., 2022" }, "geometry": { "type": "Point", "coordinates": [ 29.1531, 48.6929 ] } },
{ "type": "Feature", "properties": { "district": "гайсинський", "village": "Зятківці", "settlements": 1, "burials": 0, "catalogue_no": "181", "source": "Магомедов Б. В. Пам'ятки черняхівської культури Вінницької обл., 2022" }, "geometry": { "type": "Point", "coordinates": [ 29.4769, 48.7308 ] } },
{ "type": "Feature", "properties": { "district": "гайсинський", "village": "Кальник", "settlements": 2, "burials": 0, "catalogue_no": "182, 183", "source": "Магомедов Б. В. Пам'ятки черняхівської культури Вінницької обл., 2022" }, "geometry": { "type": "Point", "coordinates": [ 29.3941, 49.0366 ] } },
{ "type": "Feature", "properties": { "district": "гайсинський", "village": "Кам’яногірка", "settlements": 1, "burials": 0, "catalogue_no": "184", "source": "Магомедов Б. В. Пам'ятки черняхівської культури Вінницької обл., 2022" }, "geometry": { "type": "Point", "coordinates": [ 29.4631, 48.9705 ] } },
{ "type": "Feature", "properties": { "district": "гайсинський", "village": "Каташин", "settlements": 1, "burials": 0, "catalogue_no": "185", "source": "Магомедов Б. В. Пам'ятки черняхівської культури Вінницької обл., 2022" }, "geometry": { "type": "Point", "coordinates": [ 29.2817, 48.3219 ] } },
{ "type": "Feature", "properties": { "district": "гайсинський", "village": "Кисляк", "settlements": 1, "burials": 0, "catalogue_no": "186", "source": "Магомедов Б. В. Пам'ятки черняхівської культури Вінницької обл., 2022" }, "geometry": { "type": "Point", "coordinates": [ 29.4184, 48.8409 ] } },
{ "type": "Feature", "properties": { "district": "гайсинський", "village": "Китайгород", "settlements": 2, "burials": 0, "catalogue_no": "187, 188", "source": "Магомедов Б. В. Пам'ятки черняхівської культури Вінницької обл., 2022" }, "geometry": { "type": "Point", "coordinates": [ 29.4968, 48.9616 ] } },
{ "type": "Feature", "properties": { "district": "гайсинський", "village": "Косанове", "settlements": 1, "burials": 1, "catalogue_no": "189, 190", "source": "Магомедов Б. В. Пам'ятки черняхівської культури Вінницької обл., 2022" }, "geometry": { "type": "Point", "coordinates": [ 29.1908, 48.8402 ] } },
{ "type": "Feature", "properties": { "district": "гайсинський", "village": "Кошаринці", "settlements": 2, "burials": 0, "catalogue_no": "191, 192", "source": "Магомедов Б. В. Пам'ятки черняхівської культури Вінницької обл., 2022" }, "geometry": { "type": "Point", "coordinates": [ 29.4523, 48.4895 ] } },
{ "type": "Feature", "properties": { "district": "гайсинський", "village": "Криштопівка", "settlements": 0, "burials": 1, "catalogue_no": "193", "source": "Магомедов Б. В. Пам'ятки черняхівської культури Вінницької обл., 2022" }, "geometry": { "type": "Point", "coordinates": [ 29.319, 48.9108 ] } },
{ "type": "Feature", "properties": { "district": "гайсинський", "village": "Кузьминці", "settlements": 4, "burials": 0, "catalogue_no": "194, 195, 196, 197", "source": "Магомедов Б. В. Пам'ятки черняхівської культури Вінницької обл., 2022" }, "geometry": { "type": "Point", "coordinates": [ 29.1661, 48.8004 ] } },
{ "type": "Feature", "properties": { "district": "гайсинський", "village": "Кущинці", "settlements": 1, "burials": 0, "catalogue_no": "198", "source": "Магомедов Б. В. Пам'ятки черняхівської культури Вінницької обл., 2022" }, "geometry": { "type": "Point", "coordinates": [ 29.4738, 48.7571 ] } },
{ "type": "Feature", "properties": { "district": "гайсинський", "village": "Мелешків", "settlements": 2, "burials": 0, "catalogue_no": "199, 200", "source": "Магомедов Б. В. Пам'ятки черняхівської культури Вінницької обл., 2022" }, "geometry": { "type": "Point", "coordinates": [ 29.5231, 48.7175 ] } },
{ "type": "Feature", "properties": { "district": "гайсинський", "village": "Митків", "settlements": 1, "burials": 0, "catalogue_no": "201", "source": "Магомедов Б. В. Пам'ятки черняхівської культури Вінницької обл., 2022" }, "geometry": { "type": "Point", "coordinates": [ 29.6224, 48.7803 ] } },
{ "type": "Feature", "properties": { "district": "гайсинський", "village": "Михайлівка", "settlements": 2, "burials": 0, "catalogue_no": "202, 203", "source": "Магомедов Б. В. Пам'ятки черняхівської культури Вінницької обл., 2022" }, "geometry": { "type": "Point", "coordinates": [ 29.5419, 48.8326 ] } },
{ "type": "Feature", "properties": { "district": "гайсинський", "village": "Нараївка", "settlements": 1, "burials": 0, "catalogue_no": "204", "source": "Магомедов Б. В. Пам'ятки черняхівської культури Вінницької обл., 2022" }, "geometry": { "type": "Point", "coordinates": [ 29.6831, 48.9028 ] } },
{ "type": "Feature", "properties": { "district": "гайсинський", "village": "Нижча Кропивна", "settlements": 5, "burials": 0, "catalogue_no": "205, 206, 207, 208, 209", "source": "Магомедов Б. В. Пам'ятки черняхівської культури Вінницької обл., 2022" }, "geometry": { "type": "Point", "coordinates": [ 29.1378, 48.8574 ] } },
{ "type": "Feature", "properties": { "district": "гайсинський", "village": "Оляниця", "settlements": 1, "burials": 0, "catalogue_no": "210", "source": "Магомедов Б. В. Пам'ятки черняхівської культури Вінницької обл., 2022" }, "geometry": { "type": "Point", "coordinates": [ 29.229, 48.6117 ] } },
{ "type": "Feature", "properties": { "district": "гайсинський", "village": "Ометинці", "settlements": 3, "burials": 0, "catalogue_no": "211, 212, 213", "source": "Магомедов Б. В. Пам'ятки черняхівської культури Вінницької обл., 2022" }, "geometry": { "type": "Point", "coordinates": [ 29.1017, 48.9692 ] } },
{ "type": "Feature", "properties": { "district": "гайсинський", "village": "Осіївка", "settlements": 1, "burials": 0, "catalogue_no": "214", "source": "Магомедов Б. В. Пам'ятки черняхівської культури Вінницької обл., 2022" }, "geometry": { "type": "Point", "coordinates": [ 29.7256, 48.3315 ] } },
{ "type": "Feature", "properties": { "district": "гайсинський", "village": "Петрашівка", "settlements": 2, "burials": 0, "catalogue_no": "215, 216", "source": "Магомедов Б. В. Пам'ятки черняхівської культури Вінницької обл., 2022" }, "geometry": { "type": "Point", "coordinates": [ 29.4607, 48.5332 ] } },
{ "type": "Feature", "properties": { "district": "гайсинський", "village": "Побірка", "settlements": 1, "burials": 0, "catalogue_no": "217", "source": "Магомедов Б. В. Пам'ятки черняхівської культури Вінницької обл., 2022" }, "geometry": { "type": "Point", "coordinates": [ 29.4372, 48.5829 ] } },
{ "type": "Feature", "properties": { "district": "гайсинський", "village": "Пологи", "settlements": 3, "burials": 0, "catalogue_no": "218, 219, 220", "source": "Магомедов Б. В. Пам'ятки черняхівської культури Вінницької обл., 2022" }, "geometry": { "type": "Point", "coordinates": [ 29.7475, 48.5743 ] } },
{ "type": "Feature", "properties": { "district": "гайсинський", "village": "Рогізка", "settlements": 1, "burials": 0, "catalogue_no": "221", "source": "Магомедов Б. В. Пам'ятки черняхівської культури Вінницької обл., 2022" }, "geometry": { "type": "Point", "coordinates": [ 29.444, 48.2475 ] } },
{ "type": "Feature", "properties": { "district": "гайсинський", "village": "Самчинці", "settlements": 2, "burials": 0, "catalogue_no": "222, 223", "source": "Магомедов Б. В. Пам'ятки черняхівської культури Вінницької обл., 2022" }, "geometry": { "type": "Point", "coordinates": [ 29.0301, 48.8717 ] } },
{ "type": "Feature", "properties": { "district": "гайсинський", "village": "Ситківці", "settlements": 2, "burials": 0, "catalogue_no": "224, 225", "source": "Магомедов Б. В. Пам'ятки черняхівської культури Вінницької обл., 2022" }, "geometry": { "type": "Point", "coordinates": [ 29.2023, 48.9096 ] } },
{ "type": "Feature", "properties": { "district": "гайсинський", "village": "Скибинці", "settlements": 1, "burials": 0, "catalogue_no": "226", "source": "Магомедов Б. В. Пам'ятки черняхівської культури Вінницької обл., 2022" }, "geometry": { "type": "Point", "coordinates": [ 29.3603, 48.5586 ] } },
{ "type": "Feature", "properties": { "district": "гайсинський", "village": "Слобідка", "settlements": 2, "burials": 0, "catalogue_no": "227, 228", "source": "Магомедов Б. В. Пам'ятки черняхівської культури Вінницької обл., 2022" }, "geometry": { "type": "Point", "coordinates": [ 29.064, 48.8986 ] } },
{ "type": "Feature", "properties": { "district": "гайсинський", "village": "Стратіївка", "settlements": 1, "burials": 0, "catalogue_no": "229", "source": "Магомедов Б. В. Пам'ятки черняхівської культури Вінницької обл., 2022" }, "geometry": { "type": "Point", "coordinates": [ 29.432, 48.1423 ] } },
{ "type": "Feature", "properties": { "district": "гайсинський", "village": "Сумівка", "settlements": 2, "burials": 0, "catalogue_no": "230, 231", "source": "Магомедов Б. В. Пам'ятки черняхівської культури Вінницької обл., 2022" }, "geometry": { "type": "Point", "coordinates": [ 29.4914, 48.4837 ] } },
{ "type": "Feature", "properties": { "district": "гайсинський", "village": "Тарасівка", "settlements": 1, "burials": 0, "catalogue_no": "232", "source": "Магомедов Б. В. Пам'ятки черняхівської культури Вінницької обл., 2022" }, "geometry": { "type": "Point", "coordinates": [ 29.483, 48.8115 ] } },
{ "type": "Feature", "properties": { "district": "гайсинський", "village": "Теплик", "settlements": 1, "burials": 0, "catalogue_no": "233", "source": "Магомедов Б. В. Пам'ятки черняхівської культури Вінницької обл., 2022" }, "geometry": { "type": "Point", "coordinates": [ 29.7469, 48.6636 ] } },
{ "type": "Feature", "properties": { "district": "гайсинський", "village": "Тимар", "settlements": 1, "burials": 0, "catalogue_no": "234", "source": "Магомедов Б. В. Пам'ятки черняхівської культури Вінницької обл., 2022" }, "geometry": { "type": "Point", "coordinates": [ 29.4096, 48.7389 ] } },
{ "type": "Feature", "properties": { "district": "гайсинський", "village": "Тростянець", "settlements": 1, "burials": 0, "catalogue_no": "235", "source": "Магомедов Б. В. Пам'ятки черняхівської культури Вінницької обл., 2022" }, "geometry": { "type": "Point", "coordinates": [ 29.2227, 48.5123 ] } },
{ "type": "Feature", "properties": { "district": "гайсинський", "village": "Тростянчик", "settlements": 1, "burials": 0, "catalogue_no": "236", "source": "Магомедов Б. В. Пам'ятки черняхівської культури Вінницької обл., 2022" }, "geometry": { "type": "Point", "coordinates": [ 29.3723, 48.5163 ] } },
{ "type": "Feature", "properties": { "district": "гайсинський", "village": "Четвертинівка", "settlements": 1, "burials": 0, "catalogue_no": "237", "source": "Магомедов Б. В. Пам'ятки черняхівської культури Вінницької обл., 2022" }, "geometry": { "type": "Point", "coordinates": [ 29.2843, 48.5887 ] } },
{ "type": "Feature", "properties": { "district": "гайсинський", "village": "Чортория", "settlements": 1, "burials": 0, "catalogue_no": "238", "source": "Магомедов Б. В. Пам'ятки черняхівської культури Вінницької обл., 2022" }, "geometry": { "type": "Point", "coordinates": [ 29.572, 48.9513 ] } },
{ "type": "Feature", "properties": { "district": "гайсинський", "village": "Щурівці", "settlements": 2, "burials": 0, "catalogue_no": "239, 240", "source": "Магомедов Б. В. Пам'ятки черняхівської культури Вінницької обл., 2022" }, "geometry": { "type": "Point", "coordinates": [ 29.1488, 48.8087 ] } },
{ "type": "Feature", "properties": { "district": "гайсинський", "village": "Юрківці", "settlements": 1, "burials": 0, "catalogue_no": "241", "source": "Магомедов Б. В. Пам'ятки черняхівської культури Вінницької обл., 2022" }, "geometry": { "type": "Point", "coordinates": [ 29.2174, 48.9603 ] } },
{ "type": "Feature", "properties": { "district": "гайсинський", "village": "Яланець", "settlements": 1, "burials": 0, "catalogue_no": "242", "source": "Магомедов Б. В. Пам'ятки черняхівської культури Вінницької обл., 2022" }, "geometry": { "type": "Point", "coordinates": [ 29.4609, 48.3021 ] } },
{ "type": "Feature", "properties": { "district": "гайсинський", "village": "Яструбинці", "settlements": 1, "burials": 0, "catalogue_no": "243", "source": "Магомедов Б. В. Пам'ятки черняхівської культури Вінницької обл., 2022" }, "geometry": { "type": "Point", "coordinates": [ 29.5166, 49.0646 ] } },
{ "type": "Feature", "properties": { "district": "жмеринський", "village": "Андріївка", "settlements": 2, "burials": 0, "catalogue_no": "244, 245", "source": "Магомедов Б. В. Пам'ятки черняхівської культури Вінницької обл., 2022" }, "geometry": { "type": "Point", "coordinates": [ 28.0474, 48.8401 ] } },
{ "type": "Feature", "properties": { "district": "жмеринський", "village": "Будьки", "settlements": 1, "burials": 0, "catalogue_no": "246", "source": "Магомедов Б. В. Пам'ятки черняхівської культури Вінницької обл., 2022" }, "geometry": { "type": "Point", "coordinates": [ 28.2016, 48.9589 ] } },
{ "type": "Feature", "properties": { "district": "жмеринський", "village": "Васютинці", "settlements": 1, "burials": 0, "catalogue_no": "247", "source": "Магомедов Б. В. Пам'ятки черняхівської культури Вінницької обл., 2022" }, "geometry": { "type": "Point", "coordinates": [ 27.7779, 49.1405 ] } },
{ "type": "Feature", "properties": { "district": "жмеринський", "village": "Вознівці", "settlements": 1, "burials": 0, "catalogue_no": "248", "source": "Магомедов Б. В. Пам'ятки черняхівської культури Вінницької обл., 2022" }, "geometry": { "type": "Point", "coordinates": [ 28.2137, 48.8995 ] } },
{ "type": "Feature", "properties": { "district": "жмеринський", "village": "Гайове", "settlements": 2, "burials": 0, "catalogue_no": "249, 250", "source": "Магомедов Б. В. Пам'ятки черняхівської культури Вінницької обл., 2022" }, "geometry": { "type": "Point", "coordinates": [ 27.6324, 49.1077 ] } },
{ "type": "Feature", "properties": { "district": "жмеринський", "village": "Гармаки", "settlements": 1, "burials": 0, "catalogue_no": "251", "source": "Магомедов Б. В. Пам'ятки черняхівської культури Вінницької обл., 2022" }, "geometry": { "type": "Point", "coordinates": [ 27.5552, 49.1021 ] } },
{ "type": "Feature", "properties": { "district": "жмеринський", "village": "Гибалівка", "settlements": 1, "burials": 0, "catalogue_no": "252", "source": "Магомедов Б. В. Пам'ятки черняхівської культури Вінницької обл., 2022" }, "geometry": { "type": "Point", "coordinates": [ 28.1013, 48.7251 ] } },
{ "type": "Feature", "properties": { "district": "жмеринський", "village": "Грелівка", "settlements": 1, "burials": 0, "catalogue_no": "253", "source": "Магомедов Б. В. Пам'ятки черняхівської культури Вінницької обл., 2022" }, "geometry": { "type": "Point", "coordinates": [ 28.0251, 48.7352 ] } },
{ "type": "Feature", "properties": { "district": "жмеринський", "village": "Довжок", "settlements": 4, "burials": 0, "catalogue_no": "254, 255, 256, 257", "source": "Магомедов Б. В. Пам'ятки черняхівської культури Вінницької обл., 2022" }, "geometry": { "type": "Point", "coordinates": [ 28.2304, 48.7373 ] } },
{ "type": "Feature", "properties": { "district": "жмеринський", "village": "Каришків", "settlements": 6, "burials": 1, "catalogue_no": "258, 259, 260, 261, 262, 263, 264", "source": "Магомедов Б. В. Пам'ятки черняхівської культури Вінницької обл., 2022" }, "geometry": { "type": "Point", "coordinates": [ 27.8983, 48.8214 ] } },
{ "type": "Feature", "properties": { "district": "жмеринський", "village": "Комарівці", "settlements": 1, "burials": 0, "catalogue_no": "265", "source": "Магомедов Б. В. Пам'ятки черняхівської культури Вінницької обл., 2022" }, "geometry": { "type": "Point", "coordinates": [ 27.6364, 49.1377 ] } },
{ "type": "Feature", "properties": { "district": "жмеринський", "village": "Лозова", "settlements": 1, "burials": 0, "catalogue_no": "266", "source": "Магомедов Б. В. Пам'ятки черняхівської культури Вінницької обл., 2022" }, "geometry": { "type": "Point", "coordinates": [ 28.0135, 48.6711 ] } },
{ "type": "Feature", "properties": { "district": "жмеринський", "village": "Лопатинці", "settlements": 1, "burials": 0, "catalogue_no": "267", "source": "Магомедов Б. В. Пам'ятки черняхівської культури Вінницької обл., 2022" }, "geometry": { "type": "Point", "coordinates": [ 27.9719, 49.1223 ] } },
{ "type": "Feature", "properties": { "district": "жмеринський", "village": "Мартинівка", "settlements": 1, "burials": 0, "catalogue_no": "268", "source": "Магомедов Б. В. Пам'ятки черняхівської культури Вінницької обл., 2022" }, "geometry": { "type": "Point", "coordinates": [ 28.013, 49.085 ] } },
{ "type": "Feature", "properties": { "district": "жмеринський", "village": "Мар’янівка", "settlements": 1, "burials": 0, "catalogue_no": "269", "source": "Магомедов Б. В. Пам'ятки черняхівської культури Вінницької обл., 2022" }, "geometry": { "type": "Point", "coordinates": [ 27.6837, 48.8739 ] } },
{ "type": "Feature", "properties": { "district": "жмеринський", "village": "Михайлівка", "settlements": 1, "burials": 0, "catalogue_no": "270", "source": "Магомедов Б. В. Пам'ятки черняхівської культури Вінницької обл., 2022" }, "geometry": { "type": "Point", "coordinates": [ 28.2931, 48.8057 ] } },
{ "type": "Feature", "properties": { "district": "жмеринський", "village": "Мурафа", "settlements": 1, "burials": 0, "catalogue_no": "271", "source": "Магомедов Б. В. Пам'ятки черняхівської культури Вінницької обл., 2022" }, "geometry": { "type": "Point", "coordinates": [ 28.2199, 48.7659 ] } },
{ "type": "Feature", "properties": { "district": "жмеринський", "village": "Носиківка", "settlements": 2, "burials": 0, "catalogue_no": "272, 273", "source": "Магомедов Б. В. Пам'ятки черняхівської культури Вінницької обл., 2022" }, "geometry": { "type": "Point", "coordinates": [ 28.0526, 48.8077 ] } },
{ "type": "Feature", "properties": { "district": "жмеринський", "village": "Пасинки", "settlements": 2, "burials": 0, "catalogue_no": "274, 275", "source": "Магомедов Б. В. Пам'ятки черняхівської культури Вінницької обл., 2022" }, "geometry": { "type": "Point", "coordinates": [ 28.0817, 48.8768 ] } },
{ "type": "Feature", "properties": { "district": "жмеринський", "village": "Рів", "settlements": 1, "burials": 0, "catalogue_no": "276", "source": "Магомедов Б. В. Пам'ятки черняхівської культури Вінницької обл., 2022" }, "geometry": { "type": "Point", "coordinates": [ 28.0577, 49.0818 ] } },
{ "type": "Feature", "properties": { "district": "жмеринський", "village": "Рожепи", "settlements": 2, "burials": 0, "catalogue_no": "277, 278", "source": "Магомедов Б. В. Пам'ятки черняхівської культури Вінницької обл., 2022" }, "geometry": { "type": "Point", "coordinates": [ 27.8473, 49.1336 ] } },
{ "type": "Feature", "properties": { "district": "жмеринський", "village": "Руданське", "settlements": 1, "burials": 0, "catalogue_no": "279", "source": "Магомедов Б. В. Пам'ятки черняхівської культури Вінницької обл., 2022" }, "geometry": { "type": "Point", "coordinates": [ 27.9387, 48.7777 ] } },
{ "type": "Feature", "properties": { "district": "жмеринський", "village": "Сапіжанка", "settlements": 1, "burials": 0, "catalogue_no": "280", "source": "Магомедов Б. В. Пам'ятки черняхівської культури Вінницької обл., 2022" }, "geometry": { "type": "Point", "coordinates": [ 28.3001, 48.6402 ] } },
{ "type": "Feature", "properties": { "district": "жмеринський", "village": "Северинівка", "settlements": 2, "burials": 0, "catalogue_no": "281, 282", "source": "Магомедов Б. В. Пам'ятки черняхівської культури Вінницької обл., 2022" }, "geometry": { "type": "Point", "coordinates": [ 27.9489, 49.0477 ] } },
{ "type": "Feature", "properties": { "district": "жмеринський", "village": "Сеферівка", "settlements": 2, "burials": 0, "catalogue_no": "283, 284", "source": "Магомедов Б. В. Пам'ятки черняхівської культури Вінницької обл., 2022" }, "geometry": { "type": "Point", "coordinates": [ 27.606, 48.98 ] } },
{ "type": "Feature", "properties": { "district": "жмеринський", "village": "Слобода-Носковецька", "settlements": 2, "burials": 0, "catalogue_no": "285, 286", "source": "Магомедов Б. В. Пам'ятки черняхівської культури Вінницької обл., 2022" }, "geometry": { "type": "Point", "coordinates": [ 28.0162, 48.9759 ] } },
{ "type": "Feature", "properties": { "district": "жмеринський", "village": "Станіславчик", "settlements": 2, "burials": 0, "catalogue_no": "287, 288", "source": "Магомедов Б. В. Пам'ятки черняхівської культури Вінницької обл., 2022" }, "geometry": { "type": "Point", "coordinates": [ 28.1059, 48.969 ] } },
{ "type": "Feature", "properties": { "district": "жмеринський", "village": "Стодульці", "settlements": 2, "burials": 0, "catalogue_no": "289, 290", "source": "Магомедов Б. В. Пам'ятки черняхівської культури Вінницької обл., 2022" }, "geometry": { "type": "Point", "coordinates": [ 27.8214, 49.1076 ] } },
{ "type": "Feature", "properties": { "district": "жмеринський", "village": "Тарасівка", "settlements": 3, "burials": 0, "catalogue_no": "291, 292, 293", "source": "Магомедов Б. В. Пам'ятки черняхівської культури Вінницької обл., 2022" }, "geometry": { "type": "Point", "coordinates": [ 28.1645, 48.9068 ] } },
{ "type": "Feature", "properties": { "district": "жмеринський", "village": "Федорівка", "settlements": 4, "burials": 0, "catalogue_no": "294, 295, 296, 297", "source": "Магомедов Б. В. Пам'ятки черняхівської культури Вінницької обл., 2022" }, "geometry": { "type": "Point", "coordinates": [ 28.1713, 48.8729 ] } },
{ "type": "Feature", "properties": { "district": "жмеринський", "village": "Хоменки", "settlements": 5, "burials": 0, "catalogue_no": "298, 299, 300, 301, 302", "source": "Магомедов Б. В. Пам'ятки черняхівської культури Вінницької обл., 2022" }, "geometry": { "type": "Point", "coordinates": [ 28.2308, 48.6932 ] } },
{ "type": "Feature", "properties": { "district": "жмеринський", "village": "Юхимівка", "settlements": 2, "burials": 0, "catalogue_no": "303, 304", "source": "Магомедов Б. В. Пам'ятки черняхівської культури Вінницької обл., 2022" }, "geometry": { "type": "Point", "coordinates": [ 28.2534, 48.8432 ] } },
{ "type": "Feature", "properties": { "district": "жмеринський", "village": "Ялтушків", "settlements": 3, "burials": 0, "catalogue_no": "305, 306, 307", "source": "Магомедов Б. В. Пам'ятки черняхівської культури Вінницької обл., 2022" }, "geometry": { "type": "Point", "coordinates": [ 27.5087, 48.9901 ] } },
{ "type": "Feature", "properties": { "district": "могилів-подільський", "village": "Бернашівка", "settlements": 1, "burials": 1, "catalogue_no": "308, 309", "source": "Магомедов Б. В. Пам'ятки черняхівської культури Вінницької обл., 2022" }, "geometry": { "type": "Point", "coordinates": [ 27.4812, 48.5751 ] } },
{ "type": "Feature", "properties": { "district": "могилів-подільський", "village": "Біла", "settlements": 2, "burials": 0, "catalogue_no": "310, 311", "source": "Магомедов Б. В. Пам'ятки черняхівської культури Вінницької обл., 2022" }, "geometry": { "type": "Point", "coordinates": [ 28.2189, 48.2528 ] } },
{ "type": "Feature", "properties": { "district": "могилів-подільський", "village": "Борщівці", "settlements": 0, "burials": 1, "catalogue_no": "312", "source": "Магомедов Б. В. Пам'ятки черняхівської культури Вінницької обл., 2022" }, "geometry": { "type": "Point", "coordinates": [ 27.819, 48.5659 ] } },
{ "type": "Feature", "properties": { "district": "могилів-подільський", "village": "Вила-Ярузькі", "settlements": 0, "burials": 1, "catalogue_no": "313", "source": "Магомедов Б. В. Пам'ятки черняхівської культури Вінницької обл., 2022" }, "geometry": { "type": "Point", "coordinates": [ 28.038, 48.4463 ] } },
{ "type": "Feature", "properties": { "district": "могилів-подільський", "village": "Вітрівка", "settlements": 1, "burials": 0, "catalogue_no": "314", "source": "Магомедов Б. В. Пам'ятки черняхівської культури Вінницької обл., 2022" }, "geometry": { "type": "Point", "coordinates": [ 28.2462, 48.3934 ] } },
{ "type": "Feature", "properties": { "district": "могилів-подільський", "village": "Гальжбіївка", "settlements": 1, "burials": 0, "catalogue_no": "315", "source": "Магомедов Б. В. Пам'ятки черняхівської культури Вінницької обл., 2022" }, "geometry": { "type": "Point", "coordinates": [ 28.2242, 48.2617 ] } },
{ "type": "Feature", "properties": { "district": "могилів-подільський", "village": "Григорівка", "settlements": 1, "burials": 0, "catalogue_no": "316", "source": "Магомедов Б. В. Пам'ятки черняхівської культури Вінницької обл., 2022" }, "geometry": { "type": "Point", "coordinates": [ 27.9151, 48.4214 ] } },
{ "type": "Feature", "properties": { "district": "могилів-подільський", "village": "Дзюброве", "settlements": 1, "burials": 0, "catalogue_no": "317", "source": "Магомедов Б. В. Пам'ятки черняхівської культури Вінницької обл., 2022" }, "geometry": { "type": "Point", "coordinates": [ 28.2737, 48.3244 ] } },
{ "type": "Feature", "properties": { "district": "могилів-подільський", "village": "Долиняни", "settlements": 3, "burials": 0, "catalogue_no": "318, 319, 320", "source": "Магомедов Б. В. Пам'ятки черняхівської культури Вінницької обл., 2022" }, "geometry": { "type": "Point", "coordinates": [ 27.5795, 48.8239 ] } },
{ "type": "Feature", "properties": { "district": "могилів-подільський", "village": "Дорошівка", "settlements": 3, "burials": 0, "catalogue_no": "321, 322, 323", "source": "Магомедов Б. В. Пам'ятки черняхівської культури Вінницької обл., 2022" }, "geometry": { "type": "Point", "coordinates": [ 28.1032, 48.333 ] } },
{ "type": "Feature", "properties": { "district": "могилів-подільський", "village": "Івонівка", "settlements": 1, "burials": 0, "catalogue_no": "324", "source": "Магомедов Б. В. Пам'ятки черняхівської культури Вінницької обл., 2022" }, "geometry": { "type": "Point", "coordinates": [ 28.047, 48.3674 ] } },
{ "type": "Feature", "properties": { "district": "могилів-подільський", "village": "Козлів", "settlements": 1, "burials": 0, "catalogue_no": "325", "source": "Магомедов Б. В. Пам'ятки черняхівської культури Вінницької обл., 2022" }, "geometry": { "type": "Point", "coordinates": [ 27.5184, 48.4803 ] } },
{ "type": "Feature", "properties": { "district": "могилів-подільський", "village": "Котюжани", "settlements": 1, "burials": 0, "catalogue_no": "326", "source": "Магомедов Б. В. Пам'ятки черняхівської культури Вінницької обл., 2022" }, "geometry": { "type": "Point", "coordinates": [ 27.702, 48.7728 ] } },
{ "type": "Feature", "properties": { "district": "могилів-подільський", "village": "Миронівка", "settlements": 2, "burials": 0, "catalogue_no": "327, 328", "source": "Магомедов Б. В. Пам'ятки черняхівської культури Вінницької обл., 2022" }, "geometry": { "type": "Point", "coordinates": [ 28.1773, 48.3031 ] } },
{ "type": "Feature", "properties": { "district": "могилів-подільський", "village": "Михайлівка", "settlements": 4, "burials": 0, "catalogue_no": "329, 330, 331, 332", "source": "Магомедов Б. В. Пам'ятки черняхівської культури Вінницької обл., 2022" }, "geometry": { "type": "Point", "coordinates": [ 28.0936, 48.2695 ] } },
{ "type": "Feature", "properties": { "district": "могилів-подільський", "village": "Обухів", "settlements": 1, "burials": 0, "catalogue_no": "333", "source": "Магомедов Б. В. Пам'ятки черняхівської культури Вінницької обл., 2022" }, "geometry": { "type": "Point", "coordinates": [ 27.7628, 48.7928 ] } },
{ "type": "Feature", "properties": { "district": "могилів-подільський", "village": "Озаринці", "settlements": 1, "burials": 1, "catalogue_no": "334, 335", "source": "Магомедов Б. В. Пам'ятки черняхівської культури Вінницької обл., 2022" }, "geometry": { "type": "Point", "coordinates": [ 27.8047, 48.5417 ] } },
{ "type": "Feature", "properties": { "district": "могилів-подільський", "village": "Петрашівка", "settlements": 1, "burials": 0, "catalogue_no": "336", "source": "Магомедов Б. В. Пам'ятки черняхівської культури Вінницької обл., 2022" }, "geometry": { "type": "Point", "coordinates": [ 28.1586, 48.3056 ] } },
{ "type": "Feature", "properties": { "district": "могилів-подільський", "village": "Писарівка", "settlements": 4, "burials": 0, "catalogue_no": "337, 338, 339, 340", "source": "Магомедов Б. В. Пам'ятки черняхівської культури Вінницької обл., 2022" }, "geometry": { "type": "Point", "coordinates": [ 28.3948, 48.3251 ] } },
{ "type": "Feature", "properties": { "district": "могилів-подільський", "village": "Привітне", "settlements": 1, "burials": 0, "catalogue_no": "341", "source": "Магомедов Б. В. Пам'ятки черняхівської культури Вінницької обл., 2022" }, "geometry": { "type": "Point", "coordinates": [ 27.8222, 48.7879 ] } },
{ "type": "Feature", "properties": { "district": "могилів-подільський", "village": "Русава", "settlements": 1, "burials": 0, "catalogue_no": "342", "source": "Магомедов Б. В. Пам'ятки черняхівської культури Вінницької обл., 2022" }, "geometry": { "type": "Point", "coordinates": [ 28.3103, 48.2805 ] } },
{ "type": "Feature", "properties": { "district": "могилів-подільський", "village": "Саїнка", "settlements": 2, "burials": 0, "catalogue_no": "343, 344", "source": "Магомедов Б. В. Пам'ятки черняхівської культури Вінницької обл., 2022" }, "geometry": { "type": "Point", "coordinates": [ 28.1918, 48.5505 ] } },
{ "type": "Feature", "properties": { "district": "могилів-подільський", "village": "Слобода-Бушанська", "settlements": 2, "burials": 0, "catalogue_no": "345, 346", "source": "Магомедов Б. В. Пам'ятки черняхівської культури Вінницької обл., 2022" }, "geometry": { "type": "Point", "coordinates": [ 28.086, 48.3486 ] } },
{ "type": "Feature", "properties": { "district": "могилів-подільський", "village": "Тропове", "settlements": 2, "burials": 0, "catalogue_no": "347, 348", "source": "Магомедов Б. В. Пам'ятки черняхівської культури Вінницької обл., 2022" }, "geometry": { "type": "Point", "coordinates": [ 27.9443, 48.6528 ] } },
{ "type": "Feature", "properties": { "district": "могилів-подільський", "village": "Цекинівка", "settlements": 2, "burials": 0, "catalogue_no": "349, 350", "source": "Магомедов Б. В. Пам'ятки черняхівської культури Вінницької обл., 2022" }, "geometry": { "type": "Point", "coordinates": [ 28.3176, 48.1532 ] } },
{ "type": "Feature", "properties": { "district": "могилів-подільський", "village": "Чернівці", "settlements": 1, "burials": 0, "catalogue_no": "351", "source": "Магомедов Б. В. Пам'ятки черняхівської культури Вінницької обл., 2022" }, "geometry": { "type": "Point", "coordinates": [ 28.1221, 48.5407 ] } },
{ "type": "Feature", "properties": { "district": "могилів-подільський", "village": "Юрківці", "settlements": 1, "burials": 0, "catalogue_no": "352", "source": "Магомедов Б. В. Пам'ятки черняхівської культури Вінницької обл., 2022" }, "geometry": { "type": "Point", "coordinates": [ 27.6934, 48.4971 ] } },
{ "type": "Feature", "properties": { "district": "могилів-подільський", "village": "Ямпіль", "settlements": 2, "burials": 0, "catalogue_no": "353, 354", "source": "Магомедов Б. В. Пам'ятки черняхівської культури Вінницької обл., 2022" }, "geometry": { "type": "Point", "coordinates": [ 28.2853, 48.2456 ] } },
{ "type": "Feature", "properties": { "district": "могилів-подільський", "village": "Яруга", "settlements": 1, "burials": 0, "catalogue_no": "355", "source": "Магомедов Б. В. Пам'ятки черняхівської культури Вінницької обл., 2022" }, "geometry": { "type": "Point", "coordinates": [ 28.0471, 48.3299 ] } },
{ "type": "Feature", "properties": { "district": "тульчинський", "village": "Білоусівка", "settlements": 1, "burials": 0, "catalogue_no": "356", "source": "Магомедов Б. В. Пам'ятки черняхівської культури Вінницької обл., 2022" }, "geometry": { "type": "Point", "coordinates": [ 29.134, 48.6643 ] } },
{ "type": "Feature", "properties": { "district": "тульчинський", "village": "Бортники", "settlements": 2, "burials": 0, "catalogue_no": "357, 358", "source": "Магомедов Б. В. Пам'ятки черняхівської культури Вінницької обл., 2022" }, "geometry": { "type": "Point", "coordinates": [ 28.793, 48.7937 ] } },
{ "type": "Feature", "properties": { "district": "тульчинський", "village": "Бушинка", "settlements": 1, "burials": 0, "catalogue_no": "359", "source": "Магомедов Б. В. Пам'ятки черняхівської культури Вінницької обл., 2022" }, "geometry": { "type": "Point", "coordinates": [ 28.4571, 48.8344 ] } },
{ "type": "Feature", "properties": { "district": "тульчинський", "village": "Вапнярка", "settlements": 1, "burials": 0, "catalogue_no": "360", "source": "Магомедов Б. В. Пам'ятки черняхівської культури Вінницької обл., 2022" }, "geometry": { "type": "Point", "coordinates": [ 28.7468, 48.5312 ] } },
{ "type": "Feature", "properties": { "district": "тульчинський", "village": "Велика Вулига", "settlements": 1, "burials": 0, "catalogue_no": "361", "source": "Магомедов Б. В. Пам'ятки черняхівської культури Вінницької обл., 2022" }, "geometry": { "type": "Point", "coordinates": [ 28.5763, 48.8585 ] } },
{ "type": "Feature", "properties": { "district": "тульчинський", "village": "Вишківці", "settlements": 1, "burials": 0, "catalogue_no": "362", "source": "Магомедов Б. В. Пам'ятки черняхівської культури Вінницької обл., 2022" }, "geometry": { "type": "Point", "coordinates": [ 28.8271, 48.8219 ] } },
{ "type": "Feature", "properties": { "district": "тульчинський", "village": "Вовчок", "settlements": 2, "burials": 0, "catalogue_no": "363, 364", "source": "Магомедов Б. В. Пам'ятки черняхівської культури Вінницької обл., 2022" }, "geometry": { "type": "Point", "coordinates": [ 28.9331, 48.8403 ] } },
{ "type": "Feature", "properties": { "district": "тульчинський", "village": "Гарячківка", "settlements": 4, "burials": 0, "catalogue_no": "365, 366, 367, 368", "source": "Магомедов Б. В. Пам'ятки черняхівської культури Вінницької обл., 2022" }, "geometry": { "type": "Point", "coordinates": [ 28.7505, 48.3358 ] } },
{ "type": "Feature", "properties": { "district": "тульчинський", "village": "Голубече", "settlements": 2, "burials": 0, "catalogue_no": "369, 370", "source": "Магомедов Б. В. Пам'ятки черняхівської культури Вінницької обл., 2022" }, "geometry": { "type": "Point", "coordinates": [ 28.8462, 48.3716 ] } },
{ "type": "Feature", "properties": { "district": "тульчинський", "village": "Гути", "settlements": 1, "burials": 0, "catalogue_no": "371", "source": "Магомедов Б. В. Пам'ятки черняхівської культури Вінницької обл., 2022" }, "geometry": { "type": "Point", "coordinates": [ 29.0922, 48.6718 ] } },
{ "type": "Feature", "properties": { "district": "тульчинський", "village": "Жабокрич", "settlements": 1, "burials": 0, "catalogue_no": "372", "source": "Магомедов Б. В. Пам'ятки черняхівської культури Вінницької обл., 2022" }, "geometry": { "type": "Point", "coordinates": [ 29.0007, 48.3832 ] } },
{ "type": "Feature", "properties": { "district": "тульчинський", "village": "Журавлівка", "settlements": 2, "burials": 0, "catalogue_no": "373, 374", "source": "Магомедов Б. В. Пам'ятки черняхівської культури Вінницької обл., 2022" }, "geometry": { "type": "Point", "coordinates": [ 28.7253, 48.6421 ] } },
{ "type": "Feature", "properties": { "district": "тульчинський", "village": "Забужжя", "settlements": 1, "burials": 0, "catalogue_no": "375", "source": "Магомедов Б. В. Пам'ятки черняхівської культури Вінницької обл., 2022" }, "geometry": { "type": "Point", "coordinates": [ 28.7698, 48.8794 ] } },
{ "type": "Feature", "properties": { "district": "тульчинський", "village": "Зеленянка", "settlements": 0, "burials": 1, "catalogue_no": "376", "source": "Магомедов Б. В. Пам'ятки черняхівської культури Вінницької обл., 2022" }, "geometry": { "type": "Point", "coordinates": [ 28.8765, 48.3463 ] } },
{ "type": "Feature", "properties": { "district": "тульчинський", "village": "Зяньківці", "settlements": 2, "burials": 0, "catalogue_no": "377, 378", "source": "Магомедов Б. В. Пам'ятки черняхівської культури Вінницької обл., 2022" }, "geometry": { "type": "Point", "coordinates": [ 29.0906, 48.8171 ] } },
{ "type": "Feature", "properties": { "district": "тульчинський", "village": "Клебань", "settlements": 1, "burials": 0, "catalogue_no": "379", "source": "Магомедов Б. В. Пам'ятки черняхівської культури Вінницької обл., 2022" }, "geometry": { "type": "Point", "coordinates": [ 29.0149, 48.6564 ] } },
{ "type": "Feature", "properties": { "district": "тульчинський", "village": "Комаргород", "settlements": 4, "burials": 0, "catalogue_no": "380, 381, 382, 383", "source": "Магомедов Б. В. Пам'ятки черняхівської культури Вінницької обл., 2022" }, "geometry": { "type": "Point", "coordinates": [ 28.6202, 48.5356 ] } },
{ "type": "Feature", "properties": { "district": "тульчинський", "village": "Красносілка", "settlements": 6, "burials": 1, "catalogue_no": "384, 385, 386, 387, 388, 389, 390", "source": "Магомедов Б. В. Пам'ятки черняхівської культури Вінницької обл., 2022" }, "geometry": { "type": "Point", "coordinates": [ 28.8346, 48.3389 ] } },
{ "type": "Feature", "properties": { "district": "тульчинський", "village": "Крикливець", "settlements": 4, "burials": 0, "catalogue_no": "391, 392, 393, 394", "source": "Магомедов Б. В. Пам'ятки черняхівської культури Вінницької обл., 2022" }, "geometry": { "type": "Point", "coordinates": [ 28.9806, 48.3217 ] } },
{ "type": "Feature", "properties": { "district": "тульчинський", "village": "Мала Вулига", "settlements": 1, "burials": 0, "catalogue_no": "395", "source": "Магомедов Б. В. Пам'ятки черняхівської культури Вінницької обл., 2022" }, "geometry": { "type": "Point", "coordinates": [ 28.63, 48.8672 ] } },
{ "type": "Feature", "properties": { "district": "тульчинський", "village": "Михайлівка", "settlements": 1, "burials": 0, "catalogue_no": "396", "source": "Магомедов Б. В. Пам'ятки черняхівської культури Вінницької обл., 2022" }, "geometry": { "type": "Point", "coordinates": [ 29.0278, 48.7231 ] } },
{ "type": "Feature", "properties": { "district": "тульчинський", "village": "Одаї", "settlements": 2, "burials": 1, "catalogue_no": "397, 398, 399", "source": "Магомедов Б. В. Пам'ятки черняхівської культури Вінницької обл., 2022" }, "geometry": { "type": "Point", "coordinates": [ 28.7481, 48.2609 ] } },
{ "type": "Feature", "properties": { "district": "тульчинський", "village": "Петрунівка", "settlements": 1, "burials": 0, "catalogue_no": "400", "source": "Магомедов Б. В. Пам'ятки черняхівської культури Вінницької обл., 2022" }, "geometry": { "type": "Point", "coordinates": [ 28.5614, 48.3498 ] } },
{ "type": "Feature", "properties": { "district": "тульчинський", "village": "Печера", "settlements": 2, "burials": 0, "catalogue_no": "401, 402", "source": "Магомедов Б. В. Пам'ятки черняхівської культури Вінницької обл., 2022" }, "geometry": { "type": "Point", "coordinates": [ 28.722, 48.8524 ] } },
{ "type": "Feature", "properties": { "district": "тульчинський", "village": "Польова Слобідка", "settlements": 1, "burials": 0, "catalogue_no": "403", "source": "Магомедов Б. В. Пам'ятки черняхівської культури Вінницької обл., 2022" }, "geometry": { "type": "Point", "coordinates": [ 28.6276, 48.8339 ] } },
{ "type": "Feature", "properties": { "district": "тульчинський", "village": "Рахни Лісові", "settlements": 1, "burials": 0, "catalogue_no": "404", "source": "Магомедов Б. В. Пам'ятки черняхівської культури Вінницької обл., 2022" }, "geometry": { "type": "Point", "coordinates": [ 28.4803, 48.7818 ] } },
{ "type": "Feature", "properties": { "district": "тульчинський", "village": "Рогізна", "settlements": 3, "burials": 0, "catalogue_no": "405, 406, 407", "source": "Магомедов Б. В. Пам'ятки черняхівської культури Вінницької обл., 2022" }, "geometry": { "type": "Point", "coordinates": [ 28.6311, 48.888 ] } },
{ "type": "Feature", "properties": { "district": "тульчинський", "village": "Скрицьке", "settlements": 1, "burials": 0, "catalogue_no": "408", "source": "Магомедов Б. В. Пам'ятки черняхівської культури Вінницької обл., 2022" }, "geometry": { "type": "Point", "coordinates": [ 29.0163, 48.7748 ] } },
{ "type": "Feature", "properties": { "district": "тульчинський", "village": "Сліди", "settlements": 2, "burials": 0, "catalogue_no": "409, 410", "source": "Магомедов Б. В. Пам'ятки черняхівської культури Вінницької обл., 2022" }, "geometry": { "type": "Point", "coordinates": [ 28.523, 48.8174 ] } },
{ "type": "Feature", "properties": { "district": "тульчинський", "village": "Стрільники", "settlements": 1, "burials": 0, "catalogue_no": "411", "source": "Магомедов Б. В. Пам'ятки черняхівської культури Вінницької обл., 2022" }, "geometry": { "type": "Point", "coordinates": [ 28.41, 48.7933 ] } },
{ "type": "Feature", "properties": { "district": "тульчинський", "village": "Студена", "settlements": 1, "burials": 0, "catalogue_no": "412", "source": "Магомедов Б. В. Пам'ятки черняхівської культури Вінницької обл., 2022" }, "geometry": { "type": "Point", "coordinates": [ 28.8527, 48.1457 ] } },
{ "type": "Feature", "properties": { "district": "тульчинський", "village": "Томашпіль", "settlements": 1, "burials": 0, "catalogue_no": "413", "source": "Магомедов Б. В. Пам'ятки черняхівської культури Вінницької обл., 2022" }, "geometry": { "type": "Point", "coordinates": [ 28.5188, 48.5488 ] } },
{ "type": "Feature", "properties": { "district": "тульчинський", "village": "Холодівка", "settlements": 2, "burials": 0, "catalogue_no": "414, 415", "source": "Магомедов Б. В. Пам'ятки черняхівської культури Вінницької обл., 2022" }, "geometry": { "type": "Point", "coordinates": [ 28.973, 48.7075 ] } },
{ "type": "Feature", "properties": { "district": "тульчинський", "village": "Шарапанівка", "settlements": 2, "burials": 0, "catalogue_no": "416, 417", "source": "Магомедов Б. В. Пам'ятки черняхівської культури Вінницької обл., 2022" }, "geometry": { "type": "Point", "coordinates": [ 28.8822, 48.4929 ] } },
{ "type": "Feature", "properties": { "district": "тульчинський", "village": "Юліямпіль", "settlements": 1, "burials": 0, "catalogue_no": "418", "source": "Магомедов Б. В. Пам'ятки черняхівської культури Вінницької обл., 2022" }, "geometry": { "type": "Point", "coordinates": [ 28.4834, 48.7231 ] } },
{ "type": "Feature", "properties": { "district": "тульчинський", "village": "Юрківка", "settlements": 2, "burials": 0, "catalogue_no": "419, 420", "source": "Магомедов Б. В. Пам'ятки черняхівської культури Вінницької обл., 2022" }, "geometry": { "type": "Point", "coordinates": [ 28.5826, 48.6924 ] } },
{ "type": "Feature", "properties": { "district": "хмільницький", "village": "Байківка", "settlements": 3, "burials": 0, "catalogue_no": "421, 422, 423", "source": "Магомедов Б. В. Пам'ятки черняхівської культури Вінницької обл., 2022" }, "geometry": { "type": "Point", "coordinates": [ 28.4041, 49.501 ] } },
{ "type": "Feature", "properties": { "district": "хмільницький", "village": "Безіменне", "settlements": 1, "burials": 0, "catalogue_no": "424", "source": "Магомедов Б. В. Пам'ятки черняхівської культури Вінницької обл., 2022" }, "geometry": { "type": "Point", "coordinates": [ 28.5528, 49.6977 ] } },
{ "type": "Feature", "properties": { "district": "хмільницький", "village": "Білий Рукав", "settlements": 2, "burials": 0, "catalogue_no": "425, 426", "source": "Магомедов Б. В. Пам'ятки черняхівської культури Вінницької обл., 2022" }, "geometry": { "type": "Point", "coordinates": [ 28.0986, 49.6077 ] } },
{ "type": "Feature", "properties": { "district": "хмільницький", "village": "Білопілля", "settlements": 1, "burials": 1, "catalogue_no": "427, 428", "source": "Магомедов Б. В. Пам'ятки черняхівської культури Вінницької обл., 2022" }, "geometry": { "type": "Point", "coordinates": [ 28.8693, 49.8453 ] } },
{ "type": "Feature", "properties": { "district": "хмільницький", "village": "Бродецьке", "settlements": 3, "burials": 0, "catalogue_no": "429, 430, 431", "source": "Магомедов Б. В. Пам'ятки черняхівської культури Вінницької обл., 2022" }, "geometry": { "type": "Point", "coordinates": [ 28.6449, 49.7632 ] } },
{ "type": "Feature", "properties": { "district": "хмільницький", "village": "Великий Острожок", "settlements": 2, "burials": 0, "catalogue_no": "432, 433", "source": "Магомедов Б. В. Пам'ятки черняхівської культури Вінницької обл., 2022" }, "geometry": { "type": "Point", "coordinates": [ 28.2682, 49.7073 ] } },
{ "type": "Feature", "properties": { "district": "хмільницький", "village": "Вернигородок", "settlements": 3, "burials": 1, "catalogue_no": "434, 435, 436, 437", "source": "Магомедов Б. В. Пам'ятки черняхівської культури Вінницької обл., 2022" }, "geometry": { "type": "Point", "coordinates": [ 28.8938, 49.7861 ] } },
{ "type": "Feature", "properties": { "district": "хмільницький", "village": "Вовчинець", "settlements": 10, "burials": 0, "catalogue_no": "438, 439, 440, 441, 442, 443, 444, 445, 446, 447", "source": "Магомедов Б. В. Пам'ятки черняхівської культури Вінницької обл., 2022" }, "geometry": { "type": "Point", "coordinates": [ 28.5643, 49.7506 ] } },
{ "type": "Feature", "properties": { "district": "хмільницький", "village": "Глинськ", "settlements": 3, "burials": 0, "catalogue_no": "448, 449, 450", "source": "Магомедов Б. В. Пам'ятки черняхівської культури Вінницької обл., 2022" }, "geometry": { "type": "Point", "coordinates": [ 28.4594, 49.5731 ] } },
{ "type": "Feature", "properties": { "district": "хмільницький", "village": "Голодьки", "settlements": 1, "burials": 0, "catalogue_no": "451", "source": "Магомедов Б. В. Пам'ятки черняхівської культури Вінницької обл., 2022" }, "geometry": { "type": "Point", "coordinates": [ 27.9739, 49.5219 ] } },
{ "type": "Feature", "properties": { "district": "хмільницький", "village": "Грушківці", "settlements": 1, "burials": 1, "catalogue_no": "452, 453", "source": "Магомедов Б. В. Пам'ятки черняхівської культури Вінницької обл., 2022" }, "geometry": { "type": "Point", "coordinates": [ 28.4271, 49.5113 ] } },
{ "type": "Feature", "properties": { "district": "хмільницький", "village": "Гущинці", "settlements": 2, "burials": 0, "catalogue_no": "454, 455", "source": "Магомедов Б. В. Пам'ятки черняхівської культури Вінницької обл., 2022" }, "geometry": { "type": "Point", "coordinates": [ 28.3475, 49.4529 ] } },
{ "type": "Feature", "properties": { "district": "хмільницький", "village": "Жежелів", "settlements": 2, "burials": 0, "catalogue_no": "456, 457", "source": "Магомедов Б. В. Пам'ятки черняхівської культури Вінницької обл., 2022" }, "geometry": { "type": "Point", "coordinates": [ 28.6493, 49.7962 ] } },
{ "type": "Feature", "properties": { "district": "хмільницький", "village": "Зозулинці", "settlements": 1, "burials": 0, "catalogue_no": "458", "source": "Магомедов Б. В. Пам'ятки черняхівської культури Вінницької обл., 2022" }, "geometry": { "type": "Point", "coordinates": [ 28.0684, 49.6429 ] } },
{ "type": "Feature", "properties": { "district": "хмільницький", "village": "Іванів", "settlements": 2, "burials": 0, "catalogue_no": "459, 460", "source": "Магомедов Б. В. Пам'ятки черняхівської культури Вінницької обл., 2022" }, "geometry": { "type": "Point", "coordinates": [ 28.3424, 49.4853 ] } },
{ "type": "Feature", "properties": { "district": "хмільницький", "village": "Козятин", "settlements": 1, "burials": 0, "catalogue_no": "461", "source": "Магомедов Б. В. Пам'ятки черняхівської культури Вінницької обл., 2022" }, "geometry": { "type": "Point", "coordinates": [ 28.8364, 49.7329 ] } },
{ "type": "Feature", "properties": { "district": "хмільницький", "village": "Кривошиї", "settlements": 1, "burials": 0, "catalogue_no": "462", "source": "Магомедов Б. В. Пам'ятки черняхівської культури Вінницької обл., 2022" }, "geometry": { "type": "Point", "coordinates": [ 28.204, 49.5967 ] } },
{ "type": "Feature", "properties": { "district": "хмільницький", "village": "Кропивна", "settlements": 1, "burials": 0, "catalogue_no": "463", "source": "Магомедов Б. В. Пам'ятки черняхівської культури Вінницької обл., 2022" }, "geometry": { "type": "Point", "coordinates": [ 28.307, 49.7646 ] } },
{ "type": "Feature", "properties": { "district": "хмільницький", "village": "Крутнів", "settlements": 1, "burials": 0, "catalogue_no": "464", "source": "Магомедов Б. В. Пам'ятки черняхівської культури Вінницької обл., 2022" }, "geometry": { "type": "Point", "coordinates": [ 27.8792, 49.5545 ] } },
{ "type": "Feature", "properties": { "district": "хмільницький", "village": "Курилівка", "settlements": 1, "burials": 0, "catalogue_no": "465", "source": "Магомедов Б. В. Пам'ятки черняхівської культури Вінницької обл., 2022" }, "geometry": { "type": "Point", "coordinates": [ 28.0903, 49.5006 ] } },
{ "type": "Feature", "properties": { "district": "хмільницький", "village": "Лопатин", "settlements": 2, "burials": 0, "catalogue_no": "466, 467", "source": "Магомедов Б. В. Пам'ятки черняхівської культури Вінницької обл., 2022" }, "geometry": { "type": "Point", "coordinates": [ 28.7626, 49.5679 ] } },
{ "type": "Feature", "properties": { "district": "хмільницький", "village": "Малий Митник", "settlements": 2, "burials": 0, "catalogue_no": "468, 469", "source": "Магомедов Б. В. Пам'ятки черняхівської культури Вінницької обл., 2022" }, "geometry": { "type": "Point", "coordinates": [ 27.9931, 49.5834 ] } },
{ "type": "Feature", "properties": { "district": "хмільницький", "village": "Махаринці", "settlements": 1, "burials": 0, "catalogue_no": "470", "source": "Магомедов Б. В. Пам'ятки черняхівської культури Вінницької обл., 2022" }, "geometry": { "type": "Point", "coordinates": [ 28.9156, 49.71 ] } },
{ "type": "Feature", "properties": { "district": "хмільницький", "village": "Митинці", "settlements": 1, "burials": 0, "catalogue_no": "471", "source": "Магомедов Б. В. Пам'ятки черняхівської культури Вінницької обл., 2022" }, "geometry": { "type": "Point", "coordinates": [ 27.9653, 49.6746 ] } },
{ "type": "Feature", "properties": { "district": "хмільницький", "village": "Морозівка", "settlements": 2, "burials": 0, "catalogue_no": "472, 473", "source": "Магомедов Б. В. Пам'ятки черняхівської культури Вінницької обл., 2022" }, "geometry": { "type": "Point", "coordinates": [ 28.0978, 49.7143 ] } },
{ "type": "Feature", "properties": { "district": "хмільницький", "village": "Мшанець", "settlements": 1, "burials": 0, "catalogue_no": "474", "source": "Магомедов Б. В. Пам'ятки черняхівської культури Вінницької обл., 2022" }, "geometry": { "type": "Point", "coordinates": [ 28.6706, 49.6849 ] } },
{ "type": "Feature", "properties": { "district": "хмільницький", "village": "Пагурці", "settlements": 2, "burials": 0, "catalogue_no": "475, 476", "source": "Магомедов Б. В. Пам'ятки черняхівської культури Вінницької обл., 2022" }, "geometry": { "type": "Point", "coordinates": [ 28.1792, 49.7003 ] } },
{ "type": "Feature", "properties": { "district": "хмільницький", "village": "Перемога", "settlements": 1, "burials": 0, "catalogue_no": "477", "source": "Магомедов Б. В. Пам'ятки черняхівської культури Вінницької обл., 2022" }, "geometry": { "type": "Point", "coordinates": [ 28.6464, 49.6649 ] } },
{ "type": "Feature", "properties": { "district": "хмільницький", "village": "Петрикiвцi", "settlements": 3, "burials": 1, "catalogue_no": "478, 479, 480, 481", "source": "Магомедов Б. В. Пам'ятки черняхівської культури Вінницької обл., 2022" }, "geometry": { "type": "Point", "coordinates": [ 28.1961, 49.7565 ] } },
{ "type": "Feature", "properties": { "district": "хмільницький", "village": "Пиків", "settlements": 2, "burials": 0, "catalogue_no": "482, 483", "source": "Магомедов Б. В. Пам'ятки черняхівської культури Вінницької обл., 2022" }, "geometry": { "type": "Point", "coordinates": [ 28.3001, 49.5618 ] } },
{ "type": "Feature", "properties": { "district": "хмільницький", "village": "Писарівка", "settlements": 1, "burials": 0, "catalogue_no": "484", "source": "Магомедов Б. В. Пам'ятки черняхівської культури Вінницької обл., 2022" }, "geometry": { "type": "Point", "coordinates": [ 28.4756, 49.5282 ] } },
{ "type": "Feature", "properties": { "district": "хмільницький", "village": "Пляхова", "settlements": 4, "burials": 0, "catalogue_no": "485, 486, 487, 488", "source": "Магомедов Б. В. Пам'ятки черняхівської культури Вінницької обл., 2022" }, "geometry": { "type": "Point", "coordinates": [ 28.7327, 49.7404 ] } },
{ "type": "Feature", "properties": { "district": "хмільницький", "village": "Райки", "settlements": 1, "burials": 0, "catalogue_no": "489", "source": "Магомедов Б. В. Пам'ятки черняхівської культури Вінницької обл., 2022" }, "geometry": { "type": "Point", "coordinates": [ 28.4968, 49.6469 ] } },
{ "type": "Feature", "properties": { "district": "хмільницький", "village": "Рогинці", "settlements": 2, "burials": 0, "catalogue_no": "490, 491", "source": "Магомедов Б. В. Пам'ятки черняхівської культури Вінницької обл., 2022" }, "geometry": { "type": "Point", "coordinates": [ 28.3088, 49.6238 ] } },
{ "type": "Feature", "properties": { "district": "хмільницький", "village": "Селище", "settlements": 2, "burials": 1, "catalogue_no": "492, 493, 494", "source": "Магомедов Б. В. Пам'ятки черняхівської культури Вінницької обл., 2022" }, "geometry": { "type": "Point", "coordinates": [ 28.9131, 49.8353 ] } },
{ "type": "Feature", "properties": { "district": "хмільницький", "village": "Сестринівка", "settlements": 2, "burials": 0, "catalogue_no": "495, 496", "source": "Магомедов Б. В. Пам'ятки черняхівської культури Вінницької обл., 2022" }, "geometry": { "type": "Point", "coordinates": [ 28.9291, 49.7385 ] } },
{ "type": "Feature", "properties": { "district": "хмільницький", "village": "Сошанське", "settlements": 1, "burials": 0, "catalogue_no": "497", "source": "Магомедов Б. В. Пам'ятки черняхівської культури Вінницької обл., 2022" }, "geometry": { "type": "Point", "coordinates": [ 28.8937, 49.5569 ] } },
{ "type": "Feature", "properties": { "district": "хмільницький", "village": "Ступник", "settlements": 3, "burials": 0, "catalogue_no": "498, 499, 500", "source": "Магомедов Б. В. Пам'ятки черняхівської культури Вінницької обл., 2022" }, "geometry": { "type": "Point", "coordinates": [ 28.2915, 49.7451 ] } },
{ "type": "Feature", "properties": { "district": "хмільницький", "village": "Сьомаки", "settlements": 1, "burials": 0, "catalogue_no": "501", "source": "Магомедов Б. В. Пам'ятки черняхівської культури Вінницької обл., 2022" }, "geometry": { "type": "Point", "coordinates": [ 28.152, 49.6118 ] } },
{ "type": "Feature", "properties": { "district": "хмільницький", "village": "Уладівка", "settlements": 2, "burials": 0, "catalogue_no": "502, 503", "source": "Магомедов Б. В. Пам'ятки черняхівської культури Вінницької обл., 2022" }, "geometry": { "type": "Point", "coordinates": [ 28.2276, 49.4999 ] } },
{ "type": "Feature", "properties": { "district": "хмільницький", "village": "Філіопіль", "settlements": 1, "burials": 0, "catalogue_no": "504", "source": "Магомедов Б. В. Пам'ятки черняхівської культури Вінницької обл., 2022" }, "geometry": { "type": "Point", "coordinates": [ 28.0453, 49.5823 ] } },
{ "type": "Feature", "properties": { "district": "хмільницький", "village": "Хомутинці", "settlements": 1, "burials": 1, "catalogue_no": "505, 506", "source": "Магомедов Б. В. Пам'ятки черняхівської культури Вінницької обл., 2022" }, "geometry": { "type": "Point", "coordinates": [ 28.433, 49.5425 ] } },
{ "type": "Feature", "properties": { "district": "хмільницький", "village": "Чеснівка", "settlements": 2, "burials": 0, "catalogue_no": "507, 508", "source": "Магомедов Б. В. Пам'ятки черняхівської культури Вінницької обл., 2022" }, "geometry": { "type": "Point", "coordinates": [ 28.1261, 49.7486 ] } },
{ "type": "Feature", "properties": { "district": "хмільницький", "village": "Шепіївка", "settlements": 2, "burials": 0, "catalogue_no": "509, 510", "source": "Магомедов Б. В. Пам'ятки черняхівської культури Вінницької обл., 2022" }, "geometry": { "type": "Point", "coordinates": [ 28.2586, 49.5906 ] } },
{ "type": "Feature", "properties": { "district": "хмільницький", "village": "Широка Гребля", "settlements": 1, "burials": 0, "catalogue_no": "511", "source": "Магомедов Б. В. Пам'ятки черняхівської культури Вінницької обл., 2022" }, "geometry": { "type": "Point", "coordinates": [ 28.0208, 49.5242 ] } },
{ "type": "Feature", "properties": { "district": "хмільницький", "village": "Юрівка", "settlements": 2, "burials": 0, "catalogue_no": "512, 513", "source": "Магомедов Б. В. Пам'ятки черняхівської культури Вінницької обл., 2022" }, "geometry": { "type": "Point", "coordinates": [ 28.4721, 49.7537 ] } }
]
}
