{
"type": "FeatureCollection",
"name": "zones_10km",
"crs": { "type": "name", "properties": { "name": "urn:ogc:def:crs:OGC:1.3:CRS84" } },
"features": [
{ "type": "Feature", "properties": { "distance_km": 10 }, "geometry": { "type": "MultiPolygon", "coordinates": [ [ [ [ 25.016758070067166, 47.73221154561282 ], [ 25.019279478895051, 47.730323910410092 ], [ 25.016619866002497, 47.73041717885166 ], [ 25.016758070067166, 47.73221154561282 ] ] ], [ [ [ 25.014236479406765, 47.734099130099949 ], [ 25.011438622179778, 47.732397909641293 ], [ 25.011576657829515, 47.734192287183966 ], [ 25.014236479406765, 47.734099130099949 ] ] ], [ [ [ 25.000249011520367, 47.725592287799088 ], [ 24.992270669476284, 47.725870564860259 ], [ 24.987226049263025, 47.729644641003986 ], [ 24.971267754456431, 47.730198865998794 ], [ 24.882820617535124, 47.724234233598544 ], [ 24.886282556946199, 47.734911979119097 ], [ 24.881095562309181, 47.736886961513662 ], [ 24.88176358425353, 47.745860243805254 ], [ 24.87657534129416, 47.747835053776519 ], [ 24.879637025755649, 47.753128980099866 ], [ 24.856482453833348, 47.764705567918405 ], [ 24.851954939944779, 47.775652857594778 ], [ 24.836244425340546, 47.779778137605987 ], [ 24.837038031178388, 47.790546562538083 ], [ 24.85315021819612, 47.791805197183685 ], [ 24.866866452851117, 47.796740765289144 ], [ 24.873921709029794, 47.783908314411406 ], [ 24.906921244299919, 47.761197941767051 ], [ 24.940705863375207, 47.749245984363398 ], [ 24.97768222689324, 47.744369983114211 ], [ 24.996442668083656, 47.74551639419235 ], [ 25.006394841637281, 47.736172805132448 ], [ 25.011714706893002, 47.735986663860402 ], [ 25.003459349779824, 47.732676994387553 ], [ 25.000249011520367, 47.725592287799088 ] ] ], [ [ [ 24.381268066964761, 47.925432713748272 ], [ 24.343054862893254, 47.913959438624872 ], [ 24.340615249067231, 47.917628597910387 ], [ 24.332601513559698, 47.917861696281889 ], [ 24.32748951535682, 47.921608175969432 ], [ 24.328642932245007, 47.939565084450962 ], [ 24.339216643596046, 47.937458757705961 ], [ 24.384995332538733, 47.941514210418966 ], [ 24.381268066964761, 47.925432713748272 ] ] ], [ [ [ 24.387785118857074, 47.943230902549153 ], [ 24.384995332538733, 47.941514210418966 ], [ 24.385112695607546, 47.943309792666945 ], [ 24.387785118857074, 47.943230902549153 ] ] ], [ [ [ 24.552258807906245, 47.95984438763368 ], [ 24.549462863607172, 47.958131861577058 ], [ 24.54958599358676, 47.959927125920373 ], [ 24.552258807906245, 47.95984438763368 ] ] ], [ [ [ 24.540245778007485, 47.980005540427399 ], [ 24.54958599358676, 47.959927125920373 ], [ 24.522857191260098, 47.960751093594972 ], [ 24.514472561211193, 47.955611076689017 ], [ 24.514228783016307, 47.952020408496502 ], [ 24.500866062106894, 47.952429004242717 ], [ 24.474742348854459, 47.962218585927594 ], [ 24.450683495498946, 47.962944785775321 ], [ 24.459183307496012, 47.969885022638969 ], [ 24.467083716366609, 47.967847475634741 ], [ 24.504754305994382, 47.970300923025853 ], [ 24.534897986816276, 47.980170447459351 ], [ 24.540245778007485, 47.980005540427399 ] ] ], [ [ [ 24.127734913047025, 48.247444123937122 ], [ 24.147481466257336, 48.218121762643854 ], [ 24.160475452757641, 48.21056917018727 ], [ 24.157236043820234, 48.201663537365164 ], [ 24.151863119715429, 48.201811114343037 ], [ 24.133934923777382, 48.216693243484826 ], [ 24.102338317492499, 48.228344597133223 ], [ 24.102773020901843, 48.235528572901153 ], [ 24.116433059021237, 48.238756644044827 ], [ 24.127734913047025, 48.247444123937122 ] ] ], [ [ [ 23.982897453363968, 48.488747725941451 ], [ 23.988301477478249, 48.488607428896842 ], [ 23.990686361801203, 48.483148882330148 ], [ 23.979879455338704, 48.483429423605791 ], [ 23.97510683203037, 48.494346071910087 ], [ 23.982897453363968, 48.488747725941451 ] ] ], [ [ [ 23.972509577509665, 48.496212076591625 ], [ 23.97510683203037, 48.494346071910087 ], [ 23.972404487812629, 48.494415948489966 ], [ 23.972509577509665, 48.496212076591625 ] ] ], [ [ [ 23.972614677546495, 48.498008203959429 ], [ 23.969807127754031, 48.496281894184321 ], [ 23.96991213258212, 48.498078025933196 ], [ 23.972614677546495, 48.498008203959429 ] ] ], [ [ [ 23.957131242380207, 48.51099923980783 ], [ 23.954323463282385, 48.509272559193761 ], [ 23.954427968788291, 48.51106871202326 ], [ 23.957131242380207, 48.51099923980783 ] ] ], [ [ [ 23.951829105409789, 48.512934277284238 ], [ 23.954427968788291, 48.51106871202326 ], [ 23.951724684911571, 48.511138120830857 ], [ 23.951829105409789, 48.512934277284238 ] ] ], [ [ [ 23.900086690739517, 48.602392519187205 ], [ 23.931233290922403, 48.578218693742222 ], [ 23.93664709768068, 48.578080633872723 ], [ 23.934774472849195, 48.545749632082128 ], [ 23.939352058627502, 48.531242133474088 ], [ 23.951829105409789, 48.512934277284238 ], [ 23.93612801182628, 48.522330326159739 ], [ 23.909603161057937, 48.531998479494057 ], [ 23.861224404162421, 48.538608453381094 ], [ 23.861629741354569, 48.545793617403639 ], [ 23.872756317107889, 48.550912736621648 ], [ 23.893027757051783, 48.573789303248454 ], [ 23.900086690739517, 48.602392519187205 ] ] ], [ [ [ 23.877040070815056, 48.721690974361728 ], [ 23.891679841185677, 48.692543737597575 ], [ 23.897002950634981, 48.690611112286895 ], [ 23.888246997277243, 48.680038439284139 ], [ 23.884815986915942, 48.667532981810545 ], [ 23.869667974651527, 48.687698239615983 ], [ 23.846061811742178, 48.702674479943255 ], [ 23.87140592512662, 48.718234087665806 ], [ 23.87161058170355, 48.721826526637848 ], [ 23.877040070815056, 48.721690974361728 ] ] ], [ [ [ 26.986661620286529, 51.441877366005173 ], [ 26.967859491075625, 51.430240626263746 ], [ 26.967391997965485, 51.42666485388861 ], [ 26.958345347493612, 51.423527042398334 ], [ 26.97498413860961, 51.440675401180236 ], [ 26.983050409254769, 51.458260944532263 ], [ 26.986661620286529, 51.441877366005173 ] ] ], [ [ [ 27.203249608182642, 51.741977320224166 ], [ 27.182854355085965, 51.741256168391793 ], [ 27.152848654688047, 51.733836974917331 ], [ 27.134364015167534, 51.725807126478728 ], [ 27.134157464396345, 51.745617592394048 ], [ 27.117396133613063, 51.771693861676951 ], [ 27.201668938630153, 51.772661454301598 ], [ 27.203249608182642, 51.741977320224166 ] ] ], [ [ [ 31.928961185133428, 46.421155225041439 ], [ 31.926049522895269, 46.419635777745839 ], [ 31.926406764427327, 46.42140231745033 ], [ 31.928961185133428, 46.421155225041439 ] ] ], [ [ [ 32.039673857825903, 46.504049640656767 ], [ 32.035307547974497, 46.495470262680413 ], [ 32.03608142907386, 46.473780362410878 ], [ 32.020023301275984, 46.471745803765657 ], [ 32.033112217893589, 46.497485911876062 ], [ 32.032725241397891, 46.508330941438004 ], [ 32.039673857825903, 46.504049640656767 ] ] ], [ [ [ 32.671694904254181, 49.283545684518494 ], [ 32.657813313904938, 49.283162511095895 ], [ 32.658234352793123, 49.284923673460959 ], [ 32.671694904254181, 49.283545684518494 ] ] ], [ [ [ 32.647885883961941, 49.287786182927377 ], [ 32.634002769656298, 49.28740017227878 ], [ 32.634423023169809, 49.289161484402371 ], [ 32.647885883961941, 49.287786182927377 ] ] ], [ [ [ 32.634843317743254, 49.290922793329656 ], [ 32.623232109361787, 49.288499236258481 ], [ 32.616832370975388, 49.296368591531497 ], [ 32.634843317743254, 49.290922793329656 ] ] ], [ [ [ 32.614139112682935, 49.296643086344709 ], [ 32.617252145400549, 49.298130009670999 ], [ 32.616832370975388, 49.296368591531497 ], [ 32.614139112682935, 49.296643086344709 ] ] ], [ [ [ 32.288035488217005, 49.42500127127277 ], [ 32.313424716649735, 49.415271411782641 ], [ 32.331754692694595, 49.399020787775903 ], [ 32.32364977778191, 49.399825364131253 ], [ 32.312192939202092, 49.40998156157503 ], [ 32.291802284379855, 49.417412793816929 ], [ 32.288035488217005, 49.42500127127277 ] ] ], [ [ [ 27.096560120271899, 51.078009139473174 ], [ 27.113350190854749, 51.053730012851638 ], [ 27.121385393408769, 51.049708015916345 ], [ 27.120912387028149, 51.046133026033878 ], [ 27.102719291187956, 51.038088426482631 ], [ 27.102247916947121, 51.03451330463831 ], [ 27.093036826856352, 51.029595995572748 ], [ 27.088777977042465, 51.040618231596966 ], [ 27.080976191111365, 51.04642565200362 ], [ 27.079549766479762, 51.057299527934951 ], [ 27.092308622251689, 51.067432161412043 ], [ 27.096560120271899, 51.078009139473174 ] ] ], [ [ [ 29.976871580231006, 51.229944182517279 ], [ 30.003404752800911, 51.218876136834837 ], [ 30.042281619423363, 51.212248472971268 ], [ 30.088206617629794, 51.212266368292021 ], [ 30.109048666040586, 51.216040372999139 ], [ 30.118585505409488, 51.206277621015033 ], [ 30.132005013763951, 51.201616709493699 ], [ 30.131297189023989, 51.198066906883483 ], [ 30.122822080023706, 51.198733612263936 ], [ 30.107637249890939, 51.194518380320083 ], [ 30.093512037348852, 51.195626307545446 ], [ 30.083267294427621, 51.201836867743047 ], [ 30.061363938496438, 51.207154713043622 ], [ 30.016141910714765, 51.210676871931952 ], [ 30.002706383453972, 51.21532507165638 ], [ 29.977261478877605, 51.217295885938732 ], [ 29.976871580231006, 51.229944182517279 ] ] ], [ [ [ 30.781287171035849, 51.204561044300945 ], [ 30.779224813964198, 51.208342166704611 ], [ 30.782045083652495, 51.208104134417226 ], [ 30.781287171035849, 51.204561044300945 ] ] ], [ [ [ 30.782424097707498, 51.209875675639459 ], [ 30.784865314841284, 51.207866034944637 ], [ 30.782045083652495, 51.208104134417226 ], [ 30.782424097707498, 51.209875675639459 ] ] ], [ [ [ 30.216903559218423, 51.395024735518696 ], [ 30.212030226418925, 51.427864367225624 ], [ 30.194711261354087, 51.456280061084669 ], [ 30.169892821872651, 51.476269700202408 ], [ 30.1244343114647, 51.494268855929 ], [ 30.120176549608708, 51.501814366053104 ], [ 30.124092746277285, 51.506915880859779 ], [ 30.132624876574646, 51.506246242913164 ], [ 30.13190925889425, 51.502696630754336 ], [ 30.147179608328845, 51.492482033561181 ], [ 30.16387818076447, 51.489364399460861 ], [ 30.167827674736063, 51.508885439275261 ], [ 30.174234341375637, 51.511986142449473 ], [ 30.182766214097317, 51.511312810789924 ], [ 30.208317100708356, 51.494868583983816 ], [ 30.247024646371198, 51.486387594508621 ], [ 30.266856190771684, 51.470384150436821 ], [ 30.291330288792334, 51.463021228246468 ], [ 30.290603467440228, 51.459473185677531 ], [ 30.298759051239731, 51.45701790113273 ], [ 30.306185885461929, 51.451014198187181 ], [ 30.305458224647484, 51.447466299127385 ], [ 30.311136037452819, 51.447011520915154 ], [ 30.310408097153129, 51.443463669727237 ], [ 30.31855965982162, 51.441007192275251 ], [ 30.325252578441063, 51.431454781167723 ], [ 30.330928084182947, 51.430999144692024 ], [ 30.330199027617819, 51.427451485168788 ], [ 30.352532522638725, 51.423852732429317 ], [ 30.343291162407283, 51.420990056877486 ], [ 30.342561409536309, 51.417442517288393 ], [ 30.347504866542465, 51.413438639224708 ], [ 30.347421852800021, 51.399020425848143 ], [ 30.351268445511014, 51.389695269035343 ], [ 30.356573350345876, 51.387464926999506 ], [ 30.357218233791894, 51.376594307579403 ], [ 30.345516962611832, 51.37573340284878 ], [ 30.344423899884855, 51.370412082909894 ], [ 30.324875372683174, 51.359361898106286 ], [ 30.353853067968231, 51.346212754597055 ], [ 30.373589794156945, 51.330196145143525 ], [ 30.389479524728305, 51.323502646871724 ], [ 30.393678391439114, 51.315950436121064 ], [ 30.403900918621289, 51.309713265272741 ], [ 30.431828536615157, 51.305643844597718 ], [ 30.438220919333702, 51.308730481978067 ], [ 30.463683020779879, 51.30665688673367 ], [ 30.458646958160003, 51.296248320597172 ], [ 30.46393566513559, 51.294013902139632 ], [ 30.462832102657277, 51.288694331133478 ], [ 30.450418420530472, 51.284296527194286 ], [ 30.453869553526562, 51.273196341986129 ], [ 30.465177171066472, 51.272274361224532 ], [ 30.501310754325985, 51.280139966754881 ], [ 30.533010277387429, 51.266719795357041 ], [ 30.537180674810848, 51.259163909970802 ], [ 30.527964381871314, 51.25631485807709 ], [ 30.503390499253374, 51.234889071541012 ], [ 30.488661382693998, 51.205440965098617 ], [ 30.488424632140958, 51.176609646934473 ], [ 30.49713426109636, 51.163274245467697 ], [ 30.495297374978232, 51.154408942636223 ], [ 30.501917799260596, 51.144850554477308 ], [ 30.500815729949981, 51.139531437764404 ], [ 30.464282011131768, 51.156945655647519 ], [ 30.442453204546911, 51.162332107316345 ], [ 30.417069085297832, 51.16439696590885 ], [ 30.40405733418272, 51.170862362130308 ], [ 30.395593792247865, 51.171548557555717 ], [ 30.38330340128077, 51.181559076963445 ], [ 30.349149680176392, 51.196938840918378 ], [ 30.313167221867126, 51.203439803727562 ], [ 30.329455454245711, 51.212948693131196 ], [ 30.347200441379655, 51.229550192455932 ], [ 30.355754210108739, 51.243284900910581 ], [ 30.362213887283911, 51.260794282754823 ], [ 30.359913282085067, 51.291631915816318 ], [ 30.344834020592742, 51.316286791112312 ], [ 30.31238355646407, 51.340530843322462 ], [ 30.285867452896468, 51.351669427528222 ], [ 30.263922806694403, 51.357028024468697 ], [ 30.210076141675103, 51.361310420819571 ], [ 30.216903559218423, 51.395024735518696 ] ] ], [ [ [ 30.210076141675103, 51.361310420819571 ], [ 30.206882875219289, 51.3597606562683 ], [ 30.207241739742177, 51.361535131487337 ], [ 30.210076141675103, 51.361310420819571 ] ] ], [ [ [ 29.741630334345281, 51.53086873797173 ], [ 29.747087885129051, 51.514236665228886 ], [ 29.741050088760311, 51.512887789065473 ], [ 29.740022130972189, 51.507557642938522 ], [ 29.745716339428327, 51.507129916299576 ], [ 29.742974933453613, 51.492916314068893 ], [ 29.734436161933221, 51.493557476827341 ], [ 29.733409685822437, 51.488227218501883 ], [ 29.734545021228591, 51.479129866832068 ], [ 29.741027549854984, 51.467828507033268 ], [ 29.746374445465278, 51.46562426484055 ], [ 29.744663217138477, 51.456740732670426 ], [ 29.753194883004014, 51.456099149855291 ], [ 29.766384721877984, 51.449698657607804 ], [ 29.783444114481647, 51.448411840682979 ], [ 29.793784521990279, 51.442223163120417 ], [ 29.798003425738035, 51.449114074469854 ], [ 29.794037276390856, 51.458426399087607 ], [ 29.81178820183456, 51.460688186252945 ], [ 29.816785488681948, 51.456704525679655 ], [ 29.815405941119813, 51.449599043671256 ], [ 29.830311053224833, 51.45207353420507 ], [ 29.843066451058093, 51.458314674313293 ], [ 29.851249836939846, 51.455889719327779 ], [ 29.850211141003019, 51.450561108992567 ], [ 29.881131855074059, 51.446401623847429 ], [ 29.874819170042755, 51.428857795057972 ], [ 29.877445584354842, 51.398013768760357 ], [ 29.892807296538528, 51.373406354205713 ], [ 29.91770420380513, 51.353472954854482 ], [ 29.933676292207387, 51.34683837125587 ], [ 29.926613509777663, 51.340170799088611 ], [ 29.916080504753925, 51.315743529411257 ], [ 29.918681709670746, 51.284900346228113 ], [ 29.893819053174909, 51.304832090164759 ], [ 29.85939552317987, 51.320079794908281 ], [ 29.798396351156477, 51.331924276518265 ], [ 29.749160155730753, 51.330234042251874 ], [ 29.70991333036287, 51.320565354620214 ], [ 29.693702923371045, 51.310965134733898 ], [ 29.659002566692141, 51.309951068374211 ], [ 29.625795235518257, 51.301606838396957 ], [ 29.585764322939429, 51.302768608550892 ], [ 29.564580879737488, 51.297122725320662 ], [ 29.551401654332278, 51.303499545521582 ], [ 29.52937724529944, 51.308721947125754 ], [ 29.455619368797858, 51.314109800348291 ], [ 29.458254441550363, 51.328334634995215 ], [ 29.450523637821121, 51.348719370796488 ], [ 29.452298397167308, 51.373819390187947 ], [ 29.441057942690314, 51.390854172350458 ], [ 29.442376568402469, 51.397966781801138 ], [ 29.433641468513017, 51.413016799532748 ], [ 29.450372029630387, 51.410000935929261 ], [ 29.471793062653571, 51.401234839266976 ], [ 29.497042765953658, 51.397591360361169 ], [ 29.503723284094495, 51.402509658866904 ], [ 29.505384490274082, 51.411398947754385 ], [ 29.511735432363292, 51.414538812737881 ], [ 29.513398907328639, 51.423427897212441 ], [ 29.521929601870173, 51.422803433053041 ], [ 29.52492891634483, 51.438803298105611 ], [ 29.519573090356602, 51.440997691689681 ], [ 29.521906528861404, 51.45344208396218 ], [ 29.534957850896578, 51.461496683706933 ], [ 29.538969167259236, 51.482828930131795 ], [ 29.544663335179909, 51.482411107647351 ], [ 29.546840823397918, 51.478646819509912 ], [ 29.55253435285028, 51.478228638847618 ], [ 29.554711010068321, 51.474464242614509 ], [ 29.560403901056105, 51.474045703902362 ], [ 29.581158261358432, 51.461703944915428 ], [ 29.60594207738605, 51.470687533211233 ], [ 29.610325206281729, 51.49379309589105 ], [ 29.621713993469225, 51.492950121705796 ], [ 29.628084323436543, 51.496082733628633 ], [ 29.632961493584052, 51.506535053961038 ], [ 29.641166275262982, 51.504123979110922 ], [ 29.64299762808859, 51.498581023897295 ], [ 29.652217577261222, 51.501500754108356 ], [ 29.653235066263147, 51.506832156650702 ], [ 29.672488620177258, 51.501794597534186 ], [ 29.674188570034069, 51.510679777785121 ], [ 29.683753281885295, 51.515373813349157 ], [ 29.701523368383945, 51.517651671659827 ], [ 29.711433879658973, 51.524120110539592 ], [ 29.712459108235858, 51.529450650283913 ], [ 29.71849849827462, 51.530800948978921 ], [ 29.741630334345281, 51.53086873797173 ] ] ], [ [ [ 29.253702445080322, 51.485378542522227 ], [ 29.272350802854426, 51.476847821452715 ], [ 29.27105489891531, 51.469732203632113 ], [ 29.22891991109821, 51.460104017920258 ], [ 29.227089585582679, 51.48185575832909 ], [ 29.253702445080322, 51.485378542522227 ] ] ], [ [ [ 29.881068481778254, 51.46082713222242 ], [ 29.889945599666706, 51.461951601470531 ], [ 29.885016549004128, 51.451512676613618 ], [ 29.879331407466218, 51.451946832955649 ], [ 29.881068481778254, 51.46082713222242 ] ] ], [ [ [ 29.915079996768558, 51.487067317481234 ], [ 29.893484738382668, 51.465286260109394 ], [ 29.887450208870419, 51.46394488792405 ], [ 29.892381507959588, 51.474383623199898 ], [ 29.88669363815637, 51.474818273041244 ], [ 29.887389501528386, 51.478370314156585 ], [ 29.893426002952275, 51.479711599108029 ], [ 29.894470818708854, 51.485039554964537 ], [ 29.915079996768558, 51.487067317481234 ] ] ], [ [ [ 31.450219516644321, 46.504249744607257 ], [ 31.463693408896702, 46.479591516052928 ], [ 31.485866118736617, 46.459528351155768 ], [ 31.516731849322877, 46.444055408352156 ], [ 31.549305044712298, 46.437419228998607 ], [ 31.57806209759028, 46.411320002880061 ], [ 31.611427645132348, 46.395586431347624 ], [ 31.631179120712346, 46.390128687624582 ], [ 31.656384243010578, 46.385954314922195 ], [ 31.729315237350363, 46.38625828615573 ], [ 31.77334962265385, 46.398277954584607 ], [ 31.802424540875155, 46.413512519219353 ], [ 31.818736976558128, 46.429962380804277 ], [ 31.833008005373806, 46.423191946367076 ], [ 31.868068573024541, 46.416222891113492 ], [ 31.907098339510103, 46.416063795860552 ], [ 31.926049522895269, 46.419635777745839 ], [ 31.911136951046636, 46.410270574674733 ], [ 31.891540660082015, 46.390548761859584 ], [ 31.87642224529937, 46.354183594136934 ], [ 31.876559341950184, 46.328956305142356 ], [ 31.884278388894426, 46.315605865066701 ], [ 31.881866188290843, 46.290624593275545 ], [ 31.898066146720392, 46.254844546199053 ], [ 31.919984845444581, 46.234717994999372 ], [ 31.950588172950077, 46.219148053635543 ], [ 32.002593903181726, 46.206888831552703 ], [ 32.00187989546508, 46.203356529423715 ], [ 32.023738968557993, 46.183215027984957 ], [ 32.054280961599225, 46.167622067399584 ], [ 32.073894779273125, 46.162097826556625 ], [ 32.096763637073032, 46.1598519800283 ], [ 32.118549417665946, 46.152305258273081 ], [ 32.138870704497855, 46.15030155723462 ], [ 32.158117318924084, 46.13039097458298 ], [ 32.165372720016535, 46.127872451498959 ], [ 32.165754672501791, 46.104422701216549 ], [ 32.178820743013986, 46.079717370906835 ], [ 32.209622215630048, 46.0532500738965 ], [ 32.233157964690683, 46.04190484834713 ], [ 32.24076049441117, 46.041147627519337 ], [ 32.249808250191457, 46.034843138335923 ], [ 32.269350508305358, 46.029290905775767 ], [ 32.294318046592146, 46.024992986901971 ], [ 32.335571007921459, 46.024456554098421 ], [ 32.351834467445109, 46.015617270887127 ], [ 32.386545150410022, 46.008516343777103 ], [ 32.414755519966477, 46.007465301045727 ], [ 32.441169736681005, 46.010191109536471 ], [ 32.45957070445909, 45.999317927094509 ], [ 32.479072628803841, 45.993732306990438 ], [ 32.534720808718887, 45.988052522670912 ], [ 32.555696129631087, 45.989506193315307 ], [ 32.588278819332857, 45.996966971460658 ], [ 32.628922661136912, 46.01799466345625 ], [ 32.649533540748969, 46.017667196672349 ], [ 32.668741917565896, 46.022884106437992 ], [ 32.704904944370881, 46.022735947519784 ], [ 32.732084088691018, 46.028914718786531 ], [ 32.743714058809275, 46.034907436092588 ], [ 32.784938084245155, 46.034205424697078 ], [ 32.798722828651449, 46.038165932919334 ], [ 32.828305437292897, 46.031461827521028 ], [ 32.901613437554069, 46.023740413354993 ], [ 32.937761691103766, 46.023517081691622 ], [ 32.981275996439045, 46.033305172009456 ], [ 33.013328776479433, 46.049703060071337 ], [ 33.050263585308549, 46.052961268391776 ], [ 33.056095391967418, 46.055939374626689 ], [ 33.093222192440955, 46.048355423870866 ], [ 33.126456597933341, 46.046581765707735 ], [ 33.147448510074653, 46.047920982856617 ], [ 33.164172720572317, 46.053319904115916 ], [ 33.169225091122264, 46.052773819778871 ], [ 33.174056978287538, 46.039642771762054 ], [ 33.199645460298278, 46.015257712337899 ], [ 33.229701432346346, 45.9993873233499 ], [ 33.271405538728445, 45.989443753292022 ], [ 33.307505425481523, 45.989103371897912 ], [ 33.313883274230534, 45.983001913222807 ], [ 33.344280353869593, 45.968863636466992 ], [ 33.378770586669567, 45.961471322755067 ], [ 33.404367003185719, 45.96045284620859 ], [ 33.42532148208992, 45.961742479681128 ], [ 33.45251485177252, 45.967741247740641 ], [ 33.455834698612769, 45.970976125436586 ], [ 33.471352715205086, 45.971057685904562 ], [ 33.51235711989289, 45.980913163590195 ], [ 33.541581578630868, 45.995670587380737 ], [ 33.55862306599132, 46.013583212909914 ], [ 33.564068402561851, 46.014776256090677 ], [ 33.562855878833844, 46.009507706157244 ], [ 33.575240309559533, 45.98470609386127 ], [ 33.600608994852415, 45.960250155553503 ], [ 33.619129344989204, 45.950967656921371 ], [ 33.626852016413309, 45.928485165941119 ], [ 33.593331956041801, 45.928642617820707 ], [ 33.568666915376561, 45.922396510841125 ], [ 33.532927376647201, 45.935392147978732 ], [ 33.482573801805906, 45.940992934784553 ], [ 33.461628251091817, 45.939713389685636 ], [ 33.434448976400731, 45.933715593883718 ], [ 33.38779335596746, 45.910044989515214 ], [ 33.367532739327565, 45.888859712714485 ], [ 33.359472888987341, 45.864530142840287 ], [ 33.341611856099981, 45.85388367618588 ], [ 33.322819457242055, 45.850540688852 ], [ 33.304969526438065, 45.83988723960681 ], [ 33.287755330998067, 45.843569830302208 ], [ 33.251750246985267, 45.843894410096581 ], [ 33.232572543994571, 45.838776967565678 ], [ 33.21999287320974, 45.840143876677494 ], [ 33.184942372696646, 45.833138825445516 ], [ 33.144664373042723, 45.814080170227314 ], [ 33.122017628198499, 45.793109551993226 ], [ 33.116793640150213, 45.781065682593479 ], [ 33.103448512141767, 45.778899846368326 ], [ 33.097260976387361, 45.774162393195475 ], [ 33.075017092638554, 45.778351926563658 ], [ 33.039040075759495, 45.778603910600729 ], [ 32.995731576635862, 45.768820347123942 ], [ 32.960586668093491, 45.74914873918982 ], [ 32.944204361475343, 45.732879802346901 ], [ 32.938645699730252, 45.719063019107288 ], [ 32.924179121034285, 45.711592207568955 ], [ 32.903791344367185, 45.688538945382462 ], [ 32.884071133406209, 45.692422829477266 ], [ 32.848137521425016, 45.692608044406775 ], [ 32.777914723925349, 45.676564842953937 ], [ 32.731358291579504, 45.65081218867752 ], [ 32.708560770926674, 45.627975288567086 ], [ 32.703074775496113, 45.614140452527231 ], [ 32.685127878801737, 45.614203024322663 ], [ 32.658166002560407, 45.607993586488377 ], [ 32.643762646694427, 45.60048029108895 ], [ 32.625080146763118, 45.597007953093133 ], [ 32.590167128768442, 45.577197743454725 ], [ 32.573944898927714, 45.560859995704085 ], [ 32.565992350681064, 45.547272489241976 ], [ 32.56049790312408, 45.520828928594554 ], [ 32.54785614151578, 45.49691873854534 ], [ 32.548121298421961, 45.473485770696506 ], [ 32.510529875440255, 45.477332273598677 ], [ 32.481868847278172, 45.474855049148069 ], [ 32.446748211255347, 45.465825038088653 ], [ 32.418073711380217, 45.450729888247352 ], [ 32.395851367243473, 45.429574208851712 ], [ 32.387965048187439, 45.415968506108946 ], [ 32.38186936683779, 45.398580889708626 ], [ 32.38185347330122, 45.373378086917981 ], [ 32.392205239903873, 45.348928401324173 ], [ 32.402918841583414, 45.338843531205228 ], [ 32.409692451573321, 45.321955556767122 ], [ 32.437879358508368, 45.297495182739205 ], [ 32.461067943461678, 45.286137867603955 ], [ 32.480332615633436, 45.280576238665674 ], [ 32.51244152884923, 45.275499762201399 ], [ 32.548127281858427, 45.275447996107076 ], [ 32.582768505401134, 45.282693038505059 ], [ 32.605295290914178, 45.292976291702715 ], [ 32.615592879964559, 45.281113276335411 ], [ 32.645489005193618, 45.265424434695753 ], [ 32.686812781727639, 45.255743157710199 ], [ 32.712128443214837, 45.254913371335377 ], [ 32.732821212208997, 45.256359767138363 ], [ 32.759609830604212, 45.26256658564774 ], [ 32.793983242664254, 45.280574656466719 ], [ 32.801468442979342, 45.27979031091887 ], [ 32.828273208426346, 45.285978844097613 ], [ 32.839739958830769, 45.291974729036554 ], [ 32.862828070337727, 45.28054256496133 ], [ 32.894880214892964, 45.275359860038726 ], [ 32.913586880104717, 45.255378439647231 ], [ 32.932032691077183, 45.246223302122885 ], [ 32.94013056298823, 45.236363098527285 ], [ 32.945114182003692, 45.235834270864167 ], [ 32.955699665273983, 45.225708898316753 ], [ 32.974503315388112, 45.218308909816848 ], [ 32.993163790616805, 45.198319192002103 ], [ 33.025382647649671, 45.182278961261353 ], [ 33.026743001710138, 45.17673287659872 ], [ 33.039414680667392, 45.164576388347982 ], [ 33.038662175656306, 45.161056475937997 ], [ 33.059769175260655, 45.140794048065878 ], [ 33.09652882990688, 45.122446117471689 ], [ 33.13056451918952, 45.115180717580024 ], [ 33.138397438316026, 45.11613592748283 ], [ 33.152757436274051, 45.100184006148673 ], [ 33.207416214531833, 45.070862849046009 ], [ 33.241400616085116, 45.063568474808044 ], [ 33.286827360253319, 45.062214341251284 ], [ 33.334936302547938, 45.073148154694117 ], [ 33.355381261848841, 45.085304547841439 ], [ 33.385541184238953, 45.083785959469843 ], [ 33.409415348832738, 45.088353710633939 ], [ 33.429964701831253, 45.066281151950726 ], [ 33.441588912909658, 45.061394713048919 ], [ 33.4449985361749, 45.053816575948368 ], [ 33.468388388116956, 45.033222721600211 ], [ 33.468692761580215, 45.01158741634773 ], [ 33.48099165424437, 44.98682092685673 ], [ 33.477353675082327, 44.98182463204374 ], [ 33.476884543790547, 44.956675787400258 ], [ 33.490098303990372, 44.924607447863707 ], [ 33.494657550105636, 44.92230062310788 ], [ 33.490250234477507, 44.913790511136717 ], [ 33.491328275423662, 44.895670777361779 ], [ 33.471708280563533, 44.887049955978306 ], [ 33.449398815682983, 44.866123977463751 ], [ 33.435451270617136, 44.837069324367434 ], [ 33.435617008193347, 44.826251600881861 ], [ 33.426290275447485, 44.818283674250331 ], [ 33.41598766696729, 44.794224049235133 ], [ 33.415737109270367, 44.758255117662806 ], [ 33.427263915733761, 44.7299844106671 ], [ 33.435212565281695, 44.720106452187132 ], [ 33.433853586840733, 44.70225923749085 ], [ 33.418859847336378, 44.691318659602665 ], [ 33.376390203991875, 44.681604757315583 ], [ 33.341892331674529, 44.662001106041501 ], [ 33.325791212093293, 44.645770611970711 ], [ 33.324656761031882, 44.640495968951804 ], [ 33.315001995856115, 44.630755909103478 ], [ 33.309699772185624, 44.629536868304861 ], [ 33.28681149347117, 44.60504569300636 ], [ 33.276247078564317, 44.579205427265542 ], [ 33.277240644486966, 44.548504192908098 ], [ 33.291276642218463, 44.519977766969347 ], [ 33.312093192857468, 44.499705297523498 ], [ 33.341392325506334, 44.483896803981814 ], [ 33.367650395480034, 44.477412513535782 ], [ 33.374452458073357, 44.462268298514729 ], [ 33.395219580857436, 44.441986103327963 ], [ 33.42446494502601, 44.426161754125594 ], [ 33.467469173900113, 44.416002111143449 ], [ 33.50255256885093, 44.415703944312853 ], [ 33.515952295532159, 44.419610778710819 ], [ 33.535182036185276, 44.415668205392898 ], [ 33.573093670104946, 44.416831214385553 ], [ 33.580982924402505, 44.406951202235554 ], [ 33.585883637561672, 44.406402412700032 ], [ 33.584735247322527, 44.401132846755168 ], [ 33.594839860770691, 44.378408205253848 ], [ 33.611366006217928, 44.362159802357723 ], [ 33.614347039848937, 44.352828492978837 ], [ 33.634988402195845, 44.332516106011127 ], [ 33.677626051832036, 44.309720231344151 ], [ 33.715977484864354, 44.301787328385799 ], [ 33.738750501133616, 44.302805738420652 ], [ 33.757919130579879, 44.298831011469638 ], [ 33.792909423942007, 44.298449756771888 ], [ 33.840004451621056, 44.307469531170014 ], [ 33.843226608260402, 44.310699633328539 ], [ 33.867169640150131, 44.316955158990353 ], [ 33.879388595040879, 44.315554347434158 ], [ 33.894930429605594, 44.306573488480588 ], [ 33.928348109428732, 44.299132085424866 ], [ 33.968209742719502, 44.29813328075015 ], [ 34.007595052292956, 44.306171365174407 ], [ 34.010825461517008, 44.309395530386951 ], [ 34.028314399023273, 44.309166255973501 ], [ 34.059989542482818, 44.316280743364196 ], [ 34.077018441281382, 44.325093610929621 ], [ 34.10058476096863, 44.329542261448843 ], [ 34.103821403117102, 44.332762984502025 ], [ 34.134319842675602, 44.334595321072598 ], [ 34.168857374352648, 44.343142360322261 ], [ 34.228155185962528, 44.372153109284888 ], [ 34.253730710272443, 44.396124916784387 ], [ 34.26305039040799, 44.414816851788821 ], [ 34.278924903232905, 44.418336859311907 ], [ 34.32165654319239, 44.440260942845008 ], [ 34.322467251480631, 44.443763570113425 ], [ 34.356270795537554, 44.45953676111256 ], [ 34.378680033154616, 44.480258830738059 ], [ 34.383164349861829, 44.488721317669274 ], [ 34.407218657912843, 44.49484515680237 ], [ 34.444749559595571, 44.515544337634225 ], [ 34.452104167711482, 44.525459534527158 ], [ 34.463533896293235, 44.531285720713853 ], [ 34.483564018737042, 44.552273099939413 ], [ 34.497117072238012, 44.588434761059325 ], [ 34.510217274142995, 44.601253985103583 ], [ 34.51680174804828, 44.618457269620393 ], [ 34.529085883276856, 44.627773469079749 ], [ 34.538131640326533, 44.644678693017347 ], [ 34.561060670143242, 44.656304578667971 ], [ 34.595421371955517, 44.662939638647643 ], [ 34.636419813359382, 44.686754450876805 ], [ 34.654836608961887, 44.689910778727622 ], [ 34.681096056240442, 44.704705520367042 ], [ 34.701130467381496, 44.704056681168034 ], [ 34.735949503205653, 44.712391268922339 ], [ 34.776189458082371, 44.73264747746515 ], [ 34.777035884989729, 44.736143226847773 ], [ 34.78887291475742, 44.732886397547944 ], [ 34.824045660523034, 44.732149575130116 ], [ 34.858466361615505, 44.738694166375517 ], [ 34.867098617201215, 44.743025197715589 ], [ 34.888734408264064, 44.738543233915792 ], [ 34.923901894514032, 44.737774472078307 ], [ 34.958330464068879, 44.744286273531586 ], [ 34.969849484563824, 44.750049075783643 ], [ 35.002136314098365, 44.747814301236623 ], [ 35.026342295443939, 44.753783005673625 ], [ 35.063956875765221, 44.752661758978007 ], [ 35.098834085544304, 44.760872452686797 ], [ 35.110801582414545, 44.768363863117045 ], [ 35.140633727841795, 44.766397084602289 ], [ 35.188645261239486, 44.776517910042713 ], [ 35.223722263768749, 44.79546368031221 ], [ 35.243680333308475, 44.814525037129428 ], [ 35.253408711465845, 44.833087266929397 ], [ 35.25831108282447, 44.832462307641748 ], [ 35.287221552514964, 44.846774110394804 ], [ 35.310114231689667, 44.867249495611112 ], [ 35.315215246918349, 44.8773980231514 ], [ 35.336843284962399, 44.872826437628483 ], [ 35.379851789860595, 44.872703326389825 ], [ 35.414829943836885, 44.880800035547928 ], [ 35.443798465734901, 44.895063235646447 ], [ 35.470557758026395, 44.920407143521977 ], [ 35.481726385913319, 44.944165847795581 ], [ 35.480615958106604, 44.949710990139096 ], [ 35.492222770936181, 44.955408071008449 ], [ 35.512780022897715, 44.976145982108768 ], [ 35.52398255836831, 44.999897365905881 ], [ 35.526722558830095, 45.030150433846572 ], [ 35.545721679163883, 45.034881009166845 ], [ 35.574805094064295, 45.049096808680183 ], [ 35.581528273117783, 45.055422000518888 ], [ 35.599371890540446, 45.045889057678231 ], [ 35.632850924824979, 45.037907288805613 ], [ 35.673047524766496, 45.036235171590697 ], [ 35.715975602818602, 45.044991862156174 ], [ 35.745097489912993, 45.059156901995244 ], [ 35.761954321662863, 45.074936596684609 ], [ 35.795115038313966, 45.05614168310187 ], [ 35.828557111526749, 45.048103328343281 ], [ 35.853555415744857, 45.046580478733205 ], [ 35.874105484162364, 45.047445336432219 ], [ 35.901409896434672, 45.054607495984058 ], [ 35.923026350378109, 45.049918437925442 ], [ 35.966112922595386, 45.049550396617164 ], [ 36.00661717020197, 45.058516074492047 ], [ 36.036268541224189, 45.07433228265387 ], [ 36.080410828009526, 45.06837357020347 ], [ 36.100961981154086, 45.06919475281957 ], [ 36.112175010242588, 45.073078472808817 ], [ 36.138984739211836, 45.040629874290261 ], [ 36.167543473316989, 45.024144001767986 ], [ 36.207759051160814, 45.013264215181159 ], [ 36.220470320114174, 45.013330439232078 ], [ 36.230352906552007, 45.002977232722628 ], [ 36.252465940668017, 44.990950578259913 ], [ 36.2710934355947, 44.984799015712852 ], [ 36.297525988922402, 44.979374009373721 ], [ 36.332708664182348, 44.978141104045989 ], [ 36.375627761211888, 44.986633712906631 ], [ 36.411159363516724, 45.005135071837557 ], [ 36.428159030719122, 45.020790440719736 ], [ 36.429591821460285, 45.025994489226726 ], [ 36.442777777885112, 45.027769291903354 ], [ 36.481282053190618, 45.047637341573633 ], [ 36.529963096850437, 45.094889185560682 ], [ 36.54161075129575, 45.118478848581226 ], [ 36.542540804979161, 45.130956492903152 ], [ 36.558368674946649, 45.087322857150916 ], [ 36.556921128674261, 45.082122109765194 ], [ 36.562331558653362, 45.074162338817203 ], [ 36.560884316499646, 45.068961680037951 ], [ 36.566293325673726, 45.061002005048607 ], [ 36.56484638776201, 45.055801434873487 ], [ 36.60970220333229, 44.943274493646634 ], [ 36.60825726907737, 44.938074919544313 ], [ 36.584443401640364, 44.916200783116793 ], [ 36.579083806913424, 44.915150050926066 ], [ 36.565486058819523, 44.902646385505378 ], [ 36.554290675088758, 44.898808701731689 ], [ 36.553332163704546, 44.895341360684732 ], [ 36.487200814655523, 44.866744335784965 ], [ 36.427840141229773, 44.85337450040295 ], [ 36.388885478649208, 44.849758971890402 ], [ 36.366459080500334, 44.851053247308045 ], [ 36.307684584844488, 44.83033447598558 ], [ 36.241533731213629, 44.819594533554358 ], [ 36.170877202230571, 44.820228933020218 ], [ 36.101017537068543, 44.833311003624907 ], [ 36.053017828392555, 44.814594261938602 ], [ 36.004911060144416, 44.804872283283295 ], [ 35.953311277030359, 44.800997743081886 ], [ 35.923544661470387, 44.803182183359816 ], [ 35.883241764438438, 44.794162088982553 ], [ 35.821874011286205, 44.791526280227252 ], [ 35.757884148977283, 44.798202921920343 ], [ 35.712795058431027, 44.809553595716203 ], [ 35.671484312178777, 44.825789731909779 ], [ 35.631949545098905, 44.848978489977796 ], [ 35.62390085832611, 44.837430632894126 ], [ 35.611411769190838, 44.82826346425955 ], [ 35.610062589227454, 44.823039227350257 ], [ 35.604719259614107, 44.82193771365661 ], [ 35.597130046463597, 44.812128345555912 ], [ 35.591787911849252, 44.811026050478517 ], [ 35.578413406027721, 44.798370621735437 ], [ 35.570178523871867, 44.795844541028778 ], [ 35.569282526043125, 44.792361047541114 ], [ 35.50609362809805, 44.762779789354127 ], [ 35.438733643061717, 44.746301794281464 ], [ 35.410502906243266, 44.744544912321857 ], [ 35.396063596030579, 44.737405246631013 ], [ 35.390084603833451, 44.723774865126835 ], [ 35.373008144875662, 44.706171766257427 ], [ 35.371686149329776, 44.700941788980337 ], [ 35.342211330921323, 44.674127813655268 ], [ 35.318714438493664, 44.660940267339249 ], [ 35.317837711029895, 44.657452746190174 ], [ 35.274631572229673, 44.635978684939722 ], [ 35.269746131305268, 44.636602205518997 ], [ 35.223259635850219, 44.611926950935633 ], [ 35.218375098523794, 44.612548011791006 ], [ 35.209310489325617, 44.606500770479357 ], [ 35.204426105165616, 44.607121175655635 ], [ 35.18185266159194, 44.597387018796567 ], [ 35.134001718626827, 44.587245215575635 ], [ 35.102969590817288, 44.583962277449757 ], [ 35.04751159913441, 44.583739427730826 ], [ 34.977077176273795, 44.59435794522188 ], [ 34.928296818813259, 44.611237043153551 ], [ 34.880877618637577, 44.602728659543658 ], [ 34.832714001226861, 44.601490420982813 ], [ 34.808252469649055, 44.60450953677104 ], [ 34.780415832207723, 44.593540580147696 ], [ 34.738331972591716, 44.586112776247205 ], [ 34.72973402001454, 44.581767937876933 ], [ 34.728894969262747, 44.578271387947353 ], [ 34.717852897317727, 44.574225187850566 ], [ 34.717014779110563, 44.570728456010464 ], [ 34.676919617856512, 44.550435740842971 ], [ 34.666303087741944, 44.54813207311485 ], [ 34.647410884483364, 44.521641065217807 ], [ 34.627755893733458, 44.502438426922126 ], [ 34.622452710772997, 44.501283746001661 ], [ 34.613786290080469, 44.475343777019859 ], [ 34.590025947365071, 44.438638869956414 ], [ 34.541867364559906, 44.394084104474615 ], [ 34.484454548497048, 44.363218636130036 ], [ 34.479575212641308, 44.363805469923918 ], [ 34.473469477300235, 44.359141413078966 ], [ 34.457606681726766, 44.355648732363889 ], [ 34.441739290663151, 44.341358263890186 ], [ 34.401493498557308, 44.319186289155681 ], [ 34.396616123874111, 44.319769123934279 ], [ 34.384833517675666, 44.31217974699809 ], [ 34.379956385287969, 44.312761798091529 ], [ 34.373863919263307, 44.308090729344876 ], [ 34.368986903137603, 44.308672269890081 ], [ 34.352333133400442, 44.301660039762666 ], [ 34.345032037873025, 44.291733503258087 ], [ 34.339752028096221, 44.290562415219327 ], [ 34.335699501686634, 44.28384737027082 ], [ 34.330420344095657, 44.282675732683053 ], [ 34.317445111963103, 44.26982329695489 ], [ 34.306487594797701, 44.265726148414977 ], [ 34.305682850428539, 44.262223182103369 ], [ 34.265941857100195, 44.241741460607059 ], [ 34.261068150436699, 44.242317713615492 ], [ 34.25215549790061, 44.23617421612083 ], [ 34.247281974148883, 44.236749823960274 ], [ 34.219716837222215, 44.225607994331988 ], [ 34.151982359758478, 44.213777248811645 ], [ 34.091907186157869, 44.21360504414492 ], [ 34.048176264208344, 44.197107694988006 ], [ 34.003599771649071, 44.18788728245881 ], [ 33.960206715532941, 44.183909323447679 ], [ 33.927736505758617, 44.18405432457569 ], [ 33.852535946866148, 44.194485447839106 ], [ 33.836351716707242, 44.189139856122083 ], [ 33.797832995106944, 44.184539740959025 ], [ 33.755208737053756, 44.183990439248269 ], [ 33.691770851544319, 44.191174887302708 ], [ 33.620449813641066, 44.208203709565709 ], [ 33.580835682866137, 44.221641242052129 ], [ 33.565255297865434, 44.230580962382113 ], [ 33.536313367605025, 44.235612031461244 ], [ 33.489699524295119, 44.251596368955838 ], [ 33.453593986908103, 44.269995817617925 ], [ 33.451902180276562, 44.273781693600405 ], [ 33.433838896435503, 44.282977923832497 ], [ 33.430075329890244, 44.288791863356053 ], [ 33.425181452506251, 44.289332839077126 ], [ 33.421416670451684, 44.295146638615847 ], [ 33.39449484765472, 44.298117767022489 ], [ 33.34948154617301, 44.310267766665604 ], [ 33.324414546353921, 44.322014350107025 ], [ 33.317066559501832, 44.322819417455563 ], [ 33.278776269871415, 44.343200425533844 ], [ 33.274993252129541, 44.349011366093301 ], [ 33.270091456733901, 44.349546264192462 ], [ 33.25761926575975, 44.361702297409003 ], [ 33.252716088385924, 44.362236569566917 ], [ 33.22567303890667, 44.388571034715461 ], [ 33.226416765013212, 44.392088944179989 ], [ 33.21771904290167, 44.398432212034017 ], [ 33.218462547960634, 44.401950221474507 ], [ 33.206340732852851, 44.41586213299891 ], [ 33.196894626007648, 44.418686227020508 ], [ 33.195182750188543, 44.422470659326798 ], [ 33.18573487409639, 44.425293990190909 ], [ 33.181938100601251, 44.431103492729399 ], [ 33.170403389801706, 44.435950916447425 ], [ 33.136660284938152, 44.466588131914236 ], [ 33.137400687751573, 44.470107175982236 ], [ 33.126594042670717, 44.478470469093871 ], [ 33.127334146972181, 44.481989639069425 ], [ 33.11136760088376, 44.501704560287443 ], [ 33.106949399427137, 44.516576170245962 ], [ 33.102400248951909, 44.518865150748368 ], [ 33.103509835073503, 44.524144343682082 ], [ 33.097609390164322, 44.531977090675106 ], [ 33.092205501606145, 44.554152569394638 ], [ 33.090001649126833, 44.579583401044729 ], [ 33.102980144927322, 44.641174531159926 ], [ 33.12311794153306, 44.676799270571436 ], [ 33.128795300609056, 44.679786663198918 ], [ 33.129913524233494, 44.685065186116518 ], [ 33.152780316581747, 44.709592751519075 ], [ 33.158088561587881, 44.710818837792083 ], [ 33.177011579376568, 44.728568958436746 ], [ 33.188007697562846, 44.732777178623884 ], [ 33.188758114890362, 44.736295379807437 ], [ 33.231422445264649, 44.758660038944257 ], [ 33.23635943404495, 44.758122957816717 ], [ 33.244896374701405, 44.762593106443923 ], [ 33.241231712005309, 44.804387986238524 ], [ 33.251821718051012, 44.853631158257286 ], [ 33.259419189868026, 44.865402493616493 ], [ 33.270241912853152, 44.903820695025196 ], [ 33.28622697643975, 44.930874852865585 ], [ 33.295939510942787, 44.940613151769931 ], [ 33.272895701276823, 44.93953071973857 ], [ 33.191550865140066, 44.950178851754053 ], [ 33.160477389017132, 44.958942814408729 ], [ 33.139682966146118, 44.968389079785318 ], [ 33.129769218888953, 44.969458566751733 ], [ 33.086048904687665, 44.990364561676671 ], [ 33.061623774371107, 44.994785928926987 ], [ 33.01921531811751, 45.010124514038928 ], [ 32.966975301091864, 45.039093082496237 ], [ 32.947974055332097, 45.057312762166404 ], [ 32.915421914286156, 45.071564450077204 ], [ 32.913679446805723, 45.075349107562381 ], [ 32.904109844018336, 45.078161767516448 ], [ 32.90025191757298, 45.083970050783805 ], [ 32.888564868189576, 45.08880532324828 ], [ 32.85009709008942, 45.123463785586267 ], [ 32.850837007580324, 45.126986176592823 ], [ 32.84199440972931, 45.133317187629792 ], [ 32.832879034859708, 45.150477132748868 ], [ 32.729838421268163, 45.11985628013101 ], [ 32.722372219325777, 45.120633794701696 ], [ 32.71131997106842, 45.116383474548876 ], [ 32.679994689779839, 45.112436487854374 ], [ 32.641568567707679, 45.111014890189345 ], [ 32.564390608096026, 45.118965285127331 ], [ 32.511397411147698, 45.133393300935673 ], [ 32.488278308154086, 45.144753623829438 ], [ 32.450537743549063, 45.146795298400477 ], [ 32.382518653255289, 45.162686971035903 ], [ 32.324065123957872, 45.188376543517663 ], [ 32.322278795481303, 45.192156243546997 ], [ 32.303730049184161, 45.201218440117323 ], [ 32.299799816729504, 45.207012899579439 ], [ 32.294807147583363, 45.207513284852993 ], [ 32.256217886915927, 45.243775822387761 ], [ 32.25692416641764, 45.247305623970334 ], [ 32.250134664435876, 45.251583708176383 ], [ 32.250840759230762, 45.255113579673043 ], [ 32.238316398127061, 45.268964007809849 ], [ 32.237228242880619, 45.276273209143469 ], [ 32.232581199606791, 45.278536488250573 ], [ 32.223959385394927, 45.299197316111716 ], [ 32.22357523755565, 45.31003681885322 ], [ 32.219277790458385, 45.314064970575501 ], [ 32.218508802607417, 45.335744218625074 ], [ 32.210615109604319, 45.347330811614668 ], [ 32.211674155325461, 45.352626253263146 ], [ 32.203038000226222, 45.373287523310566 ], [ 32.200788361969344, 45.413117299967489 ], [ 32.20751021204034, 45.446655444901388 ], [ 32.221771019620505, 45.479443760831792 ], [ 32.239649042908958, 45.50466877801567 ], [ 32.248603172673427, 45.51097743503697 ], [ 32.249671838647153, 45.516272028086526 ], [ 32.264720671696374, 45.527372430182858 ], [ 32.270088100618928, 45.541239462482444 ], [ 32.288011946709965, 45.566453118204684 ], [ 32.310621086563437, 45.589393869935797 ], [ 32.316006485022093, 45.590653953073435 ], [ 32.328936356721492, 45.603759397187325 ], [ 32.337197167301419, 45.606529994061404 ], [ 32.337917511376354, 45.610058575442331 ], [ 32.354803339258218, 45.6173616893823 ], [ 32.355525059813928, 45.620890046209823 ], [ 32.420236930751216, 45.648563174166327 ], [ 32.479204979487037, 45.660578839679971 ], [ 32.491823768909882, 45.671897109240639 ], [ 32.537939224242038, 45.695995355889735 ], [ 32.542970862885404, 45.695480082918777 ], [ 32.551990151505549, 45.701758484068023 ], [ 32.557022054586227, 45.70124254209852 ], [ 32.576845885653867, 45.71001167361031 ], [ 32.587279438439097, 45.710739938842707 ], [ 32.612589169019117, 45.733344059071051 ], [ 32.632803702355311, 45.743863875317551 ], [ 32.633546119860782, 45.747388669635576 ], [ 32.676518441293545, 45.768153766933878 ], [ 32.681554057376651, 45.76763175771363 ], [ 32.687709197858361, 45.772395671117806 ], [ 32.703937505178686, 45.776113225947263 ], [ 32.723913269428259, 45.797446405099009 ], [ 32.732219307574773, 45.800183294413962 ], [ 32.739133176771333, 45.808467099086933 ], [ 32.771357939528407, 45.826714325313084 ], [ 32.705836140667451, 45.833541704204499 ], [ 32.669518658716434, 45.844512401393715 ], [ 32.590597686021013, 45.849055987968008 ], [ 32.541254559666172, 45.859522085198286 ], [ 32.531900545507703, 45.86408111253467 ], [ 32.493307757688228, 45.864421149444659 ], [ 32.435616920581666, 45.872088805182756 ], [ 32.391627860904386, 45.883744979610505 ], [ 32.380094386039708, 45.890311943763962 ], [ 32.359520646676621, 45.890585610020096 ], [ 32.294914898772468, 45.902477028486274 ], [ 32.288057424605071, 45.906765108282521 ], [ 32.256280205871839, 45.915343192002645 ], [ 32.251946328398361, 45.919377140547553 ], [ 32.191612729954592, 45.927179810360769 ], [ 32.164505237235439, 45.933467141297875 ], [ 32.147870124117333, 45.940514301972499 ], [ 32.059643116978599, 45.950996824248769 ], [ 32.027793771582708, 45.959515687113168 ], [ 32.001706964923237, 45.971065229731309 ], [ 31.929291538457029, 45.983502057926593 ], [ 31.893380119891315, 45.997777235611117 ], [ 31.865141343443064, 45.998697519908539 ], [ 31.822731775007522, 46.006371802588447 ], [ 31.81074756196703, 46.01112117967957 ], [ 31.729218009575369, 46.017095449246028 ], [ 31.687455925919945, 46.028257419445723 ], [ 31.613832030599255, 46.035198671944634 ], [ 31.566945420342044, 46.046796162815724 ], [ 31.540703797337024, 46.058250468345783 ], [ 31.490557591587766, 46.06651805623693 ], [ 31.4417425653889, 46.081842446999964 ], [ 31.403745528996684, 46.099751346830665 ], [ 31.401874631810248, 46.10352483255474 ], [ 31.382864719962619, 46.112475078831423 ], [ 31.376574052549817, 46.120255303475119 ], [ 31.371483829197043, 46.120722404053588 ], [ 31.343083927496899, 46.148533466969518 ], [ 31.337990552942436, 46.14899929448827 ], [ 31.333901824624846, 46.154775082580642 ], [ 31.321835555699138, 46.159478583296668 ], [ 31.313317979206076, 46.169259166281819 ], [ 31.308222208724903, 46.169723826960571 ], [ 31.28607835439793, 46.189747058020792 ], [ 31.286746106036052, 46.19328768538297 ], [ 31.277550050531516, 46.199525876425611 ], [ 31.278217482051883, 46.203066593525669 ], [ 31.26303535245297, 46.218850925319686 ], [ 31.261818487796834, 46.226164135917934 ], [ 31.257049966331405, 46.228397404537752 ], [ 31.249510892694495, 46.243486503328732 ], [ 31.238641899743371, 46.282286016769682 ], [ 31.240539326965568, 46.319929898379222 ], [ 31.233320814642909, 46.336790001119773 ], [ 31.230659670808659, 46.36404233894941 ], [ 31.238017260937966, 46.402994358200367 ], [ 31.158663075943704, 46.410146835512144 ], [ 31.149654062263405, 46.403752106035988 ], [ 31.144533856703237, 46.404211242045186 ], [ 31.118843987490834, 46.392105152069419 ], [ 31.045449150671033, 46.375234092644597 ], [ 31.02723174890227, 46.304821570330908 ], [ 31.00151410940402, 46.263881589051799 ], [ 30.967247091443948, 46.232692996496716 ], [ 30.958184573418325, 46.183074244821995 ], [ 30.931945144215398, 46.13856581009378 ], [ 30.885371589586555, 46.095830418329747 ], [ 30.839189155266151, 46.069246938002287 ], [ 30.828365331998157, 46.066586527186537 ], [ 30.801335396896455, 46.031121258878109 ], [ 30.795927925860358, 46.029789011920585 ], [ 30.792117646969228, 46.022917032140136 ], [ 30.786711172714696, 46.021584262529274 ], [ 30.774006046819025, 46.008278861626025 ], [ 30.765741578950902, 46.005391468735532 ], [ 30.765111454514624, 46.001845020225581 ], [ 30.719379592783618, 45.976975223063221 ], [ 30.714292173666184, 45.977411982318898 ], [ 30.705409437449514, 45.970972505988001 ], [ 30.667304862561178, 45.959830472822887 ], [ 30.661960391374535, 45.944083622238878 ], [ 30.640807352450533, 45.911680887819166 ], [ 30.600667355122145, 45.873685472870015 ], [ 30.571885328878817, 45.856319807314343 ], [ 30.560584706023505, 45.835671574398305 ], [ 30.531928678810441, 45.803883419273845 ], [ 30.526548928079759, 45.802536047449131 ], [ 30.513961167954673, 45.789192821638508 ], [ 30.505742089508392, 45.786282829286023 ], [ 30.505133254169813, 45.782733507955285 ], [ 30.485554942526207, 45.773574379058346 ], [ 30.474610224214995, 45.754688640931043 ], [ 30.44635153132732, 45.724646741141349 ], [ 30.426201110253306, 45.711924919710626 ], [ 30.425598886367048, 45.708374729521516 ], [ 30.411727678739236, 45.702328076276181 ], [ 30.411126572346294, 45.698777731152255 ], [ 30.368935174833457, 45.677074916797785 ], [ 30.34464911226684, 45.670081239184697 ], [ 30.332137191904732, 45.656712165803455 ], [ 30.309505361868879, 45.644174255527403 ], [ 30.308911930678725, 45.640622828526602 ], [ 30.280638262952305, 45.624942668175549 ], [ 30.261740762447534, 45.619289513726407 ], [ 30.248966302524256, 45.604132853869281 ], [ 30.228903768662139, 45.591369084314472 ], [ 30.228316512712258, 45.587816807916937 ], [ 30.217317892636828, 45.583312360555176 ], [ 30.216731532251263, 45.579759962351211 ], [ 30.171882290100019, 45.556400358140635 ], [ 30.166824920556813, 45.5568098185351 ], [ 30.160893992684201, 45.55188959615483 ], [ 30.125990723736056, 45.542107146029707 ], [ 30.117536660837477, 45.53738793263188 ], [ 30.116957522036518, 45.533834505916566 ], [ 30.105977584400936, 45.529317725107418 ], [ 30.105399336318058, 45.525764178238084 ], [ 30.074423321731185, 45.508449961927298 ], [ 30.066553896309781, 45.507280129359323 ], [ 30.074583805425281, 45.477837173329355 ], [ 30.072735928337266, 45.434785727539229 ], [ 30.118524762286697, 45.449108274945978 ], [ 30.165697917436738, 45.456100156145922 ], [ 30.212004542458679, 45.457742623105148 ], [ 30.282370743526467, 45.450195909958531 ], [ 30.343369989250267, 45.432578098689291 ], [ 30.381342719345277, 45.415037524638109 ], [ 30.392461787233888, 45.405115463267265 ], [ 30.404468517334813, 45.400518534680778 ], [ 30.410838911876322, 45.392789089051384 ], [ 30.415878112011637, 45.39236999845896 ], [ 30.440311832266268, 45.370534822600867 ], [ 30.43971584831997, 45.366984566873924 ], [ 30.457473400616511, 45.351102255280473 ], [ 30.458797321243583, 45.343791720752243 ], [ 30.467671228140745, 45.335849829052492 ], [ 30.481103377955353, 45.309525845556578 ], [ 30.491239482536002, 45.263677594108749 ], [ 30.480808993296783, 45.201554974766182 ], [ 30.462317865076145, 45.167104937078506 ], [ 30.456706407141564, 45.163974251542278 ], [ 30.452419808816924, 45.153533159648489 ], [ 30.433820383408346, 45.13348682870933 ], [ 30.428509095873753, 45.132129595712371 ], [ 30.416118692264643, 45.118762384686782 ], [ 30.408007247806765, 45.115837280175136 ], [ 30.407418533273844, 45.112286534190019 ], [ 30.390905328925342, 45.10465874083409 ], [ 30.390317903860666, 45.101107812205441 ], [ 30.327109608460081, 45.072137552978624 ], [ 30.274084288755223, 45.058496181314766 ], [ 30.264060524697413, 45.059316920592515 ], [ 30.240351020756183, 45.054055446642415 ], [ 30.184353416933046, 45.053212562216885 ], [ 30.126986689238322, 45.059651039522798 ], [ 30.105276181297711, 45.066798221865596 ], [ 30.092738616764773, 45.067805627709426 ], [ 30.021165730832497, 45.096926912956405 ], [ 30.010028043856281, 45.106812512720225 ], [ 29.998041582186271, 45.111365020678335 ], [ 29.989126257747472, 45.11927216684856 ], [ 29.989689151774723, 45.122827116006256 ], [ 29.976029845323474, 45.132909466968734 ], [ 29.976592193133403, 45.136464536345322 ], [ 29.969619879627427, 45.140616514811242 ], [ 29.970181980069505, 45.144171642320302 ], [ 29.957075806220796, 45.157807549896205 ], [ 29.953735184528721, 45.16887063047534 ], [ 29.803185872533739, 45.182468870583463 ], [ 29.824110836516645, 45.202439133095709 ], [ 29.836375060352214, 45.232080631449449 ], [ 29.836065032195581, 45.262702357656401 ], [ 29.824567905531705, 45.286996649500018 ], [ 29.797940368844355, 45.312465656853369 ], [ 29.767108153430399, 45.327454447615075 ], [ 29.725068694635308, 45.336098569726261 ], [ 29.707139795649443, 45.335677563042928 ], [ 29.728649647787798, 45.359221360840642 ], [ 29.738387439190575, 45.389069232623129 ], [ 29.735786644445184, 45.421668166831552 ], [ 29.71999705890709, 45.451682904461649 ], [ 29.734015781756366, 45.459603124712352 ], [ 29.76148162050028, 45.488082203148736 ], [ 29.773798883462405, 45.517728602012191 ], [ 29.772918635384489, 45.544796303285622 ], [ 29.756846139544759, 45.573038966426772 ], [ 29.764442924715581, 45.572451774258255 ], [ 29.781050625134533, 45.563966333582137 ], [ 29.815931617773018, 45.557658380283698 ], [ 29.854459722284904, 45.5582545544301 ], [ 29.89721473961399, 45.56930562944563 ], [ 29.936343526454451, 45.589626579975914 ], [ 29.960875590639251, 45.614689495579611 ], [ 29.973620041801489, 45.646081641331307 ], [ 29.970881990866015, 45.67689945893369 ], [ 29.961065228685737, 45.695676933468242 ], [ 29.950098382552689, 45.707344130967343 ], [ 29.955458556742649, 45.708720710495335 ], [ 29.974122277131901, 45.728845136128157 ], [ 29.98235809658695, 45.747993626618729 ], [ 29.997354480700306, 45.761204697189271 ], [ 30.029204850959832, 45.751470652832602 ], [ 30.079968758809269, 45.747413683928102 ], [ 30.091785386124542, 45.741065640561445 ], [ 30.1267246185032, 45.734655935505224 ], [ 30.16536291843568, 45.735136502423131 ], [ 30.216503802525686, 45.748988130910128 ], [ 30.250497882949169, 45.767818623918863 ], [ 30.266449345978369, 45.786316480055582 ], [ 30.290483834896996, 45.791548147942827 ], [ 30.321690241800226, 45.808785904228017 ], [ 30.352776460164844, 45.840426779228608 ], [ 30.356818158001008, 45.849094020082816 ], [ 30.384933835445878, 45.862969530720122 ], [ 30.419237003584158, 45.897926681196083 ], [ 30.432020860784714, 45.927467257865651 ], [ 30.430995222316604, 45.936554111715445 ], [ 30.459174937909392, 45.950406341624088 ], [ 30.465788399419687, 45.958855224095842 ], [ 30.482889829252318, 45.968226236030453 ], [ 30.486658033481746, 45.975111883640196 ], [ 30.513643607052487, 45.98184943087 ], [ 30.542173867053155, 45.997452059677371 ], [ 30.542789645636034, 46.001000862760655 ], [ 30.556753342477954, 46.00702453092044 ], [ 30.557370259092288, 46.010573175928819 ], [ 30.571337882655133, 46.016594731547244 ], [ 30.593190124623348, 46.038150189712475 ], [ 30.59790833343461, 46.050353040314839 ], [ 30.613133617611055, 46.063464529782685 ], [ 30.617548118803338, 46.073892072565926 ], [ 30.646156053557956, 46.089462503422055 ], [ 30.66806925046517, 46.110999034639306 ], [ 30.685172723888158, 46.149147331510328 ], [ 30.705868027273652, 46.16357938042816 ], [ 30.734840438567321, 46.195301423190834 ], [ 30.744696224458259, 46.221461424258926 ], [ 30.75012264601439, 46.222794769877751 ], [ 30.785542164767037, 46.261151635515574 ], [ 30.791924188884217, 46.282206782469622 ], [ 30.807905315591196, 46.298829412018975 ], [ 30.839568143196338, 46.315888729349282 ], [ 30.869675783373136, 46.352882047278108 ], [ 30.876106358845519, 46.373929212645763 ], [ 30.886373554873547, 46.387438521118227 ], [ 30.896026647231146, 46.411804856531752 ], [ 30.898972015739417, 46.442159454653869 ], [ 30.891337821337522, 46.471638261373592 ], [ 30.968383647524508, 46.49369351896118 ], [ 30.989564038298319, 46.49542824886872 ], [ 31.006270725161741, 46.501156049103187 ], [ 31.0139679339858, 46.5004754660537 ], [ 31.041270940737153, 46.50706108440199 ], [ 31.086623839124094, 46.526439880945659 ], [ 31.122881908139387, 46.525004024129487 ], [ 31.164038474822281, 46.535722634101461 ], [ 31.209218082646405, 46.526253527098049 ], [ 31.273679042108668, 46.522220548840629 ], [ 31.295209145348231, 46.52566641102122 ], [ 31.330432306606014, 46.518854057533346 ], [ 31.358974507995111, 46.518045205672976 ], [ 31.380164844727208, 46.519704776899005 ], [ 31.416224981451712, 46.530797890561544 ], [ 31.429043912532638, 46.529616776679724 ], [ 31.450925237364302, 46.534801181784388 ], [ 31.447837359496027, 46.518877588011541 ], [ 31.450219516644321, 46.504249744607257 ] ], [ [ 30.172655599439238, 45.342139113612546 ], [ 30.137887228401922, 45.332350564892423 ], [ 30.109824109120858, 45.316612308618232 ], [ 30.088471059509626, 45.29492911190242 ], [ 30.076059612007327, 45.265326230599328 ], [ 30.07846855097031, 45.232735316500822 ], [ 30.092358487165004, 45.208222723753259 ], [ 30.11463321140786, 45.188433517047592 ], [ 30.145287954801713, 45.173362968342026 ], [ 30.187121137714175, 45.164576920746995 ], [ 30.233185860000862, 45.166229224102992 ], [ 30.267859133997796, 45.175995068020285 ], [ 30.295884000246087, 45.191695933298526 ], [ 30.317265338403494, 45.213336532300843 ], [ 30.329783701960213, 45.242903658673434 ], [ 30.327521717010121, 45.275488463881921 ], [ 30.31372687767961, 45.300023307763333 ], [ 30.291490407317017, 45.319849905311969 ], [ 30.260807376272034, 45.33496350527021 ], [ 30.218867276993848, 45.343785988200757 ], [ 30.172655599439238, 45.342139113612546 ] ] ], [ [ [ 36.534015319583887, 45.182577316207421 ], [ 36.530597091830323, 45.179451633247069 ], [ 36.531563758912363, 45.182919188783103 ], [ 36.534015319583887, 45.182577316207421 ] ] ], [ [ [ 36.531563758912363, 45.182919188783103 ], [ 36.52320658293862, 45.189487718195984 ], [ 36.528075588599172, 45.197815034551738 ], [ 36.5324963906642, 45.195397454460654 ], [ 36.531563758912363, 45.182919188783103 ] ] ], [ [ [ 36.53539887686096, 45.205799941550595 ], [ 36.531495100631979, 45.200940695489315 ], [ 36.532946335135968, 45.206141980055193 ], [ 36.53539887686096, 45.205799941550595 ] ] ], [ [ [ 36.593602454859138, 45.258909926853541 ], [ 36.586771806347436, 45.243654111561817 ], [ 36.555927873972365, 45.224549643029739 ], [ 36.554958322361678, 45.221082522972566 ], [ 36.552505356812333, 45.221425071305006 ], [ 36.551536118805735, 45.217957891654052 ], [ 36.549083246802937, 45.218300348128153 ], [ 36.548114322327379, 45.214833108902525 ], [ 36.545661543873635, 45.215175473531772 ], [ 36.54469293285608, 45.211708174750513 ], [ 36.542240247953892, 45.212050447548357 ], [ 36.541271950321288, 45.208583089230537 ], [ 36.538819358973178, 45.208925270210472 ], [ 36.537851374652504, 45.205457852375133 ], [ 36.53539887686096, 45.205799941550595 ], [ 36.543177464421738, 45.224528423001097 ], [ 36.543600810000513, 45.24428347021049 ], [ 36.55632788388607, 45.253314545252977 ], [ 36.55778403681451, 45.258515155027659 ], [ 36.563664256115821, 45.261296312978764 ], [ 36.593602454859138, 45.258909926853541 ] ] ], [ [ [ 34.850689509114972, 45.796710170608868 ], [ 34.840257885367066, 45.796197942484866 ], [ 34.840699061484102, 45.797945017729447 ], [ 34.850689509114972, 45.796710170608868 ] ] ], [ [ [ 34.804252249076242, 45.816854777926459 ], [ 34.831148886734702, 45.800926162881346 ], [ 34.838642491358932, 45.800000687090964 ], [ 34.838201347913206, 45.798253596992026 ], [ 34.816160580400052, 45.802775682815138 ], [ 34.79029736427001, 45.802359079467735 ], [ 34.804252249076242, 45.816854777926459 ] ] ], [ [ [ 34.212208696872644, 46.171034667032586 ], [ 34.220584052507078, 46.162841406519625 ], [ 34.243650093929908, 46.15111360590155 ], [ 34.262951807108365, 46.145231166586598 ], [ 34.287715631930901, 46.140500622965781 ], [ 34.316282024517569, 46.140718826354835 ], [ 34.352765462141193, 46.130978537840726 ], [ 34.399378072497896, 46.130827953514725 ], [ 34.402250654145206, 46.121475546250046 ], [ 34.413104386005095, 46.112971161152061 ], [ 34.400877572821706, 46.105422892699913 ], [ 34.380172160588998, 46.084470212540957 ], [ 34.36911209642173, 46.060563619052886 ], [ 34.369905164087896, 46.053262105787134 ], [ 34.340590940696259, 46.06035455781673 ], [ 34.315012157017939, 46.061590677231493 ], [ 34.294033763997525, 46.060474199708686 ], [ 34.266743082074377, 46.054694863032111 ], [ 34.225990197480066, 46.036082461088256 ], [ 34.19865257131012, 46.008672442363121 ], [ 34.180234548940469, 46.018042905178504 ], [ 34.15593316783756, 46.024496588118708 ], [ 34.151348721248461, 46.03764504259852 ], [ 34.130415209048728, 46.058111479674253 ], [ 34.125381365101639, 46.058700032737974 ], [ 34.119097689355229, 46.06483932337855 ], [ 34.114502617901714, 46.077987694918299 ], [ 34.093119076535864, 46.096698039450622 ], [ 34.117903393894707, 46.102814018333845 ], [ 34.153643749211184, 46.122055391336986 ], [ 34.174287559577486, 46.14305802982102 ], [ 34.189516419155375, 46.173702661421551 ], [ 34.212208696872644, 46.171034667032586 ] ] ], [ [ [ 33.895612036283524, 46.148371778547812 ], [ 33.934712037649682, 46.149282518367336 ], [ 33.937668192151222, 46.139933801674026 ], [ 33.957022627207138, 46.123290083577736 ], [ 33.956186222309015, 46.119783245334986 ], [ 33.937282268528229, 46.11655679136544 ], [ 33.91923400879238, 46.106022234837134 ], [ 33.912503395576778, 46.110399188700228 ], [ 33.907854619630491, 46.123544703678853 ], [ 33.886792589500445, 46.143978611888407 ], [ 33.870376235026818, 46.15126496951229 ], [ 33.895612036283524, 46.148371778547812 ] ] ], [ [ [ 33.865744375146782, 46.153597005314317 ], [ 33.871208106520271, 46.154772994989571 ], [ 33.870792151444739, 46.153018983973624 ], [ 33.865744375146782, 46.153597005314317 ] ] ], [ [ [ 34.986512363908226, 46.176255473053807 ], [ 34.954168996809187, 46.151453207353654 ], [ 34.9480564373468, 46.13779695152288 ], [ 34.942133332459235, 46.134929883542156 ], [ 34.953386788715534, 46.178583803374273 ], [ 34.95680196901661, 46.181762895369495 ], [ 34.986512363908226, 46.176255473053807 ] ] ], [ [ [ 38.291871691627186, 47.040661213762334 ], [ 38.325622721964088, 46.999263613675474 ], [ 38.324477317034074, 46.995829040671779 ], [ 38.336671387177532, 46.984891454050818 ], [ 38.337462200786895, 46.979347927987703 ], [ 38.331871500598531, 46.97841456139021 ], [ 38.323991990990947, 46.970611715048875 ], [ 38.315321662237317, 46.968351612719296 ], [ 38.307446295679114, 46.960547124891129 ], [ 38.288969231462971, 46.952587694304263 ], [ 38.281100407869317, 46.944780598140049 ], [ 38.272435720690098, 46.942516370683677 ], [ 38.264571034657095, 46.934707636614981 ], [ 38.255908541693529, 46.9324418180328 ], [ 38.248047991080448, 46.924631447444263 ], [ 38.239387692081486, 46.922364038711173 ], [ 38.231531274746892, 46.914552032986677 ], [ 38.22287316945976, 46.912283035077373 ], [ 38.215020883261509, 46.904469395600067 ], [ 38.196576402519099, 46.896490431629246 ], [ 38.188730640626723, 46.888674196063874 ], [ 38.180078173524073, 46.886401087065742 ], [ 38.178946569477837, 46.882963733691632 ], [ 38.139831301235475, 46.860110685581574 ], [ 38.10555803064706, 46.859977903091121 ], [ 38.056500673699716, 46.854881489572577 ], [ 38.046472189103994, 46.856421248422876 ], [ 37.997417227717641, 46.851297314610683 ], [ 37.987386239991459, 46.852831805958402 ], [ 37.94641593843096, 46.848253728089674 ], [ 37.936382789436919, 46.849783672905119 ], [ 37.895414540363852, 46.845185733725572 ], [ 37.885379242817194, 46.846711130626453 ], [ 37.852495142927481, 46.84267384510396 ], [ 37.842458030607958, 46.844195415911308 ], [ 37.801493622429703, 46.83956091765662 ], [ 37.791454384978593, 46.841077938028171 ], [ 37.758574049198835, 46.837011238057357 ], [ 37.713693738819984, 46.836544677983539 ], [ 37.680816497865372, 46.83245364716042 ], [ 37.670772216460627, 46.833959903848438 ], [ 37.637896762663608, 46.829855441513061 ], [ 37.619768755299319, 46.830760325670624 ], [ 37.608954498141671, 46.821542692097658 ], [ 37.587008412011585, 46.810373881822301 ], [ 37.585917658510411, 46.806925652690005 ], [ 37.570637730234566, 46.800175924993205 ], [ 37.569548411099255, 46.796727396123288 ], [ 37.560927213407176, 46.794400506747778 ], [ 37.553185485808953, 46.786525986478871 ], [ 37.544566504271003, 46.784197535409149 ], [ 37.536828880109745, 46.776321426105746 ], [ 37.528212114402443, 46.773991414320676 ], [ 37.520478591469676, 46.766113717351985 ], [ 37.511864041267991, 46.763782145830248 ], [ 37.504134617354723, 46.755902862564668 ], [ 37.49552228233204, 46.753569732284724 ], [ 37.48779695522871, 46.745688864089985 ], [ 37.479186835056865, 46.74335417603011 ], [ 37.471465602553408, 46.735471724273118 ], [ 37.46285769690266, 46.733135479411395 ], [ 37.455140556788436, 46.725251445458284 ], [ 37.446534865327472, 46.722913644772653 ], [ 37.438821815391321, 46.715028029988822 ], [ 37.38613650839465, 46.697528600493712 ], [ 37.375565390528912, 46.697279708627235 ], [ 37.371983862240036, 46.694196725817719 ], [ 37.34977099719822, 46.690242511315361 ], [ 37.28581309822421, 46.686984799302572 ], [ 37.217511533328349, 46.695150500120477 ], [ 37.166898395141935, 46.709729515042319 ], [ 37.137014341053444, 46.697820431636956 ], [ 37.098150974328, 46.690811020666537 ], [ 37.072139666253548, 46.665692323229024 ], [ 37.066591309127034, 46.664688088703258 ], [ 37.052341725504206, 46.652305519039366 ], [ 37.040723399784184, 46.648565360266112 ], [ 37.039673560493839, 46.645107385920397 ], [ 37.025022671501539, 46.63999766361421 ], [ 37.015900787470372, 46.592588367460841 ], [ 37.00304419258935, 46.56737012334149 ], [ 36.978092511762831, 46.536669761944147 ], [ 36.95024072236285, 46.513597445767125 ], [ 36.925524997606352, 46.500895683787682 ], [ 36.924487860998035, 46.497435627259001 ], [ 36.888214100470371, 46.480964968317139 ], [ 36.883204275245198, 46.48167924604072 ], [ 36.873622730869911, 46.475828395048147 ], [ 36.868613013761909, 46.476541973393033 ], [ 36.847983200484514, 46.468653721751679 ], [ 36.814834835711743, 46.462538950402262 ], [ 36.766660651974817, 46.458540660334023 ], [ 36.73306354394208, 46.459680004193174 ], [ 36.680431102552717, 46.467095378504624 ], [ 36.641843666262361, 46.477926917197799 ], [ 36.613780675387567, 46.489075194782032 ], [ 36.60527063788971, 46.495677966880372 ], [ 36.597743315501113, 46.496730950524864 ], [ 36.591739524444655, 46.502982098536819 ], [ 36.56466555852144, 46.517586780328642 ], [ 36.548636125263471, 46.534253527564729 ], [ 36.541101394914527, 46.535303445464471 ], [ 36.52400474835234, 46.530468138173767 ], [ 36.499881202773068, 46.5284104941368 ], [ 36.479737065883882, 46.495130430599694 ], [ 36.453603552838402, 46.468089237353105 ], [ 36.448081346040873, 46.467050216617046 ], [ 36.443560925104634, 46.460461158116999 ], [ 36.438039628813421, 46.459421523295326 ], [ 36.423986233988138, 46.446935633466587 ], [ 36.412445722038655, 46.443119305736538 ], [ 36.411443202377967, 46.439650500106275 ], [ 36.358284622898807, 46.418121794392079 ], [ 36.332770179368673, 46.383756459957915 ], [ 36.292256377076001, 46.351443208936381 ], [ 36.220247877092866, 46.318005774540175 ], [ 36.215236692586906, 46.31868890758583 ], [ 36.194742620229675, 46.31066081903775 ], [ 36.134707605966923, 46.300783224954223 ], [ 36.072115114320212, 46.300233281164722 ], [ 36.016961407910728, 46.307662430392135 ], [ 35.966234339835843, 46.321682384665991 ], [ 35.948101441929673, 46.331322293451613 ], [ 35.940573129720988, 46.332329228127577 ], [ 35.889122040029207, 46.362636917612043 ], [ 35.848046125160472, 46.402360911408934 ], [ 35.846980326917503, 46.407911972595848 ], [ 35.841952111882705, 46.408579716257982 ], [ 35.831033967002305, 46.39740676811936 ], [ 35.809585646568323, 46.385825358449374 ], [ 35.808623374616694, 46.382346634673034 ], [ 35.797127495631244, 46.378459614845816 ], [ 35.796166262181195, 46.37498068647794 ], [ 35.757739580014878, 46.35842326420866 ], [ 35.752713836727231, 46.359086542414232 ], [ 35.746251781141567, 46.354530001832636 ], [ 35.741226129191254, 46.355192732550265 ], [ 35.718255130704563, 46.347400990783903 ], [ 35.712877743193985, 46.337290925209089 ], [ 35.688143290015525, 46.313498970396012 ], [ 35.682644108051953, 46.312418306821691 ], [ 35.678229442205229, 46.30578637523314 ], [ 35.669744422370464, 46.303294117151239 ], [ 35.66234615918507, 46.295250169374206 ], [ 35.647892277219157, 46.289933082530894 ], [ 35.646943460366138, 46.286451715939506 ], [ 35.629035084286599, 46.277979035478118 ], [ 35.624013741702299, 46.278635782742079 ], [ 35.608621576009419, 46.269830812380064 ], [ 35.603600510556817, 46.270486574672773 ], [ 35.5806824773084, 46.262660242923822 ], [ 35.564042397218664, 46.239590334076667 ], [ 35.531425973538767, 46.214990143377186 ], [ 35.505594407436973, 46.176883656814546 ], [ 35.481499527300734, 46.154770463734692 ], [ 35.469606039396176, 46.149099642130246 ], [ 35.456670966220102, 46.120130508271416 ], [ 35.436704794379118, 46.093870852665518 ], [ 35.409249686177013, 46.068573343976666 ], [ 35.39098835221214, 46.058307929681682 ], [ 35.367852030995742, 46.019830239852169 ], [ 35.327250257808835, 45.983587454452071 ], [ 35.278993480154305, 45.957318766119982 ], [ 35.273993308559213, 45.957956719685129 ], [ 35.261708098469853, 45.950512979184367 ], [ 35.256708154891498, 45.951150103863363 ], [ 35.23647114323753, 45.942914382606332 ], [ 35.192831777107273, 45.934041290890917 ], [ 35.151014834244755, 45.932128179076159 ], [ 35.162389834169616, 45.916274061062701 ], [ 35.161483697978191, 45.912784873701654 ], [ 35.166029149521101, 45.910407761259286 ], [ 35.173085595407855, 45.887891650840736 ], [ 35.202156141379682, 45.860782081808537 ], [ 35.201249268833386, 45.857293473994716 ], [ 35.209873731717437, 45.850793147816233 ], [ 35.208966692344234, 45.847304653142885 ], [ 35.220764863218704, 45.833193168896926 ], [ 35.230289127891339, 45.810360759457708 ], [ 35.233235237625216, 45.791968371338157 ], [ 35.273560478916579, 45.768813603042915 ], [ 35.312700023980732, 45.731381878521731 ], [ 35.311790351084511, 45.727894905604266 ], [ 35.318348491695176, 45.723452236592593 ], [ 35.317438718741954, 45.719965346775929 ], [ 35.329186086722999, 45.705849367162905 ], [ 35.336165656321057, 45.683335331683658 ], [ 35.377280209671362, 45.66364436810818 ], [ 35.39397195046876, 45.648885875362105 ], [ 35.398941879144445, 45.648246002756359 ], [ 35.404570978450657, 45.640314661830125 ], [ 35.409539912697724, 45.639674420742907 ], [ 35.437460924762895, 45.609049165856256 ], [ 35.436547392595898, 45.605564068070699 ], [ 35.448243285589903, 45.591442517857892 ], [ 35.448897730782029, 45.584151921506262 ], [ 35.453403829270513, 45.581767935960528 ], [ 35.460326515606873, 45.559254953704347 ], [ 35.484212739104166, 45.552559559822299 ], [ 35.527193691920061, 45.530768429165569 ], [ 35.528755252599439, 45.526962571931733 ], [ 35.546743672019616, 45.517416890956618 ], [ 35.552340575959612, 45.509482544629769 ], [ 35.557294676687988, 45.508837308029499 ], [ 35.57297575735538, 45.490580838542492 ], [ 35.596219522496561, 45.539788633588614 ], [ 35.615527887300622, 45.564287331963264 ], [ 35.635947239449735, 45.58323309647372 ], [ 35.641368636329105, 45.58432436649715 ], [ 35.64569950311617, 45.590963087641853 ], [ 35.654064612502239, 45.593469420768209 ], [ 35.661341352961784, 45.601522789769859 ], [ 35.678540797654591, 45.60827247871471 ], [ 35.679469398527118, 45.611753748067009 ], [ 35.694193668650755, 45.618826270487311 ], [ 35.699154179962662, 45.61817367520257 ], [ 35.714347959810098, 45.626983437672294 ], [ 35.719308731893598, 45.626329877026684 ], [ 35.72566739036138, 45.63089689499764 ], [ 35.744429592859255, 45.6338269836777 ], [ 35.747843610570207, 45.636979700127497 ], [ 35.809570762138335, 45.646829183271237 ], [ 35.863527928688661, 45.646867298644651 ], [ 35.927510466742433, 45.636529085272123 ], [ 35.983661883886462, 45.616393178017752 ], [ 36.019181804793583, 45.624231443928991 ], [ 36.073568296249434, 45.625907400580758 ], [ 36.100151067798734, 45.638529830717353 ], [ 36.105103956036608, 45.637859397892711 ], [ 36.133696321575947, 45.648399821659652 ], [ 36.149034156982495, 45.648120022585331 ], [ 36.15494604389314, 45.650920907698676 ], [ 36.170283750032652, 45.650638083028774 ], [ 36.176196758339486, 45.653437666944065 ], [ 36.191534331918092, 45.653151816496994 ], [ 36.197448460541843, 45.655950098744263 ], [ 36.212785898264748, 45.655661222340058 ], [ 36.2187011461249, 45.6584582024499 ], [ 36.234038444696438, 45.658166299910278 ], [ 36.239954810711275, 45.660961977413898 ], [ 36.255291966834882, 45.660667048562232 ], [ 36.261209449921452, 45.663461422991439 ], [ 36.27654646029967, 45.663163467652737 ], [ 36.282465059373791, 45.665956538539959 ], [ 36.297801920708253, 45.665655556540877 ], [ 36.332890301639338, 45.671648168959898 ], [ 36.604400132432829, 45.632159188835203 ], [ 36.669600905770572, 45.62660954037085 ], [ 36.676936366204217, 45.499436020642364 ], [ 36.65476184526937, 45.511565051981243 ], [ 36.626170499530225, 45.519184272240864 ], [ 36.602009466020206, 45.524373357315355 ], [ 36.566507087108981, 45.525736708866084 ], [ 36.52313344447289, 45.517374047454297 ], [ 36.493590898867978, 45.503467954870366 ], [ 36.486222029991488, 45.495483406467919 ], [ 36.470453675901759, 45.494070285863657 ], [ 36.461497606709813, 45.51693493764266 ], [ 36.441690582418879, 45.537699704683256 ], [ 36.413003535661687, 45.554283822978441 ], [ 36.372477162037079, 45.565286145793628 ], [ 36.331982922418938, 45.567259201028136 ], [ 36.288587634033128, 45.558803674319883 ], [ 36.234975476082695, 45.531907640857028 ], [ 36.217827810545351, 45.516231702061575 ], [ 36.209055721982971, 45.503014840031661 ], [ 36.197574928133072, 45.461340744968481 ], [ 36.174165532470589, 45.487949175416666 ], [ 36.140938896260678, 45.506877613632049 ], [ 36.100365864271176, 45.517782069928515 ], [ 36.075176809520755, 45.51938688107446 ], [ 36.054454186809167, 45.518581567153831 ], [ 36.019004501541296, 45.510747295829844 ], [ 35.983202988468925, 45.492139293000548 ], [ 35.966133399577828, 45.476414248799699 ], [ 35.96472065316722, 45.471199137238742 ], [ 35.960249863126528, 45.473600022727936 ], [ 35.956131888527018, 45.48676260297551 ], [ 35.936118272910029, 45.507458107731743 ], [ 35.90725897394163, 45.523926968352072 ], [ 35.852226407935973, 45.538468184146005 ], [ 35.809211454544176, 45.540578357663698 ], [ 35.765870181994408, 45.531905069989136 ], [ 35.736463524708242, 45.517773854501236 ], [ 35.713105355151825, 45.497434019515907 ], [ 35.701672450766296, 45.473719375137193 ], [ 35.696724688651386, 45.474370484468857 ], [ 35.658099972657958, 45.45422618636951 ], [ 35.641126267209472, 45.438438647478975 ], [ 35.6324997603529, 45.425158397404118 ], [ 35.625606148667686, 45.39904202635185 ], [ 35.615896938771172, 45.39130647683794 ], [ 35.604536802812191, 45.367575178983955 ], [ 35.603800851039836, 45.355063174477046 ], [ 35.590354074248943, 45.362223502786847 ], [ 35.556680043969074, 45.370217946625381 ], [ 35.526113985136043, 45.370593159718304 ], [ 35.505951256382829, 45.39122387268268 ], [ 35.469568179721016, 45.408548440985399 ], [ 35.435841002886505, 45.4165116913803 ], [ 35.397816260168952, 45.417813041483996 ], [ 35.354604076104714, 45.408959971254944 ], [ 35.325351363264573, 45.394700049813061 ], [ 35.302188618140853, 45.374250540073248 ], [ 35.290961623024124, 45.350470928811788 ], [ 35.275440460203079, 45.35965748704163 ], [ 35.256544887281933, 45.365669898514277 ], [ 35.23224863853256, 45.370565259517349 ], [ 35.194234258206215, 45.371793516407109 ], [ 35.191066137559154, 45.379399677269127 ], [ 35.168729543558044, 45.402042734875174 ], [ 35.148216909048749, 45.411843048625322 ], [ 35.171349005875356, 45.432329855519633 ], [ 35.179873706462558, 45.445658880775866 ], [ 35.187264423838506, 45.464534825318886 ], [ 35.188319210669555, 45.49862430329118 ], [ 35.17562650603449, 45.529053656678443 ], [ 35.155272425367315, 45.549643716765658 ], [ 35.130186282147818, 45.561821081700877 ], [ 35.140517620515389, 45.582132201631239 ], [ 35.1425059298628, 45.599894761713529 ], [ 35.141114961641428, 45.614481834565034 ], [ 35.129527110654891, 45.639364293886118 ], [ 35.109122181792536, 45.659953391833412 ], [ 35.079892754631793, 45.676244748223887 ], [ 35.060866437814234, 45.68223947405653 ], [ 35.038453368032819, 45.685052609342044 ], [ 35.030718088080363, 45.695029895931626 ], [ 35.001444056202516, 45.711305547618366 ], [ 34.974916773844853, 45.71822283945869 ], [ 34.971263523501264, 45.724083321147297 ], [ 34.941954490565479, 45.740347186521937 ], [ 34.912908446554873, 45.747562696788862 ], [ 34.913793878214967, 45.751055776545037 ], [ 34.88915867869148, 45.775732335523365 ], [ 34.859795821414934, 45.791980620542489 ], [ 34.852303974673944, 45.792907359061743 ], [ 34.910618511361591, 45.78928328507557 ], [ 34.954114775559603, 45.798284939829799 ], [ 34.989866203243828, 45.817245630257418 ], [ 35.006817694282816, 45.833143383466393 ], [ 35.01539052040151, 45.846484450570891 ], [ 35.0223653791762, 45.863628721030615 ], [ 35.023640518237734, 45.888694090768489 ], [ 35.009654012328213, 45.924679742460853 ], [ 35.005099169294517, 45.927051353097895 ], [ 34.999126184962797, 45.944015063111202 ], [ 34.963737265514254, 45.977263471613441 ], [ 34.956671477644662, 45.97994606937344 ], [ 34.968402258800928, 46.005512909262038 ], [ 34.96967077608533, 46.03058254772364 ], [ 34.964131061170555, 46.049293522105401 ], [ 34.976929720972969, 46.038687067047391 ], [ 35.011379457535341, 46.02176855760009 ], [ 35.045555942873051, 46.013883321940739 ], [ 35.08403306204805, 46.012654424026223 ], [ 35.127730940538314, 46.021565487762153 ], [ 35.15732131973008, 46.035848379761667 ], [ 35.184651759604378, 46.061222936776907 ], [ 35.19605492442075, 46.085008112516292 ], [ 35.198575205463996, 46.104513019036602 ], [ 35.197217998401435, 46.119103222926931 ], [ 35.185602480181075, 46.144005382191786 ], [ 35.163020769869881, 46.166689696940907 ], [ 35.133570750154114, 46.183027141972559 ], [ 35.114386173769361, 46.189051468871021 ], [ 35.091773231940756, 46.191899103086328 ], [ 35.121686309751304, 46.216968978538013 ], [ 35.130368645226582, 46.230293028851662 ], [ 35.135853942894435, 46.231403197417187 ], [ 35.156433230529629, 46.250432910934904 ], [ 35.165130940880182, 46.263752863890595 ], [ 35.169261143915087, 46.279452877844044 ], [ 35.174292820419751, 46.278816117532841 ], [ 35.18022142540071, 46.261842979599507 ], [ 35.200771810207925, 46.241213786741355 ], [ 35.230225215699384, 46.224856902309213 ], [ 35.246891846836171, 46.219132247695477 ], [ 35.281136126854207, 46.211163823575589 ], [ 35.306711457487523, 46.209700276257422 ], [ 35.327725336079467, 46.210617175426691 ], [ 35.363613238171922, 46.218634531280088 ], [ 35.402769400240686, 46.238837601336108 ], [ 35.423902585390685, 46.259549446363081 ], [ 35.435469042908771, 46.283295124643118 ], [ 35.434826436517, 46.290588778629093 ], [ 35.455229434853642, 46.298771144312965 ], [ 35.482377666113791, 46.322301823329163 ], [ 35.50184400969021, 46.355836770875868 ], [ 35.503096377184029, 46.370097338227716 ], [ 35.531716957369369, 46.369989546575525 ], [ 35.57323839198002, 46.379011843495384 ], [ 35.59464260310223, 46.390645013206651 ], [ 35.608172665187453, 46.392484876820077 ], [ 35.6470683085589, 46.410837508435449 ], [ 35.654484695951759, 46.418881308159243 ], [ 35.673533353420318, 46.421793068682419 ], [ 35.706478209560686, 46.437299899270123 ], [ 35.734288586846482, 46.462489797707207 ], [ 35.743052090629995, 46.484776596268766 ], [ 35.769572174216364, 46.495703205833742 ], [ 35.783505687110363, 46.508288352217271 ], [ 35.828065870221515, 46.527634915004931 ], [ 35.852008030628816, 46.547901398630607 ], [ 35.858412621379706, 46.561478005725341 ], [ 35.889634844968839, 46.560931239954087 ], [ 35.925325921137187, 46.566992847456817 ], [ 35.963958519247974, 46.583470439502747 ], [ 35.971448567179564, 46.591485396667352 ], [ 36.01171494003497, 46.595102580489197 ], [ 36.036489530164573, 46.580950234418161 ], [ 36.073296156820732, 46.572384128799619 ], [ 36.117594649832725, 46.571809979891825 ], [ 36.154292919778449, 46.581267360489058 ], [ 36.180504246228018, 46.572297177014214 ], [ 36.210216422030427, 46.566451203027412 ], [ 36.246447309500049, 46.565118328209884 ], [ 36.28215460357562, 46.571059962723304 ], [ 36.320871995602744, 46.587399956643011 ], [ 36.331931058370479, 46.598508949480916 ], [ 36.352568505543374, 46.597476863724019 ], [ 36.388302347723609, 46.603380421261534 ], [ 36.430091850324601, 46.621063254807027 ], [ 36.454791196201668, 46.642902603245432 ], [ 36.494113707028497, 46.660904013844288 ], [ 36.516849160950926, 46.68480789277988 ], [ 36.530461524647336, 46.686522837538533 ], [ 36.594597150659375, 46.717272522724805 ], [ 36.631823811497064, 46.701237139648796 ], [ 36.691732771221552, 46.691021667928453 ], [ 36.705289031716426, 46.683700569842244 ], [ 36.72529760636592, 46.66283768210009 ], [ 36.747869118591439, 46.650630823445645 ], [ 36.766950662828535, 46.64432564845167 ], [ 36.791570471892683, 46.639037033004158 ], [ 36.827788638417466, 46.637509581431495 ], [ 36.872142656674285, 46.645637989090666 ], [ 36.902472001714635, 46.659359321691284 ], [ 36.926841827706987, 46.679338078694116 ], [ 36.943265204798188, 46.707667718005041 ], [ 36.95059108224747, 46.731884549852822 ], [ 36.955622341845569, 46.731164385085613 ], [ 36.99263036594953, 46.74932116011216 ], [ 37.017606805789043, 46.771001016897458 ], [ 37.029490246056632, 46.792755357398363 ], [ 37.057708098443761, 46.790497596672758 ], [ 37.093601066378199, 46.796148587212201 ], [ 37.13321464980308, 46.813884011550826 ], [ 37.161043244666814, 46.818875552776724 ], [ 37.191540853179156, 46.832497573609096 ], [ 37.192607322630515, 46.835952785893156 ], [ 37.21244171671357, 46.815016408430587 ], [ 37.241408345088303, 46.798160163462065 ], [ 37.285065506963832, 46.786368539077692 ], [ 37.321328971945363, 46.78466848345537 ], [ 37.357224553957757, 46.790230725839578 ], [ 37.405518371956909, 46.810201514326138 ], [ 37.451719914557025, 46.848515004548972 ], [ 37.457486876093313, 46.858494856801187 ], [ 37.467202025204394, 46.864279550766433 ], [ 37.479635105258346, 46.878688462490715 ], [ 37.486499339588924, 46.892115952877162 ], [ 37.517316020710489, 46.914630079686056 ], [ 37.529443330153384, 46.936302918775269 ], [ 37.538089030563114, 46.938629787955804 ], [ 37.562825344015856, 46.958425368225654 ], [ 37.569725751340663, 46.971844406628591 ], [ 37.598658929739166, 46.996425999243883 ], [ 37.612356464422795, 46.997993696410568 ], [ 37.625185775837309, 47.005107198212755 ], [ 37.654317082853609, 46.997138522801869 ], [ 37.715864962353223, 46.99151887873608 ], [ 37.769243615774883, 47.001543886547722 ], [ 37.810632799727159, 46.99890686472925 ], [ 37.847251462220612, 47.006007408983422 ], [ 37.883596086942539, 47.020362272704212 ], [ 37.922182450121909, 47.009076091140855 ], [ 37.950416484996019, 47.006580064331139 ], [ 37.971662102495124, 47.00695023857277 ], [ 37.983408520656248, 47.010574685456483 ], [ 38.019180400724942, 47.006907923960668 ], [ 38.055815618305246, 47.013934865328217 ], [ 38.066128672419403, 47.005125391757623 ], [ 38.095413057596211, 46.989784004199571 ], [ 38.129454779997261, 46.980926287329559 ], [ 38.168262206874459, 46.978546427546398 ], [ 38.212985424824602, 46.986074294207334 ], [ 38.243791803119223, 46.999359455684605 ], [ 38.272446624105918, 47.022004563714937 ], [ 38.286274231907989, 47.039726211242701 ], [ 38.291871691627186, 47.040661213762334 ] ] ], [ [ [ 34.80325848848144, 47.228473181924869 ], [ 34.808387460209346, 47.227842903962404 ], [ 34.807924773468372, 47.226096016027789 ], [ 34.80233347513218, 47.224979325479055 ], [ 34.80325848848144, 47.228473181924869 ] ] ], [ [ [ 34.391483941908206, 47.346811919323905 ], [ 34.396633326327965, 47.346198937234284 ], [ 34.40783436883892, 47.348471929820484 ], [ 34.403905836340002, 47.343529200647367 ], [ 34.391483941908206, 47.346811919323905 ] ] ], [ [ [ 34.480506399015184, 47.383075879552472 ], [ 34.469749842932437, 47.382560529085609 ], [ 34.477626888582442, 47.392439485700379 ], [ 34.487930665646701, 47.391204661482888 ], [ 34.480506399015184, 47.383075879552472 ] ] ], [ [ [ 35.165860501761841, 47.567626039183388 ], [ 35.173766404251943, 47.55760584087448 ], [ 35.173941881561255, 47.548560745832432 ], [ 35.160280634058338, 47.537651651207788 ], [ 35.153392735625303, 47.522278859582954 ], [ 35.116862045007181, 47.52507085931417 ], [ 35.091296520053461, 47.519257939964525 ], [ 35.083569979170548, 47.52022673386265 ], [ 35.090628423985471, 47.526559589465869 ], [ 35.097499150479578, 47.541938092183365 ], [ 35.120022199148956, 47.546327864628218 ], [ 35.150577062932953, 47.560529143696783 ], [ 35.151536134123084, 47.564017509646099 ], [ 35.160706468643966, 47.568275803052025 ], [ 35.165860501761841, 47.567626039183388 ] ] ], [ [ [ 32.79054635848555, 49.307394954958653 ], [ 32.813624187995089, 49.288764322839178 ], [ 32.838393833278325, 49.277170442798386 ], [ 32.846463733361837, 49.276331341904225 ], [ 32.850132531267121, 49.268731911343913 ], [ 32.872741454940332, 49.248332567464601 ], [ 32.905108291136642, 49.234126148583911 ], [ 32.916395771864693, 49.223922906176689 ], [ 32.948732693308493, 49.209706272370674 ], [ 32.977836951802935, 49.204842609735728 ], [ 32.988766394460903, 49.18203768514789 ], [ 33.009028130088417, 49.163660540780363 ], [ 33.008164817631631, 49.160142660332312 ], [ 32.98948637216904, 49.151285608825646 ], [ 32.938526283702664, 49.156643885456212 ], [ 32.916208235039797, 49.155374318379181 ], [ 32.90419368482322, 49.151218614686904 ], [ 32.879622052353007, 49.151981878634594 ], [ 32.864252912054297, 49.168019817414724 ], [ 32.836856669840643, 49.179893713531733 ], [ 32.83135633451473, 49.191291491450919 ], [ 32.808751003880644, 49.211681676663041 ], [ 32.776789506479119, 49.227621926692734 ], [ 32.758396697203622, 49.23132674404058 ], [ 32.731209545982139, 49.255781684414551 ], [ 32.686580185661654, 49.276607130524475 ], [ 32.670851949748311, 49.280023526778777 ], [ 32.674386891063129, 49.283269901942241 ], [ 32.712493293818596, 49.281163298128277 ], [ 32.750024559888224, 49.288124601156454 ], [ 32.79054635848555, 49.307394954958653 ] ] ] ] } }
]
}
